address,company_name,country,email,phone,postcode,state,suburb,website
Vernon Circle,Cosgrave Soutter Chartered Accountants,AU,csoutter@cosgravesoutter.com.au,02 62720900,2601,Australian Capital Territory,City,http://www.cosgravesoutter.com.au
Novar Street,Prosperity Accounting Solutions,AU,paul.clark@ozemail.com.au,(02) 6281 5843,2600,Australian Capital Territory,Yarralumla,
Wattle Street,Russell Smorhun & Associates,AU,,02 62476176,2602,Australian Capital Territory,O'Connor,http://
Brigalow Street,William Barlin t/a MTR-Mobile Tax Returns,AU,admin@mobiletaxaccountants.com.au,02 6257 4936,2602,Australian Capital Territory,Lyneham,http://www.mobiletaxaccountants.com.au
Challis Street,Taxpert Accountancy Solutions,AU,office@taxpert.com.au,02 6262 6236,2602,Australian Capital Territory,Dickson,
Woolley Street,Hussey & Hussey Pty Ltd,AU,admin@hussey.com.au,02 62476735,2602,Australian Capital Territory,Dickson,http://www.hussey.com.au
Geils Court,MCS Accounting Pty Ltd,AU,pmiller@vincents.com.au,0262743400,2600,Australian Capital Territory,Deakin,http://www.mcsaccounting.com.au/
Geils Court,MCS Superannuation & Financial Services Pty Ltd,AU,admin@mcsaccounting.com.au,02 6215 7600,2600,Australian Capital Territory,Deakin,http://www.mcsaccounting.com.au
Geils Court,Thomson Accounting,AU,peter@peterthomsonaccounting.com.au,02 62395500,2600,Australian Capital Territory,Deakin,
Kent Street,Evri Group Pty Ltd,AU,irene.cassimatis@evri.com.au,02 61629800,2600,Australian Capital Territory,Deakin,
Harvey Street,Diana's Guide to Wellbeing Pty Ltd tr/a Diana's Guide to Wellbeing,AU,felsyd@hotmail.com,0410 657 032,2602,Australian Capital Territory,Watson,http://www.dianasguidetowellbeing.com.au/
Viner Place,Platt Partners,AU,anthony@plattpartners.com.au,02 6242 4324,2913,Australian Capital Territory,Nicholls,
Staaten Crescent,Hadrill Accounting Pty Ltd,AU,officemanager@hadrillaccounting.com.au,02 6154 7792,2617,Australian Capital Territory,Kaleen,http://www.hadrillaccounting.com.au
Wanderlight Avenue,Callaghans Pty Ltd t/as Callaghans,AU,info@callaghans.com.au,61262566000,2617,Australian Capital Territory,Lawson,http://www.callaghans.com.au/
Wanderlight Avenue,Vanzwan Accounting Plus Pty Ltd,AU,peter@vanzwan.com.au,61262514888,2617,Australian Capital Territory,Lawson,http://www.vanzwan.com.au
Christina Stead Street,Tax & Accounting Services Australasia,AU,anandakulatunga@me.com,02 6242 7578,2913,Australian Capital Territory,Franklin,
Christina Stead Street,Tax & Accounting Services Australia,AU,ananda.kulatunga@tas-australia.com.au,02-62427578,2913,Australian Capital Territory,Franklin,http://www.tas-australia.com/index.html
Thynne Street,Patrick Kwan & Co,AU,cindy@kwanco.com.au,0262535026,2617,Australian Capital Territory,Bruce,http://www.kwanco.com.au
Crisp Circuit,MI Tax Consultants,AU,gsenevir@bigpond.net.au,02 62512205,2617,Australian Capital Territory,Bruce,
Wales Street,Chaloner & Associates Pty Ltd,AU,admin@chaloner.com.au,02 6251 5544,2617,Australian Capital Territory,Belconnen,
Casuarina Drive,Tom Jelly,AU,t_jelly@bigpond.com,0417878914,0810,Northern Territory,Nightcliff,
Bauhinia Street,Santhiraruban Sivasubramaniam t/a NPA Tax Accountants,AU,ruban.sivasubramaniam@gmail.com,0424481117,0810,Northern Territory,Nightcliff,
Casuarina Drive,Tom Jelly,AU,t_jelly@bigpond.com,0417878914,0810,Northern Territory,Nightcliff,
Bauhinia Street,Santhiraruban Sivasubramaniam t/a NPA Tax Accountants,AU,ruban.sivasubramaniam@gmail.com,0424481117,0810,Northern Territory,Nightcliff,
Casuarina Drive,Tom Jelly,AU,t_jelly@bigpond.com,0417878914,0810,Northern Territory,Nightcliff,
Bauhinia Street,Santhiraruban Sivasubramaniam t/a NPA Tax Accountants,AU,ruban.sivasubramaniam@gmail.com,0424481117,0810,Northern Territory,Nightcliff,
Albatross Street,JKY & Co,AU,john@jkyco.com.au,08 89477030,0820,Northern Territory,Winnellie,
Charlton Court,RBA Chartered Accountants,AU,dan.riggall@rbant.com.au,08 89812444,0820,Northern Territory,The Narrows,http://www.rbant.com.au
Allen Street,Moore Stephens (NT) Pty Ltd,AU,NT@moorestephens.com.au,+61 8 8981 5222,0820,Northern Territory,Fannie Bay,
Karangi Street,Absolute Accounting and Audit,AU,linagilmour.absolute@gmail.com,0401 043 507,0820,Northern Territory,Bayview,
Casuarina Drive,Tom Jelly,AU,t_jelly@bigpond.com,0417878914,0810,Northern Territory,Nightcliff,
Bauhinia Street,Santhiraruban Sivasubramaniam t/a NPA Tax Accountants,AU,ruban.sivasubramaniam@gmail.com,0424481117,0810,Northern Territory,Nightcliff,
Bauhinia Street,Santhiraruban Sivasubramaniam t/a NPA Tax Accountants,AU,ruban.sivasubramaniam@gmail.com,0424481117,0810,Northern Territory,Nightcliff,
Casuarina Drive,Tom Jelly,AU,t_jelly@bigpond.com,0417878914,0810,Northern Territory,Nightcliff,
Charlton Court,RBA Chartered Accountants,AU,dan.riggall@rbant.com.au,08 89812444,0820,Northern Territory,The Narrows,http://www.rbant.com.au
Allen Street,Moore Stephens (NT) Pty Ltd,AU,NT@moorestephens.com.au,+61 8 8981 5222,0820,Northern Territory,Fannie Bay,
Albatross Street,JKY & Co,AU,john@jkyco.com.au,08 89477030,0820,Northern Territory,Winnellie,
Karangi Street,Absolute Accounting and Audit,AU,linagilmour.absolute@gmail.com,0401 043 507,0820,Northern Territory,Bayview,
Casuarina Drive,Tom Jelly,AU,t_jelly@bigpond.com,0417878914,0810,Northern Territory,Nightcliff,
Bauhinia Street,Santhiraruban Sivasubramaniam t/a NPA Tax Accountants,AU,ruban.sivasubramaniam@gmail.com,0424481117,0810,Northern Territory,Nightcliff,
Albatross Street,JKY & Co,AU,john@jkyco.com.au,08 89477030,0820,Northern Territory,Winnellie,
Charlton Court,RBA Chartered Accountants,AU,dan.riggall@rbant.com.au,08 89812444,0820,Northern Territory,The Narrows,http://www.rbant.com.au
Allen Street,Moore Stephens (NT) Pty Ltd,AU,NT@moorestephens.com.au,+61 8 8981 5222,0820,Northern Territory,Fannie Bay,
Karangi Street,Absolute Accounting and Audit,AU,linagilmour.absolute@gmail.com,0401 043 507,0820,Northern Territory,Bayview,
Casuarina Drive,Tom Jelly,AU,t_jelly@bigpond.com,0417878914,0810,Northern Territory,Nightcliff,
Bauhinia Street,Santhiraruban Sivasubramaniam t/a NPA Tax Accountants,AU,ruban.sivasubramaniam@gmail.com,0424481117,0810,Northern Territory,Nightcliff,
Bauhinia Street,Santhiraruban Sivasubramaniam t/a NPA Tax Accountants,AU,ruban.sivasubramaniam@gmail.com,0424481117,0810,Northern Territory,Nightcliff,
Casuarina Drive,Tom Jelly,AU,t_jelly@bigpond.com,0417878914,0810,Northern Territory,Nightcliff,
Casuarina Drive,Tom Jelly,AU,t_jelly@bigpond.com,0417878914,0810,Northern Territory,Nightcliff,
Bauhinia Street,Santhiraruban Sivasubramaniam t/a NPA Tax Accountants,AU,ruban.sivasubramaniam@gmail.com,0424481117,0810,Northern Territory,Nightcliff,
Casuarina Drive,Tom Jelly,AU,t_jelly@bigpond.com,0417878914,0810,Northern Territory,Nightcliff,
Bauhinia Street,Santhiraruban Sivasubramaniam t/a NPA Tax Accountants,AU,ruban.sivasubramaniam@gmail.com,0424481117,0810,Northern Territory,Nightcliff,
Casuarina Drive,Tom Jelly,AU,t_jelly@bigpond.com,0417878914,0810,Northern Territory,Nightcliff,
Bauhinia Street,Santhiraruban Sivasubramaniam t/a NPA Tax Accountants,AU,ruban.sivasubramaniam@gmail.com,0424481117,0810,Northern Territory,Nightcliff,
Casuarina Drive,Tom Jelly,AU,t_jelly@bigpond.com,0417878914,0810,Northern Territory,Nightcliff,
Bauhinia Street,Santhiraruban Sivasubramaniam t/a NPA Tax Accountants,AU,ruban.sivasubramaniam@gmail.com,0424481117,0810,Northern Territory,Nightcliff,
Casuarina Drive,Tom Jelly,AU,t_jelly@bigpond.com,0417878914,0810,Northern Territory,Nightcliff,
Bauhinia Street,Santhiraruban Sivasubramaniam t/a NPA Tax Accountants,AU,ruban.sivasubramaniam@gmail.com,0424481117,0810,Northern Territory,Nightcliff,
Casuarina Drive,Tom Jelly,AU,t_jelly@bigpond.com,0417878914,0810,Northern Territory,Nightcliff,
Bauhinia Street,Santhiraruban Sivasubramaniam t/a NPA Tax Accountants,AU,ruban.sivasubramaniam@gmail.com,0424481117,0810,Northern Territory,Nightcliff,
Albatross Street,JKY & Co,AU,john@jkyco.com.au,08 89477030,0820,Northern Territory,Winnellie,
Bauhinia Street,Santhiraruban Sivasubramaniam t/a NPA Tax Accountants,AU,ruban.sivasubramaniam@gmail.com,0424481117,0810,Northern Territory,Nightcliff,
Casuarina Drive,Tom Jelly,AU,t_jelly@bigpond.com,0417878914,0810,Northern Territory,Nightcliff,
Charlton Court,RBA Chartered Accountants,AU,dan.riggall@rbant.com.au,08 89812444,0820,Northern Territory,The Narrows,http://www.rbant.com.au
Karangi Street,Absolute Accounting and Audit,AU,linagilmour.absolute@gmail.com,0401 043 507,0820,Northern Territory,Bayview,
Allen Street,Moore Stephens (NT) Pty Ltd,AU,NT@moorestephens.com.au,+61 8 8981 5222,0820,Northern Territory,Fannie Bay,
Casuarina Drive,Tom Jelly,AU,t_jelly@bigpond.com,0417878914,0810,Northern Territory,Nightcliff,
Bauhinia Street,Santhiraruban Sivasubramaniam t/a NPA Tax Accountants,AU,ruban.sivasubramaniam@gmail.com,0424481117,0810,Northern Territory,Nightcliff,
Bauhinia Street,Santhiraruban Sivasubramaniam t/a NPA Tax Accountants,AU,ruban.sivasubramaniam@gmail.com,0424481117,0810,Northern Territory,Nightcliff,
Casuarina Drive,Tom Jelly,AU,t_jelly@bigpond.com,0417878914,0810,Northern Territory,Nightcliff,
Charlton Court,RBA Chartered Accountants,AU,dan.riggall@rbant.com.au,08 89812444,0820,Northern Territory,The Narrows,http://www.rbant.com.au
Allen Street,Moore Stephens (NT) Pty Ltd,AU,NT@moorestephens.com.au,+61 8 8981 5222,0820,Northern Territory,Fannie Bay,
Bauhinia Street,Santhiraruban Sivasubramaniam t/a NPA Tax Accountants,AU,ruban.sivasubramaniam@gmail.com,0424481117,0810,Northern Territory,Nightcliff,
Karangi Street,Absolute Accounting and Audit,AU,linagilmour.absolute@gmail.com,0401 043 507,0820,Northern Territory,Bayview,
Casuarina Drive,Tom Jelly,AU,t_jelly@bigpond.com,0417878914,0810,Northern Territory,Nightcliff,
Albatross Street,JKY & Co,AU,john@jkyco.com.au,08 89477030,0820,Northern Territory,Winnellie,
Karangi Street,Absolute Accounting and Audit,AU,linagilmour.absolute@gmail.com,0401 043 507,0820,Northern Territory,Bayview,
Charlton Court,RBA Chartered Accountants,AU,dan.riggall@rbant.com.au,08 89812444,0820,Northern Territory,The Narrows,http://www.rbant.com.au
Woods Street,Feros Wee Pty Ltd,AU,feroswee@feroswee.com,08 8981 9777,0800,Northern Territory,Darwin City,http://www.feroswee.com/
Litchfield Street,DJMI Accounting & Consulting,AU,derek@djmi.com.au,08 7979 3078,0800,Northern Territory,Darwin City,http://www.djmi.com.au/
Allen Street,Moore Stephens (NT) Pty Ltd,AU,NT@moorestephens.com.au,+61 8 8981 5222,0820,Northern Territory,Fannie Bay,
Albatross Street,JKY & Co,AU,john@jkyco.com.au,08 89477030,0820,Northern Territory,Winnellie,
Karangi Street,Absolute Accounting and Audit,AU,linagilmour.absolute@gmail.com,0401 043 507,0820,Northern Territory,Bayview,
Woods Street,Feros Wee Pty Ltd,AU,feroswee@feroswee.com,08 8981 9777,0800,Northern Territory,Darwin City,http://www.feroswee.com/
Litchfield Street,DJMI Accounting & Consulting,AU,derek@djmi.com.au,08 7979 3078,0800,Northern Territory,Darwin City,http://www.djmi.com.au/
Charlton Court,RBA Chartered Accountants,AU,dan.riggall@rbant.com.au,08 89812444,0820,Northern Territory,The Narrows,http://www.rbant.com.au
Allen Street,Moore Stephens (NT) Pty Ltd,AU,NT@moorestephens.com.au,+61 8 8981 5222,0820,Northern Territory,Fannie Bay,
Albatross Street,JKY & Co,AU,john@jkyco.com.au,08 89477030,0820,Northern Territory,Winnellie,
Albatross Street,JKY & Co,AU,john@jkyco.com.au,08 89477030,0820,Northern Territory,Winnellie,
Charlton Court,RBA Chartered Accountants,AU,dan.riggall@rbant.com.au,08 89812444,0820,Northern Territory,The Narrows,http://www.rbant.com.au
Karangi Street,Absolute Accounting and Audit,AU,linagilmour.absolute@gmail.com,0401 043 507,0820,Northern Territory,Bayview,
Allen Street,Moore Stephens (NT) Pty Ltd,AU,NT@moorestephens.com.au,+61 8 8981 5222,0820,Northern Territory,Fannie Bay,
Woods Street,Feros Wee Pty Ltd,AU,feroswee@feroswee.com,08 8981 9777,0800,Northern Territory,Darwin City,http://www.feroswee.com/
Litchfield Street,DJMI Accounting & Consulting,AU,derek@djmi.com.au,08 7979 3078,0800,Northern Territory,Darwin City,http://www.djmi.com.au/
Allen Street,Moore Stephens (NT) Pty Ltd,AU,NT@moorestephens.com.au,+61 8 8981 5222,0820,Northern Territory,Fannie Bay,
Karangi Street,Absolute Accounting and Audit,AU,linagilmour.absolute@gmail.com,0401 043 507,0820,Northern Territory,Bayview,
Charlton Court,RBA Chartered Accountants,AU,dan.riggall@rbant.com.au,08 89812444,0820,Northern Territory,The Narrows,http://www.rbant.com.au
Albatross Street,JKY & Co,AU,john@jkyco.com.au,08 89477030,0820,Northern Territory,Winnellie,
Allen Street,Moore Stephens (NT) Pty Ltd,AU,NT@moorestephens.com.au,+61 8 8981 5222,0820,Northern Territory,Fannie Bay,
Charlton Court,RBA Chartered Accountants,AU,dan.riggall@rbant.com.au,08 89812444,0820,Northern Territory,The Narrows,http://www.rbant.com.au
Karangi Street,Absolute Accounting and Audit,AU,linagilmour.absolute@gmail.com,0401 043 507,0820,Northern Territory,Bayview,
Albatross Street,JKY & Co,AU,john@jkyco.com.au,08 89477030,0820,Northern Territory,Winnellie,
Allen Street,Moore Stephens (NT) Pty Ltd,AU,NT@moorestephens.com.au,+61 8 8981 5222,0820,Northern Territory,Fannie Bay,
Charlton Court,RBA Chartered Accountants,AU,dan.riggall@rbant.com.au,08 89812444,0820,Northern Territory,The Narrows,http://www.rbant.com.au
Karangi Street,Absolute Accounting and Audit,AU,linagilmour.absolute@gmail.com,0401 043 507,0820,Northern Territory,Bayview,
Albatross Street,JKY & Co,AU,john@jkyco.com.au,08 89477030,0820,Northern Territory,Winnellie,
Woods Street,Feros Wee Pty Ltd,AU,feroswee@feroswee.com,08 8981 9777,0800,Northern Territory,Darwin City,http://www.feroswee.com/
Litchfield Street,DJMI Accounting & Consulting,AU,derek@djmi.com.au,08 7979 3078,0800,Northern Territory,Darwin City,http://www.djmi.com.au/
Karangi Street,Absolute Accounting and Audit,AU,linagilmour.absolute@gmail.com,0401 043 507,0820,Northern Territory,Bayview,
Allen Street,Moore Stephens (NT) Pty Ltd,AU,NT@moorestephens.com.au,+61 8 8981 5222,0820,Northern Territory,Fannie Bay,
Charlton Court,RBA Chartered Accountants,AU,dan.riggall@rbant.com.au,08 89812444,0820,Northern Territory,The Narrows,http://www.rbant.com.au
Albatross Street,JKY & Co,AU,john@jkyco.com.au,08 89477030,0820,Northern Territory,Winnellie,
Charlton Court,RBA Chartered Accountants,AU,dan.riggall@rbant.com.au,08 89812444,0820,Northern Territory,The Narrows,http://www.rbant.com.au
Karangi Street,Absolute Accounting and Audit,AU,linagilmour.absolute@gmail.com,0401 043 507,0820,Northern Territory,Bayview,
Allen Street,Moore Stephens (NT) Pty Ltd,AU,NT@moorestephens.com.au,+61 8 8981 5222,0820,Northern Territory,Fannie Bay,
Albatross Street,JKY & Co,AU,john@jkyco.com.au,08 89477030,0820,Northern Territory,Winnellie,
Allen Street,Moore Stephens (NT) Pty Ltd,AU,NT@moorestephens.com.au,+61 8 8981 5222,0820,Northern Territory,Fannie Bay,
Karangi Street,Absolute Accounting and Audit,AU,linagilmour.absolute@gmail.com,0401 043 507,0820,Northern Territory,Bayview,
Charlton Court,RBA Chartered Accountants,AU,dan.riggall@rbant.com.au,08 89812444,0820,Northern Territory,The Narrows,http://www.rbant.com.au
Albatross Street,JKY & Co,AU,john@jkyco.com.au,08 89477030,0820,Northern Territory,Winnellie,
Karangi Street,Absolute Accounting and Audit,AU,linagilmour.absolute@gmail.com,0401 043 507,0820,Northern Territory,Bayview,
Allen Street,Moore Stephens (NT) Pty Ltd,AU,NT@moorestephens.com.au,+61 8 8981 5222,0820,Northern Territory,Fannie Bay,
Charlton Court,RBA Chartered Accountants,AU,dan.riggall@rbant.com.au,08 89812444,0820,Northern Territory,The Narrows,http://www.rbant.com.au
Woods Street,Feros Wee Pty Ltd,AU,feroswee@feroswee.com,08 8981 9777,0800,Northern Territory,Darwin City,http://www.feroswee.com/
Litchfield Street,DJMI Accounting & Consulting,AU,derek@djmi.com.au,08 7979 3078,0800,Northern Territory,Darwin City,http://www.djmi.com.au/
Albatross Street,JKY & Co,AU,john@jkyco.com.au,08 89477030,0820,Northern Territory,Winnellie,
Litchfield Street,DJMI Accounting & Consulting,AU,derek@djmi.com.au,08 7979 3078,0800,Northern Territory,Darwin City,http://www.djmi.com.au/
Woods Street,Feros Wee Pty Ltd,AU,feroswee@feroswee.com,08 8981 9777,0800,Northern Territory,Darwin City,http://www.feroswee.com/
Karangi Street,Absolute Accounting and Audit,AU,linagilmour.absolute@gmail.com,0401 043 507,0820,Northern Territory,Bayview,
Charlton Court,RBA Chartered Accountants,AU,dan.riggall@rbant.com.au,08 89812444,0820,Northern Territory,The Narrows,http://www.rbant.com.au
Allen Street,Moore Stephens (NT) Pty Ltd,AU,NT@moorestephens.com.au,+61 8 8981 5222,0820,Northern Territory,Fannie Bay,
Albatross Street,JKY & Co,AU,john@jkyco.com.au,08 89477030,0820,Northern Territory,Winnellie,
Charlton Court,RBA Chartered Accountants,AU,dan.riggall@rbant.com.au,08 89812444,0820,Northern Territory,The Narrows,http://www.rbant.com.au
Karangi Street,Absolute Accounting and Audit,AU,linagilmour.absolute@gmail.com,0401 043 507,0820,Northern Territory,Bayview,
Allen Street,Moore Stephens (NT) Pty Ltd,AU,NT@moorestephens.com.au,+61 8 8981 5222,0820,Northern Territory,Fannie Bay,
Albatross Street,JKY & Co,AU,john@jkyco.com.au,08 89477030,0820,Northern Territory,Winnellie,
Karangi Street,Absolute Accounting and Audit,AU,linagilmour.absolute@gmail.com,0401 043 507,0820,Northern Territory,Bayview,
Charlton Court,RBA Chartered Accountants,AU,dan.riggall@rbant.com.au,08 89812444,0820,Northern Territory,The Narrows,http://www.rbant.com.au
Allen Street,Moore Stephens (NT) Pty Ltd,AU,NT@moorestephens.com.au,+61 8 8981 5222,0820,Northern Territory,Fannie Bay,
Woods Street,Feros Wee Pty Ltd,AU,feroswee@feroswee.com,08 8981 9777,0800,Northern Territory,Darwin City,http://www.feroswee.com/
Litchfield Street,DJMI Accounting & Consulting,AU,derek@djmi.com.au,08 7979 3078,0800,Northern Territory,Darwin City,http://www.djmi.com.au/
Albatross Street,JKY & Co,AU,john@jkyco.com.au,08 89477030,0820,Northern Territory,Winnellie,
Deane Crescent,The Adding Value CFO Pty Ltd,AU,theaddingvaluecfo@outlook.com,0417894107,0832,Northern Territory,Rosebery,http://theaddingvaluecfo.com
The Boulevard,Richbel Pty Ltd T/as Consulting Direct,AU,belindahowie@consultingdirect.com.au,08 89327447,0830,Northern Territory,Palmerston City,
Casuarina Drive,Tom Jelly,AU,t_jelly@bigpond.com,0417878914,0810,Northern Territory,Nightcliff,
Bauhinia Street,Santhiraruban Sivasubramaniam t/a NPA Tax Accountants,AU,ruban.sivasubramaniam@gmail.com,0424481117,0810,Northern Territory,Nightcliff,
Deane Crescent,The Adding Value CFO Pty Ltd,AU,theaddingvaluecfo@outlook.com,0417894107,0832,Northern Territory,Rosebery,http://theaddingvaluecfo.com
The Boulevard,Richbel Pty Ltd T/as Consulting Direct,AU,belindahowie@consultingdirect.com.au,08 89327447,0830,Northern Territory,Palmerston City,
Deane Crescent,The Adding Value CFO Pty Ltd,AU,theaddingvaluecfo@outlook.com,0417894107,0832,Northern Territory,Rosebery,http://theaddingvaluecfo.com
Hartley Street,ClarityNT,AU,admin@claritynt.com.au,08 8953 4440,0870,Northern Territory,Desert Springs,http://www.claritynt.com.au
Kirk Place,Thembelihle Ncube t/as ESAT Accounting Services,AU,esatbusinessservices@gmail.com,0439 863 949,0870,Northern Territory,Gillen,
De Havilland Drive,TCMG Pty Ltd,AU,info@tcmg.com.au,08 89555752,0870,Northern Territory,Araluen,
The Boulevard,Richbel Pty Ltd T/as Consulting Direct,AU,belindahowie@consultingdirect.com.au,08 89327447,0830,Northern Territory,Palmerston City,
Deane Crescent,The Adding Value CFO Pty Ltd,AU,theaddingvaluecfo@outlook.com,0417894107,0832,Northern Territory,Rosebery,http://theaddingvaluecfo.com
Allen Street,Moore Stephens (NT) Pty Ltd,AU,NT@moorestephens.com.au,+61 8 8981 5222,0820,Northern Territory,Fannie Bay,
Karangi Street,Absolute Accounting and Audit,AU,linagilmour.absolute@gmail.com,0401 043 507,0820,Northern Territory,Bayview,
Charlton Court,RBA Chartered Accountants,AU,dan.riggall@rbant.com.au,08 89812444,0820,Northern Territory,The Narrows,http://www.rbant.com.au
Albatross Street,JKY & Co,AU,john@jkyco.com.au,08 89477030,0820,Northern Territory,Winnellie,
Allen Street,Moore Stephens (NT) Pty Ltd,AU,NT@moorestephens.com.au,+61 8 8981 5222,0820,Northern Territory,Fannie Bay,
Karangi Street,Absolute Accounting and Audit,AU,linagilmour.absolute@gmail.com,0401 043 507,0820,Northern Territory,Bayview,
Charlton Court,RBA Chartered Accountants,AU,dan.riggall@rbant.com.au,08 89812444,0820,Northern Territory,The Narrows,http://www.rbant.com.au
Albatross Street,JKY & Co,AU,john@jkyco.com.au,08 89477030,0820,Northern Territory,Winnellie,
The Boulevard,Richbel Pty Ltd T/as Consulting Direct,AU,belindahowie@consultingdirect.com.au,08 89327447,0830,Northern Territory,Palmerston City,
Deane Crescent,The Adding Value CFO Pty Ltd,AU,theaddingvaluecfo@outlook.com,0417894107,0832,Northern Territory,Rosebery,http://theaddingvaluecfo.com
The Boulevard,Richbel Pty Ltd T/as Consulting Direct,AU,belindahowie@consultingdirect.com.au,08 89327447,0830,Northern Territory,Palmerston City,
Deane Crescent,The Adding Value CFO Pty Ltd,AU,theaddingvaluecfo@outlook.com,0417894107,0832,Northern Territory,Rosebery,http://theaddingvaluecfo.com
Casuarina Drive,Tom Jelly,AU,t_jelly@bigpond.com,0417878914,0810,Northern Territory,Nightcliff,
Bauhinia Street,Santhiraruban Sivasubramaniam t/a NPA Tax Accountants,AU,ruban.sivasubramaniam@gmail.com,0424481117,0810,Northern Territory,Nightcliff,
Deane Crescent,The Adding Value CFO Pty Ltd,AU,theaddingvaluecfo@outlook.com,0417894107,0832,Northern Territory,Rosebery,http://theaddingvaluecfo.com
The Boulevard,Richbel Pty Ltd T/as Consulting Direct,AU,belindahowie@consultingdirect.com.au,08 89327447,0830,Northern Territory,Palmerston City,
Deane Crescent,The Adding Value CFO Pty Ltd,AU,theaddingvaluecfo@outlook.com,0417894107,0832,Northern Territory,Rosebery,http://theaddingvaluecfo.com
The Boulevard,Richbel Pty Ltd T/as Consulting Direct,AU,belindahowie@consultingdirect.com.au,08 89327447,0830,Northern Territory,Palmerston City,
The Boulevard,Richbel Pty Ltd T/as Consulting Direct,AU,belindahowie@consultingdirect.com.au,08 89327447,0830,Northern Territory,Palmerston City,
Deane Crescent,The Adding Value CFO Pty Ltd,AU,theaddingvaluecfo@outlook.com,0417894107,0832,Northern Territory,Rosebery,http://theaddingvaluecfo.com
The Boulevard,Richbel Pty Ltd T/as Consulting Direct,AU,belindahowie@consultingdirect.com.au,08 89327447,0830,Northern Territory,Palmerston City,
Deane Crescent,The Adding Value CFO Pty Ltd,AU,theaddingvaluecfo@outlook.com,0417894107,0832,Northern Territory,Rosebery,http://theaddingvaluecfo.com
The Boulevard,Richbel Pty Ltd T/as Consulting Direct,AU,belindahowie@consultingdirect.com.au,08 89327447,0830,Northern Territory,Palmerston City,
Deane Crescent,The Adding Value CFO Pty Ltd,AU,theaddingvaluecfo@outlook.com,0417894107,0832,Northern Territory,Rosebery,http://theaddingvaluecfo.com
Woods Street,Feros Wee Pty Ltd,AU,feroswee@feroswee.com,08 8981 9777,0800,Northern Territory,Darwin City,http://www.feroswee.com/
Litchfield Street,DJMI Accounting & Consulting,AU,derek@djmi.com.au,08 7979 3078,0800,Northern Territory,Darwin City,http://www.djmi.com.au/
Karangi Street,Absolute Accounting and Audit,AU,linagilmour.absolute@gmail.com,0401 043 507,0820,Northern Territory,Bayview,
Allen Street,Moore Stephens (NT) Pty Ltd,AU,NT@moorestephens.com.au,+61 8 8981 5222,0820,Northern Territory,Fannie Bay,
Charlton Court,RBA Chartered Accountants,AU,dan.riggall@rbant.com.au,08 89812444,0820,Northern Territory,The Narrows,http://www.rbant.com.au
Albatross Street,JKY & Co,AU,john@jkyco.com.au,08 89477030,0820,Northern Territory,Winnellie,
Deane Crescent,The Adding Value CFO Pty Ltd,AU,theaddingvaluecfo@outlook.com,0417894107,0832,Northern Territory,Rosebery,http://theaddingvaluecfo.com
The Boulevard,Richbel Pty Ltd T/as Consulting Direct,AU,belindahowie@consultingdirect.com.au,08 89327447,0830,Northern Territory,Palmerston City,
Deane Crescent,The Adding Value CFO Pty Ltd,AU,theaddingvaluecfo@outlook.com,0417894107,0832,Northern Territory,Rosebery,http://theaddingvaluecfo.com
Deane Crescent,The Adding Value CFO Pty Ltd,AU,theaddingvaluecfo@outlook.com,0417894107,0832,Northern Territory,Rosebery,http://theaddingvaluecfo.com
The Boulevard,Richbel Pty Ltd T/as Consulting Direct,AU,belindahowie@consultingdirect.com.au,08 89327447,0830,Northern Territory,Palmerston City,
Deane Crescent,The Adding Value CFO Pty Ltd,AU,theaddingvaluecfo@outlook.com,0417894107,0832,Northern Territory,Rosebery,http://theaddingvaluecfo.com
Litchfield Street,DJMI Accounting & Consulting,AU,derek@djmi.com.au,08 7979 3078,0800,Northern Territory,Darwin City,http://www.djmi.com.au/
Woods Street,Feros Wee Pty Ltd,AU,feroswee@feroswee.com,08 8981 9777,0800,Northern Territory,Darwin City,http://www.feroswee.com/
Karangi Street,Absolute Accounting and Audit,AU,linagilmour.absolute@gmail.com,0401 043 507,0820,Northern Territory,Bayview,
Charlton Court,RBA Chartered Accountants,AU,dan.riggall@rbant.com.au,08 89812444,0820,Northern Territory,The Narrows,http://www.rbant.com.au
Allen Street,Moore Stephens (NT) Pty Ltd,AU,NT@moorestephens.com.au,+61 8 8981 5222,0820,Northern Territory,Fannie Bay,
Albatross Street,JKY & Co,AU,john@jkyco.com.au,08 89477030,0820,Northern Territory,Winnellie,
Casuarina Drive,Tom Jelly,AU,t_jelly@bigpond.com,0417878914,0810,Northern Territory,Nightcliff,
Bauhinia Street,Santhiraruban Sivasubramaniam t/a NPA Tax Accountants,AU,ruban.sivasubramaniam@gmail.com,0424481117,0810,Northern Territory,Nightcliff,
Kirk Place,Thembelihle Ncube t/as ESAT Accounting Services,AU,esatbusinessservices@gmail.com,0439 863 949,0870,Northern Territory,Gillen,
Hartley Street,ClarityNT,AU,admin@claritynt.com.au,08 8953 4440,0870,Northern Territory,Desert Springs,http://www.claritynt.com.au
De Havilland Drive,TCMG Pty Ltd,AU,info@tcmg.com.au,08 89555752,0870,Northern Territory,Araluen,
