address,company_name,country,email,phone,postcode,state,suburb,website
Chapman Street,RHK Equities Pty Ltd,AU,info@rhkequities.com.au,02 49919119,2325,NSW,Cessnock,http://www.rhkequities.com.au
Sandy Creek Road,David J Doberer,AU,david.doberer@bigpond.com,02 49986011,2325,NSW,Cessnock,
,Ryan Accounting Taxation & Business Services,AU,mail@ryanaccounting.com.au,02 4990 2673,2325,England,Temple,http://www.ryanaccounting.com.au/
Sandy Creek Road,David J Doberer,AU,david.doberer@bigpond.com,02 49986011,2325,NSW,Cessnock,
Chapman Street,RHK Equities Pty Ltd,AU,info@rhkequities.com.au,02 49919119,2325,NSW,Cessnock,http://www.rhkequities.com.au
,Ryan Accounting Taxation & Business Services,AU,mail@ryanaccounting.com.au,02 4990 2673,2325,England,Temple,http://www.ryanaccounting.com.au/
Chapman Street,RHK Equities Pty Ltd,AU,info@rhkequities.com.au,02 49919119,2325,NSW,Cessnock,http://www.rhkequities.com.au
Sandy Creek Road,David J Doberer,AU,david.doberer@bigpond.com,02 49986011,2325,NSW,Cessnock,
,Ryan Accounting Taxation & Business Services,AU,mail@ryanaccounting.com.au,02 4990 2673,2325,England,Temple,http://www.ryanaccounting.com.au/
Sandy Creek Road,David J Doberer,AU,david.doberer@bigpond.com,02 49986011,2325,NSW,Cessnock,
Chapman Street,RHK Equities Pty Ltd,AU,info@rhkequities.com.au,02 49919119,2325,NSW,Cessnock,http://www.rhkequities.com.au
,Ryan Accounting Taxation & Business Services,AU,mail@ryanaccounting.com.au,02 4990 2673,2325,England,Temple,http://www.ryanaccounting.com.au/
Sandy Creek Road,David J Doberer,AU,david.doberer@bigpond.com,02 49986011,2325,NSW,Cessnock,
Chapman Street,RHK Equities Pty Ltd,AU,info@rhkequities.com.au,02 49919119,2325,NSW,Cessnock,http://www.rhkequities.com.au
,Ryan Accounting Taxation & Business Services,AU,mail@ryanaccounting.com.au,02 4990 2673,2325,England,Temple,http://www.ryanaccounting.com.au/
Chapman Street,RHK Equities Pty Ltd,AU,info@rhkequities.com.au,02 49919119,2325,NSW,Cessnock,http://www.rhkequities.com.au
Sandy Creek Road,David J Doberer,AU,david.doberer@bigpond.com,02 49986011,2325,NSW,Cessnock,
,Ryan Accounting Taxation & Business Services,AU,mail@ryanaccounting.com.au,02 4990 2673,2325,England,Temple,http://www.ryanaccounting.com.au/
Sandy Creek Road,David J Doberer,AU,david.doberer@bigpond.com,02 49986011,2325,NSW,Cessnock,
Chapman Street,RHK Equities Pty Ltd,AU,info@rhkequities.com.au,02 49919119,2325,NSW,Cessnock,http://www.rhkequities.com.au
,Ryan Accounting Taxation & Business Services,AU,mail@ryanaccounting.com.au,02 4990 2673,2325,England,Temple,http://www.ryanaccounting.com.au/
Sandy Creek Road,David J Doberer,AU,david.doberer@bigpond.com,02 49986011,2325,NSW,Cessnock,
Chapman Street,RHK Equities Pty Ltd,AU,info@rhkequities.com.au,02 49919119,2325,NSW,Cessnock,http://www.rhkequities.com.au
,Ryan Accounting Taxation & Business Services,AU,mail@ryanaccounting.com.au,02 4990 2673,2325,England,Temple,http://www.ryanaccounting.com.au/
Chapman Street,RHK Equities Pty Ltd,AU,info@rhkequities.com.au,02 49919119,2325,NSW,Cessnock,http://www.rhkequities.com.au
Sandy Creek Road,David J Doberer,AU,david.doberer@bigpond.com,02 49986011,2325,NSW,Cessnock,
,Ryan Accounting Taxation & Business Services,AU,mail@ryanaccounting.com.au,02 4990 2673,2325,England,Temple,http://www.ryanaccounting.com.au/
Chapman Street,RHK Equities Pty Ltd,AU,info@rhkequities.com.au,02 49919119,2325,NSW,Cessnock,http://www.rhkequities.com.au
Sandy Creek Road,David J Doberer,AU,david.doberer@bigpond.com,02 49986011,2325,NSW,Cessnock,
,Ryan Accounting Taxation & Business Services,AU,mail@ryanaccounting.com.au,02 4990 2673,2325,England,Temple,http://www.ryanaccounting.com.au/
Sandy Creek Road,David J Doberer,AU,david.doberer@bigpond.com,02 49986011,2325,NSW,Cessnock,
Chapman Street,RHK Equities Pty Ltd,AU,info@rhkequities.com.au,02 49919119,2325,NSW,Cessnock,http://www.rhkequities.com.au
,Ryan Accounting Taxation & Business Services,AU,mail@ryanaccounting.com.au,02 4990 2673,2325,England,Temple,http://www.ryanaccounting.com.au/
Sandy Creek Road,David J Doberer,AU,david.doberer@bigpond.com,02 49986011,2325,NSW,Cessnock,
Chapman Street,RHK Equities Pty Ltd,AU,info@rhkequities.com.au,02 49919119,2325,NSW,Cessnock,http://www.rhkequities.com.au
,Ryan Accounting Taxation & Business Services,AU,mail@ryanaccounting.com.au,02 4990 2673,2325,England,Temple,http://www.ryanaccounting.com.au/
Chapman Street,RHK Equities Pty Ltd,AU,info@rhkequities.com.au,02 49919119,2325,NSW,Cessnock,http://www.rhkequities.com.au
Sandy Creek Road,David J Doberer,AU,david.doberer@bigpond.com,02 49986011,2325,NSW,Cessnock,
,Ryan Accounting Taxation & Business Services,AU,mail@ryanaccounting.com.au,02 4990 2673,2325,England,Temple,http://www.ryanaccounting.com.au/
Chapman Street,RHK Equities Pty Ltd,AU,info@rhkequities.com.au,02 49919119,2325,NSW,Cessnock,http://www.rhkequities.com.au
Sandy Creek Road,David J Doberer,AU,david.doberer@bigpond.com,02 49986011,2325,NSW,Cessnock,
,Ryan Accounting Taxation & Business Services,AU,mail@ryanaccounting.com.au,02 4990 2673,2325,England,Temple,http://www.ryanaccounting.com.au/
Sandy Creek Road,David J Doberer,AU,david.doberer@bigpond.com,02 49986011,2325,NSW,Cessnock,
Chapman Street,RHK Equities Pty Ltd,AU,info@rhkequities.com.au,02 49919119,2325,NSW,Cessnock,http://www.rhkequities.com.au
,Ryan Accounting Taxation & Business Services,AU,mail@ryanaccounting.com.au,02 4990 2673,2325,England,Temple,http://www.ryanaccounting.com.au/
Sandy Creek Road,David J Doberer,AU,david.doberer@bigpond.com,02 49986011,2325,NSW,Cessnock,
Chapman Street,RHK Equities Pty Ltd,AU,info@rhkequities.com.au,02 49919119,2325,NSW,Cessnock,http://www.rhkequities.com.au
,Ryan Accounting Taxation & Business Services,AU,mail@ryanaccounting.com.au,02 4990 2673,2325,England,Temple,http://www.ryanaccounting.com.au/
Sandy Creek Road,David J Doberer,AU,david.doberer@bigpond.com,02 49986011,2325,NSW,Cessnock,
Chapman Street,RHK Equities Pty Ltd,AU,info@rhkequities.com.au,02 49919119,2325,NSW,Cessnock,http://www.rhkequities.com.au
,Ryan Accounting Taxation & Business Services,AU,mail@ryanaccounting.com.au,02 4990 2673,2325,England,Temple,http://www.ryanaccounting.com.au/
Hunter Expressway,A.S.K Ange,AU,askange@live.com.au,(042) 905-0274,2326,NSW,,
Hunter Expressway,A.S.K Ange,AU,askange@live.com.au,(042) 905-0274,2326,NSW,,
Hunter Expressway,A.S.K Ange,AU,askange@live.com.au,(042) 905-0274,2326,NSW,,
New England Highway,Brophy Duncan Pty Ltd,AU,kristi@brophyduncan.com.au,02 49307329,2321,NSW,Lochinvar,
Chapman Street,RHK Equities Pty Ltd,AU,info@rhkequities.com.au,02 49919119,2325,NSW,Cessnock,http://www.rhkequities.com.au
Hunter Expressway,A.S.K Ange,AU,askange@live.com.au,(042) 905-0274,2326,NSW,,
Sandy Creek Road,David J Doberer,AU,david.doberer@bigpond.com,02 49986011,2325,NSW,Cessnock,
,Ryan Accounting Taxation & Business Services,AU,mail@ryanaccounting.com.au,02 4990 2673,2325,England,Temple,http://www.ryanaccounting.com.au/
Hunter Expressway,A.S.K Ange,AU,askange@live.com.au,(042) 905-0274,2326,NSW,,
High Street,Pearson Smart,AU,alasdair@pearsonsmart.com.au,02 49336966,2320,NSW,,http://www.pearsonsmart.com.au
Hunter Expressway,A.S.K Ange,AU,askange@live.com.au,(042) 905-0274,2326,NSW,,
Hunter Expressway,A.S.K Ange,AU,askange@live.com.au,(042) 905-0274,2326,NSW,,
New England Highway,Brophy Duncan Pty Ltd,AU,kristi@brophyduncan.com.au,02 49307329,2321,NSW,Lochinvar,
Hunter Expressway,A.S.K Ange,AU,askange@live.com.au,(042) 905-0274,2326,NSW,,
Chapman Street,RHK Equities Pty Ltd,AU,info@rhkequities.com.au,02 49919119,2325,NSW,Cessnock,http://www.rhkequities.com.au
Melbourne Street,C. Merrick & Co. Pty Ltd & Lawes Street Accounting & Taxation Services Pty Ltd,AU,colmerrick@bigpond.com,02 49330393,2323,NSW,East Maitland,
Mitchell Drive,Excel Financial Advisors Pty Ltd,AU,admin@exceladvisors.com.au,02 49348844,2323,NSW,East Maitland,http://www.exceladvisors.com.au
Lawes Street,Bottrell Business Consultants Group Pty ltd,AU,andrew@bottrellaccounting.com.au,02 49336888,2323,NSW,East Maitland,https://www.bottrellaccounting.com.au/
Myra Street,Lawes Street Accounting & Taxation Services Pty Limited,AU,kerrin.moore@lawestreetaccounting.com.au,(02) 4933 0393,2323,NSW,East Maitland,http://www.lawesstreetaccounting.com.au
Sandy Creek Road,David J Doberer,AU,david.doberer@bigpond.com,02 49986011,2325,NSW,Cessnock,
New England Highway,Brophy Duncan Pty Ltd,AU,kristi@brophyduncan.com.au,02 49307329,2321,NSW,Lochinvar,
Maize Street,KLR Accounting,AU,kristie@klraccounting.com.au,02 4933 3434,2323,NSW,,http://www.klraccounting.com.au
,Ryan Accounting Taxation & Business Services,AU,mail@ryanaccounting.com.au,02 4990 2673,2325,England,Temple,http://www.ryanaccounting.com.au/
New England Highway,Brophy Duncan Pty Ltd,AU,kristi@brophyduncan.com.au,02 49307329,2321,NSW,Lochinvar,
Sandy Creek Road,David J Doberer,AU,david.doberer@bigpond.com,02 49986011,2325,NSW,Cessnock,
Chapman Street,RHK Equities Pty Ltd,AU,info@rhkequities.com.au,02 49919119,2325,NSW,Cessnock,http://www.rhkequities.com.au
,Ryan Accounting Taxation & Business Services,AU,mail@ryanaccounting.com.au,02 4990 2673,2325,England,Temple,http://www.ryanaccounting.com.au/
Chapman Street,RHK Equities Pty Ltd,AU,info@rhkequities.com.au,02 49919119,2325,NSW,Cessnock,http://www.rhkequities.com.au
Sandy Creek Road,David J Doberer,AU,david.doberer@bigpond.com,02 49986011,2325,NSW,Cessnock,
,Ryan Accounting Taxation & Business Services,AU,mail@ryanaccounting.com.au,02 4990 2673,2325,England,Temple,http://www.ryanaccounting.com.au/
High Street,Pearson Smart,AU,alasdair@pearsonsmart.com.au,02 49336966,2320,NSW,,http://www.pearsonsmart.com.au
High Street,Pearson Smart,AU,alasdair@pearsonsmart.com.au,02 49336966,2320,NSW,,http://www.pearsonsmart.com.au
High Street,Pearson Smart,AU,alasdair@pearsonsmart.com.au,02 49336966,2320,NSW,,http://www.pearsonsmart.com.au
New England Highway,Brophy Duncan Pty Ltd,AU,kristi@brophyduncan.com.au,02 49307329,2321,NSW,Lochinvar,
Hunter Expressway,A.S.K Ange,AU,askange@live.com.au,(042) 905-0274,2326,NSW,,
High Street,Pearson Smart,AU,alasdair@pearsonsmart.com.au,02 49336966,2320,NSW,,http://www.pearsonsmart.com.au
Chapman Street,RHK Equities Pty Ltd,AU,info@rhkequities.com.au,02 49919119,2325,NSW,Cessnock,http://www.rhkequities.com.au
Sandy Creek Road,David J Doberer,AU,david.doberer@bigpond.com,02 49986011,2325,NSW,Cessnock,
,Ryan Accounting Taxation & Business Services,AU,mail@ryanaccounting.com.au,02 4990 2673,2325,England,Temple,http://www.ryanaccounting.com.au/
High Street,Pearson Smart,AU,alasdair@pearsonsmart.com.au,02 49336966,2320,NSW,,http://www.pearsonsmart.com.au
High Street,Pearson Smart,AU,alasdair@pearsonsmart.com.au,02 49336966,2320,NSW,,http://www.pearsonsmart.com.au
New England Highway,Brophy Duncan Pty Ltd,AU,kristi@brophyduncan.com.au,02 49307329,2321,NSW,Lochinvar,
High Street,Pearson Smart,AU,alasdair@pearsonsmart.com.au,02 49336966,2320,NSW,,http://www.pearsonsmart.com.au
New England Highway,Brophy Duncan Pty Ltd,AU,kristi@brophyduncan.com.au,02 49307329,2321,NSW,Lochinvar,
High Street,Pearson Smart,AU,alasdair@pearsonsmart.com.au,02 49336966,2320,NSW,,http://www.pearsonsmart.com.au
New England Highway,Brophy Duncan Pty Ltd,AU,kristi@brophyduncan.com.au,02 49307329,2321,NSW,Lochinvar,
High Street,Pearson Smart,AU,alasdair@pearsonsmart.com.au,02 49336966,2320,NSW,,http://www.pearsonsmart.com.au
High Street,Pearson Smart,AU,alasdair@pearsonsmart.com.au,02 49336966,2320,NSW,,http://www.pearsonsmart.com.au
New England Highway,Brophy Duncan Pty Ltd,AU,kristi@brophyduncan.com.au,02 49307329,2321,NSW,Lochinvar,
New England Highway,Brophy Duncan Pty Ltd,AU,kristi@brophyduncan.com.au,02 49307329,2321,NSW,Lochinvar,
High Street,Pearson Smart,AU,alasdair@pearsonsmart.com.au,02 49336966,2320,NSW,,http://www.pearsonsmart.com.au
High Street,Pearson Smart,AU,alasdair@pearsonsmart.com.au,02 49336966,2320,NSW,,http://www.pearsonsmart.com.au
New England Highway,Brophy Duncan Pty Ltd,AU,kristi@brophyduncan.com.au,02 49307329,2321,NSW,Lochinvar,
High Street,Pearson Smart,AU,alasdair@pearsonsmart.com.au,02 49336966,2320,NSW,,http://www.pearsonsmart.com.au
White Street,Gill Accounting & Taxation,AU,michael@gillaccountingandtax.com.au,02 67655888,2340,NSW,Tamworth,
White Street,Susan M Burke,AU,burkymba@tpg.com.au,0457502388,2340,NSW,Tamworth,
Peel Street,Superfect Pty Ltd,AU,info@superfect.net.au,02 6768 3307,2340,NSW,Tamworth,http://www.superfect.net.au
B95,Roach Morgan-Jones,AU,rebecca@rmj.net.au,02 6766 3777,2340,NSW,Tamworth,http://www.rmj.net.au
Bridge Street,Buckpitt & Gill,AU,office@buckpittandgill.com.au,02 67633333,2340,NSW,Tamworth,
Songlark Place,Mathew Old,AU,mathew@gctaxserv.com.au,0424445982,2340,NSW,Tamworth,
White Street,Gill Accounting & Taxation,AU,michael@gillaccountingandtax.com.au,02 67655888,2340,NSW,Tamworth,
White Street,Susan M Burke,AU,burkymba@tpg.com.au,0457502388,2340,NSW,Tamworth,
Peel Street,Superfect Pty Ltd,AU,info@superfect.net.au,02 6768 3307,2340,NSW,Tamworth,http://www.superfect.net.au
Bridge Street,Buckpitt & Gill,AU,office@buckpittandgill.com.au,02 67633333,2340,NSW,Tamworth,
B95,Roach Morgan-Jones,AU,rebecca@rmj.net.au,02 6766 3777,2340,NSW,Tamworth,http://www.rmj.net.au
Songlark Place,Mathew Old,AU,mathew@gctaxserv.com.au,0424445982,2340,NSW,Tamworth,
Songlark Place,Mathew Old,AU,mathew@gctaxserv.com.au,0424445982,2340,NSW,Tamworth,
Bridge Street,Buckpitt & Gill,AU,office@buckpittandgill.com.au,02 67633333,2340,NSW,Tamworth,
B95,Roach Morgan-Jones,AU,rebecca@rmj.net.au,02 6766 3777,2340,NSW,Tamworth,http://www.rmj.net.au
Peel Street,Superfect Pty Ltd,AU,info@superfect.net.au,02 6768 3307,2340,NSW,Tamworth,http://www.superfect.net.au
White Street,Gill Accounting & Taxation,AU,michael@gillaccountingandtax.com.au,02 67655888,2340,NSW,Tamworth,
White Street,Susan M Burke,AU,burkymba@tpg.com.au,0457502388,2340,NSW,Tamworth,
White Street,Gill Accounting & Taxation,AU,michael@gillaccountingandtax.com.au,02 67655888,2340,NSW,Tamworth,
White Street,Susan M Burke,AU,burkymba@tpg.com.au,0457502388,2340,NSW,Tamworth,
Peel Street,Superfect Pty Ltd,AU,info@superfect.net.au,02 6768 3307,2340,NSW,Tamworth,http://www.superfect.net.au
B95,Roach Morgan-Jones,AU,rebecca@rmj.net.au,02 6766 3777,2340,NSW,Tamworth,http://www.rmj.net.au
Bridge Street,Buckpitt & Gill,AU,office@buckpittandgill.com.au,02 67633333,2340,NSW,Tamworth,
Songlark Place,Mathew Old,AU,mathew@gctaxserv.com.au,0424445982,2340,NSW,Tamworth,
Songlark Place,Mathew Old,AU,mathew@gctaxserv.com.au,0424445982,2340,NSW,Tamworth,
Bridge Street,Buckpitt & Gill,AU,office@buckpittandgill.com.au,02 67633333,2340,NSW,Tamworth,
B95,Roach Morgan-Jones,AU,rebecca@rmj.net.au,02 6766 3777,2340,NSW,Tamworth,http://www.rmj.net.au
Peel Street,Superfect Pty Ltd,AU,info@superfect.net.au,02 6768 3307,2340,NSW,Tamworth,http://www.superfect.net.au
White Street,Gill Accounting & Taxation,AU,michael@gillaccountingandtax.com.au,02 67655888,2340,NSW,Tamworth,
White Street,Susan M Burke,AU,burkymba@tpg.com.au,0457502388,2340,NSW,Tamworth,
Bridge Street,Buckpitt & Gill,AU,office@buckpittandgill.com.au,02 67633333,2340,NSW,Tamworth,
B95,Roach Morgan-Jones,AU,rebecca@rmj.net.au,02 6766 3777,2340,NSW,Tamworth,http://www.rmj.net.au
Peel Street,Superfect Pty Ltd,AU,info@superfect.net.au,02 6768 3307,2340,NSW,Tamworth,http://www.superfect.net.au
White Street,Gill Accounting & Taxation,AU,michael@gillaccountingandtax.com.au,02 67655888,2340,NSW,Tamworth,
White Street,Susan M Burke,AU,burkymba@tpg.com.au,0457502388,2340,NSW,Tamworth,
Songlark Place,Mathew Old,AU,mathew@gctaxserv.com.au,0424445982,2340,NSW,Tamworth,
White Street,Gill Accounting & Taxation,AU,michael@gillaccountingandtax.com.au,02 67655888,2340,NSW,Tamworth,
White Street,Susan M Burke,AU,burkymba@tpg.com.au,0457502388,2340,NSW,Tamworth,
Peel Street,Superfect Pty Ltd,AU,info@superfect.net.au,02 6768 3307,2340,NSW,Tamworth,http://www.superfect.net.au
B95,Roach Morgan-Jones,AU,rebecca@rmj.net.au,02 6766 3777,2340,NSW,Tamworth,http://www.rmj.net.au
Bridge Street,Buckpitt & Gill,AU,office@buckpittandgill.com.au,02 67633333,2340,NSW,Tamworth,
Songlark Place,Mathew Old,AU,mathew@gctaxserv.com.au,0424445982,2340,NSW,Tamworth,
White Street,Gill Accounting & Taxation,AU,michael@gillaccountingandtax.com.au,02 67655888,2340,NSW,Tamworth,
White Street,Susan M Burke,AU,burkymba@tpg.com.au,0457502388,2340,NSW,Tamworth,
Peel Street,Superfect Pty Ltd,AU,info@superfect.net.au,02 6768 3307,2340,NSW,Tamworth,http://www.superfect.net.au
Bridge Street,Buckpitt & Gill,AU,office@buckpittandgill.com.au,02 67633333,2340,NSW,Tamworth,
B95,Roach Morgan-Jones,AU,rebecca@rmj.net.au,02 6766 3777,2340,NSW,Tamworth,http://www.rmj.net.au
Songlark Place,Mathew Old,AU,mathew@gctaxserv.com.au,0424445982,2340,NSW,Tamworth,
Songlark Place,Mathew Old,AU,mathew@gctaxserv.com.au,0424445982,2340,NSW,Tamworth,
Bridge Street,Buckpitt & Gill,AU,office@buckpittandgill.com.au,02 67633333,2340,NSW,Tamworth,
B95,Roach Morgan-Jones,AU,rebecca@rmj.net.au,02 6766 3777,2340,NSW,Tamworth,http://www.rmj.net.au
Peel Street,Superfect Pty Ltd,AU,info@superfect.net.au,02 6768 3307,2340,NSW,Tamworth,http://www.superfect.net.au
White Street,Gill Accounting & Taxation,AU,michael@gillaccountingandtax.com.au,02 67655888,2340,NSW,Tamworth,
White Street,Susan M Burke,AU,burkymba@tpg.com.au,0457502388,2340,NSW,Tamworth,
Songlark Place,Mathew Old,AU,mathew@gctaxserv.com.au,0424445982,2340,NSW,Tamworth,
B95,Roach Morgan-Jones,AU,rebecca@rmj.net.au,02 6766 3777,2340,NSW,Tamworth,http://www.rmj.net.au
Peel Street,Superfect Pty Ltd,AU,info@superfect.net.au,02 6768 3307,2340,NSW,Tamworth,http://www.superfect.net.au
White Street,Gill Accounting & Taxation,AU,michael@gillaccountingandtax.com.au,02 67655888,2340,NSW,Tamworth,
White Street,Susan M Burke,AU,burkymba@tpg.com.au,0457502388,2340,NSW,Tamworth,
Bridge Street,Buckpitt & Gill,AU,office@buckpittandgill.com.au,02 67633333,2340,NSW,Tamworth,
White Street,Gill Accounting & Taxation,AU,michael@gillaccountingandtax.com.au,02 67655888,2340,NSW,Tamworth,
White Street,Susan M Burke,AU,burkymba@tpg.com.au,0457502388,2340,NSW,Tamworth,
Peel Street,Superfect Pty Ltd,AU,info@superfect.net.au,02 6768 3307,2340,NSW,Tamworth,http://www.superfect.net.au
B95,Roach Morgan-Jones,AU,rebecca@rmj.net.au,02 6766 3777,2340,NSW,Tamworth,http://www.rmj.net.au
Bridge Street,Buckpitt & Gill,AU,office@buckpittandgill.com.au,02 67633333,2340,NSW,Tamworth,
Songlark Place,Mathew Old,AU,mathew@gctaxserv.com.au,0424445982,2340,NSW,Tamworth,
White Street,Gill Accounting & Taxation,AU,michael@gillaccountingandtax.com.au,02 67655888,2340,NSW,Tamworth,
White Street,Susan M Burke,AU,burkymba@tpg.com.au,0457502388,2340,NSW,Tamworth,
Peel Street,Superfect Pty Ltd,AU,info@superfect.net.au,02 6768 3307,2340,NSW,Tamworth,http://www.superfect.net.au
B95,Roach Morgan-Jones,AU,rebecca@rmj.net.au,02 6766 3777,2340,NSW,Tamworth,http://www.rmj.net.au
Bridge Street,Buckpitt & Gill,AU,office@buckpittandgill.com.au,02 67633333,2340,NSW,Tamworth,
Songlark Place,Mathew Old,AU,mathew@gctaxserv.com.au,0424445982,2340,NSW,Tamworth,
White Street,Gill Accounting & Taxation,AU,michael@gillaccountingandtax.com.au,02 67655888,2340,NSW,Tamworth,
White Street,Susan M Burke,AU,burkymba@tpg.com.au,0457502388,2340,NSW,Tamworth,
Peel Street,Superfect Pty Ltd,AU,info@superfect.net.au,02 6768 3307,2340,NSW,Tamworth,http://www.superfect.net.au
B95,Roach Morgan-Jones,AU,rebecca@rmj.net.au,02 6766 3777,2340,NSW,Tamworth,http://www.rmj.net.au
Bridge Street,Buckpitt & Gill,AU,office@buckpittandgill.com.au,02 67633333,2340,NSW,Tamworth,
Songlark Place,Mathew Old,AU,mathew@gctaxserv.com.au,0424445982,2340,NSW,Tamworth,
Bridge Street,Buckpitt & Gill,AU,office@buckpittandgill.com.au,02 67633333,2340,NSW,Tamworth,
White Street,Gill Accounting & Taxation,AU,michael@gillaccountingandtax.com.au,02 67655888,2340,NSW,Tamworth,
White Street,Susan M Burke,AU,burkymba@tpg.com.au,0457502388,2340,NSW,Tamworth,
Peel Street,Superfect Pty Ltd,AU,info@superfect.net.au,02 6768 3307,2340,NSW,Tamworth,http://www.superfect.net.au
B95,Roach Morgan-Jones,AU,rebecca@rmj.net.au,02 6766 3777,2340,NSW,Tamworth,http://www.rmj.net.au
Songlark Place,Mathew Old,AU,mathew@gctaxserv.com.au,0424445982,2340,NSW,Tamworth,
Songlark Place,Mathew Old,AU,mathew@gctaxserv.com.au,0424445982,2340,NSW,Tamworth,
Bridge Street,Buckpitt & Gill,AU,office@buckpittandgill.com.au,02 67633333,2340,NSW,Tamworth,
B95,Roach Morgan-Jones,AU,rebecca@rmj.net.au,02 6766 3777,2340,NSW,Tamworth,http://www.rmj.net.au
Peel Street,Superfect Pty Ltd,AU,info@superfect.net.au,02 6768 3307,2340,NSW,Tamworth,http://www.superfect.net.au
White Street,Gill Accounting & Taxation,AU,michael@gillaccountingandtax.com.au,02 67655888,2340,NSW,Tamworth,
White Street,Susan M Burke,AU,burkymba@tpg.com.au,0457502388,2340,NSW,Tamworth,
Bridge Street,Buckpitt & Gill,AU,office@buckpittandgill.com.au,02 67633333,2340,NSW,Tamworth,
White Street,Gill Accounting & Taxation,AU,michael@gillaccountingandtax.com.au,02 67655888,2340,NSW,Tamworth,
White Street,Susan M Burke,AU,burkymba@tpg.com.au,0457502388,2340,NSW,Tamworth,
Peel Street,Superfect Pty Ltd,AU,info@superfect.net.au,02 6768 3307,2340,NSW,Tamworth,http://www.superfect.net.au
B95,Roach Morgan-Jones,AU,rebecca@rmj.net.au,02 6766 3777,2340,NSW,Tamworth,http://www.rmj.net.au
Songlark Place,Mathew Old,AU,mathew@gctaxserv.com.au,0424445982,2340,NSW,Tamworth,
Bridge Street,Buckpitt & Gill,AU,office@buckpittandgill.com.au,02 67633333,2340,NSW,Tamworth,
White Street,Gill Accounting & Taxation,AU,michael@gillaccountingandtax.com.au,02 67655888,2340,NSW,Tamworth,
White Street,Susan M Burke,AU,burkymba@tpg.com.au,0457502388,2340,NSW,Tamworth,
Peel Street,Superfect Pty Ltd,AU,info@superfect.net.au,02 6768 3307,2340,NSW,Tamworth,http://www.superfect.net.au
B95,Roach Morgan-Jones,AU,rebecca@rmj.net.au,02 6766 3777,2340,NSW,Tamworth,http://www.rmj.net.au
Songlark Place,Mathew Old,AU,mathew@gctaxserv.com.au,0424445982,2340,NSW,Tamworth,
Songlark Place,Mathew Old,AU,mathew@gctaxserv.com.au,0424445982,2340,NSW,Tamworth,
B95,Roach Morgan-Jones,AU,rebecca@rmj.net.au,02 6766 3777,2340,NSW,Tamworth,http://www.rmj.net.au
Bridge Street,Buckpitt & Gill,AU,office@buckpittandgill.com.au,02 67633333,2340,NSW,Tamworth,
Peel Street,Superfect Pty Ltd,AU,info@superfect.net.au,02 6768 3307,2340,NSW,Tamworth,http://www.superfect.net.au
White Street,Gill Accounting & Taxation,AU,michael@gillaccountingandtax.com.au,02 67655888,2340,NSW,Tamworth,
White Street,Susan M Burke,AU,burkymba@tpg.com.au,0457502388,2340,NSW,Tamworth,
White Street,Gill Accounting & Taxation,AU,michael@gillaccountingandtax.com.au,02 67655888,2340,NSW,Tamworth,
White Street,Susan M Burke,AU,burkymba@tpg.com.au,0457502388,2340,NSW,Tamworth,
Peel Street,Superfect Pty Ltd,AU,info@superfect.net.au,02 6768 3307,2340,NSW,Tamworth,http://www.superfect.net.au
B95,Roach Morgan-Jones,AU,rebecca@rmj.net.au,02 6766 3777,2340,NSW,Tamworth,http://www.rmj.net.au
Bridge Street,Buckpitt & Gill,AU,office@buckpittandgill.com.au,02 67633333,2340,NSW,Tamworth,
Songlark Place,Mathew Old,AU,mathew@gctaxserv.com.au,0424445982,2340,NSW,Tamworth,
Bridge Street,Buckpitt & Gill,AU,office@buckpittandgill.com.au,02 67633333,2340,NSW,Tamworth,
White Street,Gill Accounting & Taxation,AU,michael@gillaccountingandtax.com.au,02 67655888,2340,NSW,Tamworth,
White Street,Susan M Burke,AU,burkymba@tpg.com.au,0457502388,2340,NSW,Tamworth,
Peel Street,Superfect Pty Ltd,AU,info@superfect.net.au,02 6768 3307,2340,NSW,Tamworth,http://www.superfect.net.au
B95,Roach Morgan-Jones,AU,rebecca@rmj.net.au,02 6766 3777,2340,NSW,Tamworth,http://www.rmj.net.au
Songlark Place,Mathew Old,AU,mathew@gctaxserv.com.au,0424445982,2340,NSW,Tamworth,
Songlark Place,Mathew Old,AU,mathew@gctaxserv.com.au,0424445982,2340,NSW,Tamworth,
Bridge Street,Buckpitt & Gill,AU,office@buckpittandgill.com.au,02 67633333,2340,NSW,Tamworth,
B95,Roach Morgan-Jones,AU,rebecca@rmj.net.au,02 6766 3777,2340,NSW,Tamworth,http://www.rmj.net.au
Peel Street,Superfect Pty Ltd,AU,info@superfect.net.au,02 6768 3307,2340,NSW,Tamworth,http://www.superfect.net.au
White Street,Gill Accounting & Taxation,AU,michael@gillaccountingandtax.com.au,02 67655888,2340,NSW,Tamworth,
White Street,Susan M Burke,AU,burkymba@tpg.com.au,0457502388,2340,NSW,Tamworth,
