address,company_name,country,email,phone,postcode,state,suburb,website
Bradley Street,Cross Country Taxation,AU,mail@cctax.com.au,02 67792550,2365,NSW,,
Bradley Street,Cross Country Taxation,AU,mail@cctax.com.au,02 67792550,2365,NSW,,
Curtin Road,Wellness Business Advisors,AU,nicole@wellnessbusinessadvisors.com.au,0400599929,4382,QLD,,http://www.wellnessbusinessadvisors.com.au
Curtin Road,Wellness Business Advisors,AU,nicole@wellnessbusinessadvisors.com.au,0400599929,4382,QLD,,http://www.wellnessbusinessadvisors.com.au
,Luke Hilton,AU,ljhilton@bigpond.com,07 46810086,4380,QLD,,http://
Granite Street,Apple Tree Taxation Pty Ltd,AU,tax@appletreetaxation.com.au,0413830047,4380,QLD,,http://www.appletreetaxation.com.au
McGregor Terrace,Astute Accountants and Advisors Pty Ltd,AU,aaron@astuteaccountant.com,0409050267,4380,QLD,,
Victoria Street,Power Tynan Pty Ltd,AU,info@powertynan.com.au,07 46816700,4380,QLD,,http://www.powertynan.com.au
Curtin Road,Wellness Business Advisors,AU,nicole@wellnessbusinessadvisors.com.au,0400599929,4382,QLD,,http://www.wellnessbusinessadvisors.com.au
Curtin Road,Wellness Business Advisors,AU,nicole@wellnessbusinessadvisors.com.au,0400599929,4382,QLD,,http://www.wellnessbusinessadvisors.com.au
,Luke Hilton,AU,ljhilton@bigpond.com,07 46810086,4380,QLD,,http://
Granite Street,Apple Tree Taxation Pty Ltd,AU,tax@appletreetaxation.com.au,0413830047,4380,QLD,,http://www.appletreetaxation.com.au
Victoria Street,Power Tynan Pty Ltd,AU,info@powertynan.com.au,07 46816700,4380,QLD,,http://www.powertynan.com.au
McGregor Terrace,Astute Accountants and Advisors Pty Ltd,AU,aaron@astuteaccountant.com,0409050267,4380,QLD,,
McGregor Terrace,Astute Accountants and Advisors Pty Ltd,AU,aaron@astuteaccountant.com,0409050267,4380,QLD,,
Granite Street,Apple Tree Taxation Pty Ltd,AU,tax@appletreetaxation.com.au,0413830047,4380,QLD,,http://www.appletreetaxation.com.au
Victoria Street,Power Tynan Pty Ltd,AU,info@powertynan.com.au,07 46816700,4380,QLD,,http://www.powertynan.com.au
,Luke Hilton,AU,ljhilton@bigpond.com,07 46810086,4380,QLD,,http://
McGregor Terrace,Astute Accountants and Advisors Pty Ltd,AU,aaron@astuteaccountant.com,0409050267,4380,QLD,,
Granite Street,Apple Tree Taxation Pty Ltd,AU,tax@appletreetaxation.com.au,0413830047,4380,QLD,,http://www.appletreetaxation.com.au
Victoria Street,Power Tynan Pty Ltd,AU,info@powertynan.com.au,07 46816700,4380,QLD,,http://www.powertynan.com.au
,Luke Hilton,AU,ljhilton@bigpond.com,07 46810086,4380,QLD,,http://
,Luke Hilton,AU,ljhilton@bigpond.com,07 46810086,4380,QLD,,http://
Granite Street,Apple Tree Taxation Pty Ltd,AU,tax@appletreetaxation.com.au,0413830047,4380,QLD,,http://www.appletreetaxation.com.au
Victoria Street,Power Tynan Pty Ltd,AU,info@powertynan.com.au,07 46816700,4380,QLD,,http://www.powertynan.com.au
McGregor Terrace,Astute Accountants and Advisors Pty Ltd,AU,aaron@astuteaccountant.com,0409050267,4380,QLD,,
Curtin Road,Wellness Business Advisors,AU,nicole@wellnessbusinessadvisors.com.au,0400599929,4382,QLD,,http://www.wellnessbusinessadvisors.com.au
,Luke Hilton,AU,ljhilton@bigpond.com,07 46810086,4380,QLD,,http://
Granite Street,Apple Tree Taxation Pty Ltd,AU,tax@appletreetaxation.com.au,0413830047,4380,QLD,,http://www.appletreetaxation.com.au
Victoria Street,Power Tynan Pty Ltd,AU,info@powertynan.com.au,07 46816700,4380,QLD,,http://www.powertynan.com.au
McGregor Terrace,Astute Accountants and Advisors Pty Ltd,AU,aaron@astuteaccountant.com,0409050267,4380,QLD,,
,Luke Hilton,AU,ljhilton@bigpond.com,07 46810086,4380,QLD,,http://
Granite Street,Apple Tree Taxation Pty Ltd,AU,tax@appletreetaxation.com.au,0413830047,4380,QLD,,http://www.appletreetaxation.com.au
Victoria Street,Power Tynan Pty Ltd,AU,info@powertynan.com.au,07 46816700,4380,QLD,,http://www.powertynan.com.au
McGregor Terrace,Astute Accountants and Advisors Pty Ltd,AU,aaron@astuteaccountant.com,0409050267,4380,QLD,,
Wood Street,BNW Accountants,AU,wayne@bnwaccountants.com.au,(07) 4661 4655,4370,QLD,Warwick,http://www.bnwaccountants.com.au/index.html
Percy Street,Catalyst Accounting and Tax,AU,jane@catalystaccounting.com.au,07 4661 7888,4370,QLD,Warwick,
Stewart Avenue,Barlow Dolling Pty Ltd,AU,admin@barlows.net.au,07 4661 1508,4370,QLD,Warwick,
Grafton Street,Condamine Accountants Pty Ltd,AU,laura@condamineaccountants.com.au,0745274630,4370,QLD,Warwick,
Palmerin Street,Globe Accounting Pty Ltd,AU,info@globeaccounting.com.au,61746614900,4370,QLD,Warwick,http://www.globeaccounting.com.au
Cunningham Highway,Shannon Aspinall Bookkeeping & Accounting,AU,shannon@aspinalls.com.au,0429 868 955,4370,QLD,Warwick,
Pike Street,EveryThink Accounting and Business Services,AU,treena@everythink.com.au,0429 049 911,2380,NSW,,http://www.everythink.com.au
Barber Street,FPP Accountants Pty Ltd,AU,dgrant@fppaccountants.com.au,02 6742 6600,2380,NSW,,http://www.fppaccountants.com.au
Barber Street,FPP Accountants Pty Ltd,AU,dgrant@fppaccountants.com.au,02 6742 6600,2380,NSW,,http://www.fppaccountants.com.au
Pike Street,EveryThink Accounting and Business Services,AU,treena@everythink.com.au,0429 049 911,2380,NSW,,http://www.everythink.com.au
Barber Street,FPP Accountants Pty Ltd,AU,dgrant@fppaccountants.com.au,02 6742 6600,2380,NSW,,http://www.fppaccountants.com.au
Pike Street,EveryThink Accounting and Business Services,AU,treena@everythink.com.au,0429 049 911,2380,NSW,,http://www.everythink.com.au
Pike Street,EveryThink Accounting and Business Services,AU,treena@everythink.com.au,0429 049 911,2380,NSW,,http://www.everythink.com.au
Barber Street,FPP Accountants Pty Ltd,AU,dgrant@fppaccountants.com.au,02 6742 6600,2380,NSW,,http://www.fppaccountants.com.au
Barber Street,FPP Accountants Pty Ltd,AU,dgrant@fppaccountants.com.au,02 6742 6600,2380,NSW,,http://www.fppaccountants.com.au
Pike Street,EveryThink Accounting and Business Services,AU,treena@everythink.com.au,0429 049 911,2380,NSW,,http://www.everythink.com.au
Barber Street,FPP Accountants Pty Ltd,AU,dgrant@fppaccountants.com.au,02 6742 6600,2380,NSW,,http://www.fppaccountants.com.au
Pike Street,EveryThink Accounting and Business Services,AU,treena@everythink.com.au,0429 049 911,2380,NSW,,http://www.everythink.com.au
Pike Street,EveryThink Accounting and Business Services,AU,treena@everythink.com.au,0429 049 911,2380,NSW,,http://www.everythink.com.au
Barber Street,FPP Accountants Pty Ltd,AU,dgrant@fppaccountants.com.au,02 6742 6600,2380,NSW,,http://www.fppaccountants.com.au
Pike Street,EveryThink Accounting and Business Services,AU,treena@everythink.com.au,0429 049 911,2380,NSW,,http://www.everythink.com.au
Barber Street,FPP Accountants Pty Ltd,AU,dgrant@fppaccountants.com.au,02 6742 6600,2380,NSW,,http://www.fppaccountants.com.au
Barber Street,FPP Accountants Pty Ltd,AU,dgrant@fppaccountants.com.au,02 6742 6600,2380,NSW,,http://www.fppaccountants.com.au
Pike Street,EveryThink Accounting and Business Services,AU,treena@everythink.com.au,0429 049 911,2380,NSW,,http://www.everythink.com.au
Barber Street,FPP Accountants Pty Ltd,AU,dgrant@fppaccountants.com.au,02 6742 6600,2380,NSW,,http://www.fppaccountants.com.au
Pike Street,EveryThink Accounting and Business Services,AU,treena@everythink.com.au,0429 049 911,2380,NSW,,http://www.everythink.com.au
Pike Street,EveryThink Accounting and Business Services,AU,treena@everythink.com.au,0429 049 911,2380,NSW,,http://www.everythink.com.au
Barber Street,FPP Accountants Pty Ltd,AU,dgrant@fppaccountants.com.au,02 6742 6600,2380,NSW,,http://www.fppaccountants.com.au
Dowling Street,Addison Partners Pty Ltd,AU,sberry@addisonpartners.com.au,02 49957300,2420,NSW,,http://www.addisonpartners.com.au
Dungog Road,Catherine Forrester,AU,forrestertax@outlook.com,0427956256,2420,NSW,,
Dowling Street,Addison Partners Pty Ltd,AU,sberry@addisonpartners.com.au,02 49957300,2420,NSW,,http://www.addisonpartners.com.au
Dungog Road,Catherine Forrester,AU,forrestertax@outlook.com,0427956256,2420,NSW,,
Dowling Street,Addison Partners Pty Ltd,AU,sberry@addisonpartners.com.au,02 49957300,2420,NSW,,http://www.addisonpartners.com.au
Dungog Road,Catherine Forrester,AU,forrestertax@outlook.com,0427956256,2420,NSW,,
Dowling Street,Addison Partners Pty Ltd,AU,sberry@addisonpartners.com.au,02 49957300,2420,NSW,,http://www.addisonpartners.com.au
Dungog Road,Catherine Forrester,AU,forrestertax@outlook.com,0427956256,2420,NSW,,
Dowling Street,Addison Partners Pty Ltd,AU,sberry@addisonpartners.com.au,02 49957300,2420,NSW,,http://www.addisonpartners.com.au
Dungog Road,Catherine Forrester,AU,forrestertax@outlook.com,0427956256,2420,NSW,,
Dowling Street,Addison Partners Pty Ltd,AU,sberry@addisonpartners.com.au,02 49957300,2420,NSW,,http://www.addisonpartners.com.au
Dungog Road,Catherine Forrester,AU,forrestertax@outlook.com,0427956256,2420,NSW,,
Dowling Street,Addison Partners Pty Ltd,AU,sberry@addisonpartners.com.au,02 49957300,2420,NSW,,http://www.addisonpartners.com.au
Dungog Road,Catherine Forrester,AU,forrestertax@outlook.com,0427956256,2420,NSW,,
Dowling Street,Addison Partners Pty Ltd,AU,sberry@addisonpartners.com.au,02 49957300,2420,NSW,,http://www.addisonpartners.com.au
Dungog Road,Catherine Forrester,AU,forrestertax@outlook.com,0427956256,2420,NSW,,
Dowling Street,Addison Partners Pty Ltd,AU,sberry@addisonpartners.com.au,02 49957300,2420,NSW,,http://www.addisonpartners.com.au
Dungog Road,Catherine Forrester,AU,forrestertax@outlook.com,0427956256,2420,NSW,,
Dowling Street,Addison Partners Pty Ltd,AU,sberry@addisonpartners.com.au,02 49957300,2420,NSW,,http://www.addisonpartners.com.au
Dungog Road,Catherine Forrester,AU,forrestertax@outlook.com,0427956256,2420,NSW,,
Dowling Street,Addison Partners Pty Ltd,AU,sberry@addisonpartners.com.au,02 49957300,2420,NSW,,http://www.addisonpartners.com.au
Dungog Road,Catherine Forrester,AU,forrestertax@outlook.com,0427956256,2420,NSW,,
Dowling Street,Addison Partners Pty Ltd,AU,sberry@addisonpartners.com.au,02 49957300,2420,NSW,,http://www.addisonpartners.com.au
Dungog Road,Catherine Forrester,AU,forrestertax@outlook.com,0427956256,2420,NSW,,
Dowling Street,Addison Partners Pty Ltd,AU,sberry@addisonpartners.com.au,02 49957300,2420,NSW,,http://www.addisonpartners.com.au
Dungog Road,Catherine Forrester,AU,forrestertax@outlook.com,0427956256,2420,NSW,,
Dowling Street,Addison Partners Pty Ltd,AU,sberry@addisonpartners.com.au,02 49957300,2420,NSW,,http://www.addisonpartners.com.au
Dungog Road,Catherine Forrester,AU,forrestertax@outlook.com,0427956256,2420,NSW,,
Dowling Street,Addison Partners Pty Ltd,AU,sberry@addisonpartners.com.au,02 49957300,2420,NSW,,http://www.addisonpartners.com.au
Dungog Road,Catherine Forrester,AU,forrestertax@outlook.com,0427956256,2420,NSW,,
Dungog Road,Catherine Forrester,AU,forrestertax@outlook.com,0427956256,2420,NSW,,
Dowling Street,Addison Partners Pty Ltd,AU,sberry@addisonpartners.com.au,02 49957300,2420,NSW,,http://www.addisonpartners.com.au
Dowling Street,Addison Partners Pty Ltd,AU,sberry@addisonpartners.com.au,02 49957300,2420,NSW,,http://www.addisonpartners.com.au
Dungog Road,Catherine Forrester,AU,forrestertax@outlook.com,0427956256,2420,NSW,,
Dowling Street,Addison Partners Pty Ltd,AU,sberry@addisonpartners.com.au,02 49957300,2420,NSW,,http://www.addisonpartners.com.au
Dungog Road,Catherine Forrester,AU,forrestertax@outlook.com,0427956256,2420,NSW,,
Dungog Road,Catherine Forrester,AU,forrestertax@outlook.com,0427956256,2420,NSW,,
Dowling Street,Addison Partners Pty Ltd,AU,sberry@addisonpartners.com.au,02 49957300,2420,NSW,,http://www.addisonpartners.com.au
New England Highway,Brophy Duncan Pty Ltd,AU,kristi@brophyduncan.com.au,02 49307329,2321,NSW,Lochinvar,
Dowling Street,Addison Partners Pty Ltd,AU,sberry@addisonpartners.com.au,02 49957300,2420,NSW,,http://www.addisonpartners.com.au
Dungog Road,Catherine Forrester,AU,forrestertax@outlook.com,0427956256,2420,NSW,,
Dowling Street,Addison Partners Pty Ltd,AU,sberry@addisonpartners.com.au,02 49957300,2420,NSW,,http://www.addisonpartners.com.au
Dungog Road,Catherine Forrester,AU,forrestertax@outlook.com,0427956256,2420,NSW,,
Dowling Street,Addison Partners Pty Ltd,AU,sberry@addisonpartners.com.au,02 49957300,2420,NSW,,http://www.addisonpartners.com.au
Dungog Road,Catherine Forrester,AU,forrestertax@outlook.com,0427956256,2420,NSW,,
Dowling Street,Addison Partners Pty Ltd,AU,sberry@addisonpartners.com.au,02 49957300,2420,NSW,,http://www.addisonpartners.com.au
Dungog Road,Catherine Forrester,AU,forrestertax@outlook.com,0427956256,2420,NSW,,
Dowling Street,Addison Partners Pty Ltd,AU,sberry@addisonpartners.com.au,02 49957300,2420,NSW,,http://www.addisonpartners.com.au
Dungog Road,Catherine Forrester,AU,forrestertax@outlook.com,0427956256,2420,NSW,,
Dowling Street,Addison Partners Pty Ltd,AU,sberry@addisonpartners.com.au,02 49957300,2420,NSW,,http://www.addisonpartners.com.au
Dungog Road,Catherine Forrester,AU,forrestertax@outlook.com,0427956256,2420,NSW,,
Dungog Road,Catherine Forrester,AU,forrestertax@outlook.com,0427956256,2420,NSW,,
Dowling Street,Addison Partners Pty Ltd,AU,sberry@addisonpartners.com.au,02 49957300,2420,NSW,,http://www.addisonpartners.com.au
Dungog Road,Catherine Forrester,AU,forrestertax@outlook.com,0427956256,2420,NSW,,
Dowling Street,Addison Partners Pty Ltd,AU,sberry@addisonpartners.com.au,02 49957300,2420,NSW,,http://www.addisonpartners.com.au
Dowling Street,Addison Partners Pty Ltd,AU,sberry@addisonpartners.com.au,02 49957300,2420,NSW,,http://www.addisonpartners.com.au
Dungog Road,Catherine Forrester,AU,forrestertax@outlook.com,0427956256,2420,NSW,,
Dungog Road,Catherine Forrester,AU,forrestertax@outlook.com,0427956256,2420,NSW,,
Dowling Street,Addison Partners Pty Ltd,AU,sberry@addisonpartners.com.au,02 49957300,2420,NSW,,http://www.addisonpartners.com.au
High Street,Pearson Smart,AU,alasdair@pearsonsmart.com.au,02 49336966,2320,NSW,,http://www.pearsonsmart.com.au
Dungog Road,Catherine Forrester,AU,forrestertax@outlook.com,0427956256,2420,NSW,,
New England Highway,Brophy Duncan Pty Ltd,AU,kristi@brophyduncan.com.au,02 49307329,2321,NSW,Lochinvar,
Dowling Street,Addison Partners Pty Ltd,AU,sberry@addisonpartners.com.au,02 49957300,2420,NSW,,http://www.addisonpartners.com.au
High Street,Pearson Smart,AU,alasdair@pearsonsmart.com.au,02 49336966,2320,NSW,,http://www.pearsonsmart.com.au
Dungog Road,Catherine Forrester,AU,forrestertax@outlook.com,0427956256,2420,NSW,,
Dowling Street,Addison Partners Pty Ltd,AU,sberry@addisonpartners.com.au,02 49957300,2420,NSW,,http://www.addisonpartners.com.au
Dungog Road,Catherine Forrester,AU,forrestertax@outlook.com,0427956256,2420,NSW,,
Dowling Street,Addison Partners Pty Ltd,AU,sberry@addisonpartners.com.au,02 49957300,2420,NSW,,http://www.addisonpartners.com.au
High Street,Pearson Smart,AU,alasdair@pearsonsmart.com.au,02 49336966,2320,NSW,,http://www.pearsonsmart.com.au
Dowling Street,Addison Partners Pty Ltd,AU,sberry@addisonpartners.com.au,02 49957300,2420,NSW,,http://www.addisonpartners.com.au
Dungog Road,Catherine Forrester,AU,forrestertax@outlook.com,0427956256,2420,NSW,,
Allen Avenue,Accountants and More Pty Ltd,AU,office@accountantsandmore.com.au,02 65556999,2428,NSW,,http://www.accountantsandmore.com.au
Boona Street,Mid Coast Accountants,AU,chris@midcoastaccountants.com.au,0265549666,2428,NSW,,http://www.midcoastaccountants.com.au
Wallis Street,Peer Wealth,AU,doug@peerwealth.com.au,02 8014 7608,2428,NSW,,http://www.peerwealth.com.au
Manning Street,Beaver Novello Moss,AU,info@bnm.com.au,02 65548311,2428,NSW,,http://www.bnm.com.au/
Manning Street,Beaver Novello Moss,AU,info@bnm.com.au,02 65548311,2428,NSW,,http://www.bnm.com.au/
Wallis Street,Peer Wealth,AU,doug@peerwealth.com.au,02 8014 7608,2428,NSW,,http://www.peerwealth.com.au
Allen Avenue,Accountants and More Pty Ltd,AU,office@accountantsandmore.com.au,02 65556999,2428,NSW,,http://www.accountantsandmore.com.au
Boona Street,Mid Coast Accountants,AU,chris@midcoastaccountants.com.au,0265549666,2428,NSW,,http://www.midcoastaccountants.com.au
Allen Avenue,Accountants and More Pty Ltd,AU,office@accountantsandmore.com.au,02 65556999,2428,NSW,,http://www.accountantsandmore.com.au
Boona Street,Mid Coast Accountants,AU,chris@midcoastaccountants.com.au,0265549666,2428,NSW,,http://www.midcoastaccountants.com.au
Wallis Street,Peer Wealth,AU,doug@peerwealth.com.au,02 8014 7608,2428,NSW,,http://www.peerwealth.com.au
Manning Street,Beaver Novello Moss,AU,info@bnm.com.au,02 65548311,2428,NSW,,http://www.bnm.com.au/
William Street,Bowling & Associates,AU,damien@djcooper.com.au,02 49831611,2324,NSW,Raymond Terrace,http://www.bowlinggroup.com.au
Sturgeon Street,TJC Accounting Practice,AU,tony@tjcaccounting.com.au,02 4980 3000,2324,NSW,Raymond Terrace,http://tjcaccounting.com.au/
Allen Avenue,Accountants and More Pty Ltd,AU,office@accountantsandmore.com.au,02 65556999,2428,NSW,,http://www.accountantsandmore.com.au
Boona Street,Mid Coast Accountants,AU,chris@midcoastaccountants.com.au,0265549666,2428,NSW,,http://www.midcoastaccountants.com.au
Wallis Street,Peer Wealth,AU,doug@peerwealth.com.au,02 8014 7608,2428,NSW,,http://www.peerwealth.com.au
Manning Street,Beaver Novello Moss,AU,info@bnm.com.au,02 65548311,2428,NSW,,http://www.bnm.com.au/
Allen Avenue,Accountants and More Pty Ltd,AU,office@accountantsandmore.com.au,02 65556999,2428,NSW,,http://www.accountantsandmore.com.au
Boona Street,Mid Coast Accountants,AU,chris@midcoastaccountants.com.au,0265549666,2428,NSW,,http://www.midcoastaccountants.com.au
Wallis Street,Peer Wealth,AU,doug@peerwealth.com.au,02 8014 7608,2428,NSW,,http://www.peerwealth.com.au
Manning Street,Beaver Novello Moss,AU,info@bnm.com.au,02 65548311,2428,NSW,,http://www.bnm.com.au/
Allen Avenue,Accountants and More Pty Ltd,AU,office@accountantsandmore.com.au,02 65556999,2428,NSW,,http://www.accountantsandmore.com.au
Boona Street,Mid Coast Accountants,AU,chris@midcoastaccountants.com.au,0265549666,2428,NSW,,http://www.midcoastaccountants.com.au
Wallis Street,Peer Wealth,AU,doug@peerwealth.com.au,02 8014 7608,2428,NSW,,http://www.peerwealth.com.au
Manning Street,Beaver Novello Moss,AU,info@bnm.com.au,02 65548311,2428,NSW,,http://www.bnm.com.au/
Manning Street,Beaver Novello Moss,AU,info@bnm.com.au,02 65548311,2428,NSW,,http://www.bnm.com.au/
Wallis Street,Peer Wealth,AU,doug@peerwealth.com.au,02 8014 7608,2428,NSW,,http://www.peerwealth.com.au
Boona Street,Mid Coast Accountants,AU,chris@midcoastaccountants.com.au,0265549666,2428,NSW,,http://www.midcoastaccountants.com.au
Allen Avenue,Accountants and More Pty Ltd,AU,office@accountantsandmore.com.au,02 65556999,2428,NSW,,http://www.accountantsandmore.com.au
Manning Street,Beaver Novello Moss,AU,info@bnm.com.au,02 65548311,2428,NSW,,http://www.bnm.com.au/
Wallis Street,Peer Wealth,AU,doug@peerwealth.com.au,02 8014 7608,2428,NSW,,http://www.peerwealth.com.au
Boona Street,Mid Coast Accountants,AU,chris@midcoastaccountants.com.au,0265549666,2428,NSW,,http://www.midcoastaccountants.com.au
Allen Avenue,Accountants and More Pty Ltd,AU,office@accountantsandmore.com.au,02 65556999,2428,NSW,,http://www.accountantsandmore.com.au
Allen Avenue,Accountants and More Pty Ltd,AU,office@accountantsandmore.com.au,02 65556999,2428,NSW,,http://www.accountantsandmore.com.au
Boona Street,Mid Coast Accountants,AU,chris@midcoastaccountants.com.au,0265549666,2428,NSW,,http://www.midcoastaccountants.com.au
Wallis Street,Peer Wealth,AU,doug@peerwealth.com.au,02 8014 7608,2428,NSW,,http://www.peerwealth.com.au
Manning Street,Beaver Novello Moss,AU,info@bnm.com.au,02 65548311,2428,NSW,,http://www.bnm.com.au/
William Street,Bowling & Associates,AU,damien@djcooper.com.au,02 49831611,2324,NSW,Raymond Terrace,http://www.bowlinggroup.com.au
Sturgeon Street,TJC Accounting Practice,AU,tony@tjcaccounting.com.au,02 4980 3000,2324,NSW,Raymond Terrace,http://tjcaccounting.com.au/
Dowling Street,Addison Partners Pty Ltd,AU,sberry@addisonpartners.com.au,02 49957300,2420,NSW,,http://www.addisonpartners.com.au
Dungog Road,Catherine Forrester,AU,forrestertax@outlook.com,0427956256,2420,NSW,,
William Street,Bowling & Associates,AU,damien@djcooper.com.au,02 49831611,2324,NSW,Raymond Terrace,http://www.bowlinggroup.com.au
Sturgeon Street,TJC Accounting Practice,AU,tony@tjcaccounting.com.au,02 4980 3000,2324,NSW,Raymond Terrace,http://tjcaccounting.com.au/
Dowling Street,Addison Partners Pty Ltd,AU,sberry@addisonpartners.com.au,02 49957300,2420,NSW,,http://www.addisonpartners.com.au
Dungog Road,Catherine Forrester,AU,forrestertax@outlook.com,0427956256,2420,NSW,,
William Street,Bowling & Associates,AU,damien@djcooper.com.au,02 49831611,2324,NSW,Raymond Terrace,http://www.bowlinggroup.com.au
Sturgeon Street,TJC Accounting Practice,AU,tony@tjcaccounting.com.au,02 4980 3000,2324,NSW,Raymond Terrace,http://tjcaccounting.com.au/
Dowling Street,Addison Partners Pty Ltd,AU,sberry@addisonpartners.com.au,02 49957300,2420,NSW,,http://www.addisonpartners.com.au
Dungog Road,Catherine Forrester,AU,forrestertax@outlook.com,0427956256,2420,NSW,,
Waterman Street,Collison Accounting Pty Ltd,AU,collisonpn@bigpond.com,02 65533235,2430,NSW,,http://www.collinsaccounting.com.au
Victoria Street,Weeks Accounting,AU,luke@weeksaccounting.com.au,0265513331,2430,NSW,Taree,
Vincent Close,2020 Business Accountants Pty Ltd,AU,2020@westnet.com.au,0427 522 277,2430,NSW,,
Victoria Street,Weeks Accounting,AU,luke@weeksaccounting.com.au,0265513331,2430,NSW,Taree,
Waterman Street,Collison Accounting Pty Ltd,AU,collisonpn@bigpond.com,02 65533235,2430,NSW,,http://www.collinsaccounting.com.au
Vincent Close,2020 Business Accountants Pty Ltd,AU,2020@westnet.com.au,0427 522 277,2430,NSW,,
Waterman Street,Collison Accounting Pty Ltd,AU,collisonpn@bigpond.com,02 65533235,2430,NSW,,http://www.collinsaccounting.com.au
Victoria Street,Weeks Accounting,AU,luke@weeksaccounting.com.au,0265513331,2430,NSW,Taree,
Vincent Close,2020 Business Accountants Pty Ltd,AU,2020@westnet.com.au,0427 522 277,2430,NSW,,
,Paragon Accountants,AU,info@paragonaccountants.com.au,02 65598522,2443,NSW,,http://www.paragonaccountants.com.au/
Waterman Street,Collison Accounting Pty Ltd,AU,collisonpn@bigpond.com,02 65533235,2430,NSW,,http://www.collinsaccounting.com.au
Victoria Street,Weeks Accounting,AU,luke@weeksaccounting.com.au,0265513331,2430,NSW,Taree,
Vincent Close,2020 Business Accountants Pty Ltd,AU,2020@westnet.com.au,0427 522 277,2430,NSW,,
Allen Avenue,Accountants and More Pty Ltd,AU,office@accountantsandmore.com.au,02 65556999,2428,NSW,,http://www.accountantsandmore.com.au
Boona Street,Mid Coast Accountants,AU,chris@midcoastaccountants.com.au,0265549666,2428,NSW,,http://www.midcoastaccountants.com.au
Wallis Street,Peer Wealth,AU,doug@peerwealth.com.au,02 8014 7608,2428,NSW,,http://www.peerwealth.com.au
Manning Street,Beaver Novello Moss,AU,info@bnm.com.au,02 65548311,2428,NSW,,http://www.bnm.com.au/
Allen Avenue,Accountants and More Pty Ltd,AU,office@accountantsandmore.com.au,02 65556999,2428,NSW,,http://www.accountantsandmore.com.au
Boona Street,Mid Coast Accountants,AU,chris@midcoastaccountants.com.au,0265549666,2428,NSW,,http://www.midcoastaccountants.com.au
Wallis Street,Peer Wealth,AU,doug@peerwealth.com.au,02 8014 7608,2428,NSW,,http://www.peerwealth.com.au
Manning Street,Beaver Novello Moss,AU,info@bnm.com.au,02 65548311,2428,NSW,,http://www.bnm.com.au/
Allen Avenue,Accountants and More Pty Ltd,AU,office@accountantsandmore.com.au,02 65556999,2428,NSW,,http://www.accountantsandmore.com.au
Boona Street,Mid Coast Accountants,AU,chris@midcoastaccountants.com.au,0265549666,2428,NSW,,http://www.midcoastaccountants.com.au
Wallis Street,Peer Wealth,AU,doug@peerwealth.com.au,02 8014 7608,2428,NSW,,http://www.peerwealth.com.au
Manning Street,Beaver Novello Moss,AU,info@bnm.com.au,02 65548311,2428,NSW,,http://www.bnm.com.au/
Allen Avenue,Accountants and More Pty Ltd,AU,office@accountantsandmore.com.au,02 65556999,2428,NSW,,http://www.accountantsandmore.com.au
Boona Street,Mid Coast Accountants,AU,chris@midcoastaccountants.com.au,0265549666,2428,NSW,,http://www.midcoastaccountants.com.au
Wallis Street,Peer Wealth,AU,doug@peerwealth.com.au,02 8014 7608,2428,NSW,,http://www.peerwealth.com.au
Manning Street,Beaver Novello Moss,AU,info@bnm.com.au,02 65548311,2428,NSW,,http://www.bnm.com.au/
Allen Avenue,Accountants and More Pty Ltd,AU,office@accountantsandmore.com.au,02 65556999,2428,NSW,,http://www.accountantsandmore.com.au
Boona Street,Mid Coast Accountants,AU,chris@midcoastaccountants.com.au,0265549666,2428,NSW,,http://www.midcoastaccountants.com.au
Wallis Street,Peer Wealth,AU,doug@peerwealth.com.au,02 8014 7608,2428,NSW,,http://www.peerwealth.com.au
Manning Street,Beaver Novello Moss,AU,info@bnm.com.au,02 65548311,2428,NSW,,http://www.bnm.com.au/
Allen Avenue,Accountants and More Pty Ltd,AU,office@accountantsandmore.com.au,02 65556999,2428,NSW,,http://www.accountantsandmore.com.au
Boona Street,Mid Coast Accountants,AU,chris@midcoastaccountants.com.au,0265549666,2428,NSW,,http://www.midcoastaccountants.com.au
Wallis Street,Peer Wealth,AU,doug@peerwealth.com.au,02 8014 7608,2428,NSW,,http://www.peerwealth.com.au
Manning Street,Beaver Novello Moss,AU,info@bnm.com.au,02 65548311,2428,NSW,,http://www.bnm.com.au/
Manning Street,Beaver Novello Moss,AU,info@bnm.com.au,02 65548311,2428,NSW,,http://www.bnm.com.au/
Wallis Street,Peer Wealth,AU,doug@peerwealth.com.au,02 8014 7608,2428,NSW,,http://www.peerwealth.com.au
Boona Street,Mid Coast Accountants,AU,chris@midcoastaccountants.com.au,0265549666,2428,NSW,,http://www.midcoastaccountants.com.au
Allen Avenue,Accountants and More Pty Ltd,AU,office@accountantsandmore.com.au,02 65556999,2428,NSW,,http://www.accountantsandmore.com.au
Allen Avenue,Accountants and More Pty Ltd,AU,office@accountantsandmore.com.au,02 65556999,2428,NSW,,http://www.accountantsandmore.com.au
Boona Street,Mid Coast Accountants,AU,chris@midcoastaccountants.com.au,0265549666,2428,NSW,,http://www.midcoastaccountants.com.au
Wallis Street,Peer Wealth,AU,doug@peerwealth.com.au,02 8014 7608,2428,NSW,,http://www.peerwealth.com.au
Manning Street,Beaver Novello Moss,AU,info@bnm.com.au,02 65548311,2428,NSW,,http://www.bnm.com.au/
Wallis Street,Peer Wealth,AU,doug@peerwealth.com.au,02 8014 7608,2428,NSW,,http://www.peerwealth.com.au
Manning Street,Beaver Novello Moss,AU,info@bnm.com.au,02 65548311,2428,NSW,,http://www.bnm.com.au/
Boona Street,Mid Coast Accountants,AU,chris@midcoastaccountants.com.au,0265549666,2428,NSW,,http://www.midcoastaccountants.com.au
Allen Avenue,Accountants and More Pty Ltd,AU,office@accountantsandmore.com.au,02 65556999,2428,NSW,,http://www.accountantsandmore.com.au
Boona Street,Mid Coast Accountants,AU,chris@midcoastaccountants.com.au,0265549666,2428,NSW,,http://www.midcoastaccountants.com.au
Allen Avenue,Accountants and More Pty Ltd,AU,office@accountantsandmore.com.au,02 65556999,2428,NSW,,http://www.accountantsandmore.com.au
Wallis Street,Peer Wealth,AU,doug@peerwealth.com.au,02 8014 7608,2428,NSW,,http://www.peerwealth.com.au
Manning Street,Beaver Novello Moss,AU,info@bnm.com.au,02 65548311,2428,NSW,,http://www.bnm.com.au/
Allen Avenue,Accountants and More Pty Ltd,AU,office@accountantsandmore.com.au,02 65556999,2428,NSW,,http://www.accountantsandmore.com.au
Boona Street,Mid Coast Accountants,AU,chris@midcoastaccountants.com.au,0265549666,2428,NSW,,http://www.midcoastaccountants.com.au
Wallis Street,Peer Wealth,AU,doug@peerwealth.com.au,02 8014 7608,2428,NSW,,http://www.peerwealth.com.au
Manning Street,Beaver Novello Moss,AU,info@bnm.com.au,02 65548311,2428,NSW,,http://www.bnm.com.au/
Allen Avenue,Accountants and More Pty Ltd,AU,office@accountantsandmore.com.au,02 65556999,2428,NSW,,http://www.accountantsandmore.com.au
Boona Street,Mid Coast Accountants,AU,chris@midcoastaccountants.com.au,0265549666,2428,NSW,,http://www.midcoastaccountants.com.au
Wallis Street,Peer Wealth,AU,doug@peerwealth.com.au,02 8014 7608,2428,NSW,,http://www.peerwealth.com.au
Manning Street,Beaver Novello Moss,AU,info@bnm.com.au,02 65548311,2428,NSW,,http://www.bnm.com.au/
Allen Avenue,Accountants and More Pty Ltd,AU,office@accountantsandmore.com.au,02 65556999,2428,NSW,,http://www.accountantsandmore.com.au
Boona Street,Mid Coast Accountants,AU,chris@midcoastaccountants.com.au,0265549666,2428,NSW,,http://www.midcoastaccountants.com.au
Wallis Street,Peer Wealth,AU,doug@peerwealth.com.au,02 8014 7608,2428,NSW,,http://www.peerwealth.com.au
Manning Street,Beaver Novello Moss,AU,info@bnm.com.au,02 65548311,2428,NSW,,http://www.bnm.com.au/
Allen Avenue,Accountants and More Pty Ltd,AU,office@accountantsandmore.com.au,02 65556999,2428,NSW,,http://www.accountantsandmore.com.au
Manning Street,Beaver Novello Moss,AU,info@bnm.com.au,02 65548311,2428,NSW,,http://www.bnm.com.au/
Boona Street,Mid Coast Accountants,AU,chris@midcoastaccountants.com.au,0265549666,2428,NSW,,http://www.midcoastaccountants.com.au
Wallis Street,Peer Wealth,AU,doug@peerwealth.com.au,02 8014 7608,2428,NSW,,http://www.peerwealth.com.au
Allen Avenue,Accountants and More Pty Ltd,AU,office@accountantsandmore.com.au,02 65556999,2428,NSW,,http://www.accountantsandmore.com.au
Boona Street,Mid Coast Accountants,AU,chris@midcoastaccountants.com.au,0265549666,2428,NSW,,http://www.midcoastaccountants.com.au
Wallis Street,Peer Wealth,AU,doug@peerwealth.com.au,02 8014 7608,2428,NSW,,http://www.peerwealth.com.au
Manning Street,Beaver Novello Moss,AU,info@bnm.com.au,02 65548311,2428,NSW,,http://www.bnm.com.au/
Allen Avenue,Accountants and More Pty Ltd,AU,office@accountantsandmore.com.au,02 65556999,2428,NSW,,http://www.accountantsandmore.com.au
Boona Street,Mid Coast Accountants,AU,chris@midcoastaccountants.com.au,0265549666,2428,NSW,,http://www.midcoastaccountants.com.au
Wallis Street,Peer Wealth,AU,doug@peerwealth.com.au,02 8014 7608,2428,NSW,,http://www.peerwealth.com.au
Manning Street,Beaver Novello Moss,AU,info@bnm.com.au,02 65548311,2428,NSW,,http://www.bnm.com.au/
Allen Avenue,Accountants and More Pty Ltd,AU,office@accountantsandmore.com.au,02 65556999,2428,NSW,,http://www.accountantsandmore.com.au
Boona Street,Mid Coast Accountants,AU,chris@midcoastaccountants.com.au,0265549666,2428,NSW,,http://www.midcoastaccountants.com.au
Wallis Street,Peer Wealth,AU,doug@peerwealth.com.au,02 8014 7608,2428,NSW,,http://www.peerwealth.com.au
Manning Street,Beaver Novello Moss,AU,info@bnm.com.au,02 65548311,2428,NSW,,http://www.bnm.com.au/
Manning Street,Beaver Novello Moss,AU,info@bnm.com.au,02 65548311,2428,NSW,,http://www.bnm.com.au/
Wallis Street,Peer Wealth,AU,doug@peerwealth.com.au,02 8014 7608,2428,NSW,,http://www.peerwealth.com.au
Boona Street,Mid Coast Accountants,AU,chris@midcoastaccountants.com.au,0265549666,2428,NSW,,http://www.midcoastaccountants.com.au
Allen Avenue,Accountants and More Pty Ltd,AU,office@accountantsandmore.com.au,02 65556999,2428,NSW,,http://www.accountantsandmore.com.au
Allen Avenue,Accountants and More Pty Ltd,AU,office@accountantsandmore.com.au,02 65556999,2428,NSW,,http://www.accountantsandmore.com.au
Boona Street,Mid Coast Accountants,AU,chris@midcoastaccountants.com.au,0265549666,2428,NSW,,http://www.midcoastaccountants.com.au
Wallis Street,Peer Wealth,AU,doug@peerwealth.com.au,02 8014 7608,2428,NSW,,http://www.peerwealth.com.au
Manning Street,Beaver Novello Moss,AU,info@bnm.com.au,02 65548311,2428,NSW,,http://www.bnm.com.au/
Allen Avenue,Accountants and More Pty Ltd,AU,office@accountantsandmore.com.au,02 65556999,2428,NSW,,http://www.accountantsandmore.com.au
Boona Street,Mid Coast Accountants,AU,chris@midcoastaccountants.com.au,0265549666,2428,NSW,,http://www.midcoastaccountants.com.au
Wallis Street,Peer Wealth,AU,doug@peerwealth.com.au,02 8014 7608,2428,NSW,,http://www.peerwealth.com.au
Manning Street,Beaver Novello Moss,AU,info@bnm.com.au,02 65548311,2428,NSW,,http://www.bnm.com.au/
Victoria Street,Weeks Accounting,AU,luke@weeksaccounting.com.au,0265513331,2430,NSW,Taree,
Waterman Street,Collison Accounting Pty Ltd,AU,collisonpn@bigpond.com,02 65533235,2430,NSW,,http://www.collinsaccounting.com.au
Vincent Close,2020 Business Accountants Pty Ltd,AU,2020@westnet.com.au,0427 522 277,2430,NSW,,
Victoria Street,Weeks Accounting,AU,luke@weeksaccounting.com.au,0265513331,2430,NSW,Taree,
Vincent Close,2020 Business Accountants Pty Ltd,AU,2020@westnet.com.au,0427 522 277,2430,NSW,,
Waterman Street,Collison Accounting Pty Ltd,AU,collisonpn@bigpond.com,02 65533235,2430,NSW,,http://www.collinsaccounting.com.au
Victoria Street,Weeks Accounting,AU,luke@weeksaccounting.com.au,0265513331,2430,NSW,Taree,
Waterman Street,Collison Accounting Pty Ltd,AU,collisonpn@bigpond.com,02 65533235,2430,NSW,,http://www.collinsaccounting.com.au
Vincent Close,2020 Business Accountants Pty Ltd,AU,2020@westnet.com.au,0427 522 277,2430,NSW,,
,Paragon Accountants,AU,info@paragonaccountants.com.au,02 65598522,2443,NSW,,http://www.paragonaccountants.com.au/
Victoria Street,Weeks Accounting,AU,luke@weeksaccounting.com.au,0265513331,2430,NSW,Taree,
Waterman Street,Collison Accounting Pty Ltd,AU,collisonpn@bigpond.com,02 65533235,2430,NSW,,http://www.collinsaccounting.com.au
Vincent Close,2020 Business Accountants Pty Ltd,AU,2020@westnet.com.au,0427 522 277,2430,NSW,,
Vincent Close,2020 Business Accountants Pty Ltd,AU,2020@westnet.com.au,0427 522 277,2430,NSW,,
Victoria Street,Weeks Accounting,AU,luke@weeksaccounting.com.au,0265513331,2430,NSW,Taree,
Waterman Street,Collison Accounting Pty Ltd,AU,collisonpn@bigpond.com,02 65533235,2430,NSW,,http://www.collinsaccounting.com.au
Vincent Close,2020 Business Accountants Pty Ltd,AU,2020@westnet.com.au,0427 522 277,2430,NSW,,
Victoria Street,Weeks Accounting,AU,luke@weeksaccounting.com.au,0265513331,2430,NSW,Taree,
Waterman Street,Collison Accounting Pty Ltd,AU,collisonpn@bigpond.com,02 65533235,2430,NSW,,http://www.collinsaccounting.com.au
Victoria Street,Weeks Accounting,AU,luke@weeksaccounting.com.au,0265513331,2430,NSW,Taree,
Vincent Close,2020 Business Accountants Pty Ltd,AU,2020@westnet.com.au,0427 522 277,2430,NSW,,
Waterman Street,Collison Accounting Pty Ltd,AU,collisonpn@bigpond.com,02 65533235,2430,NSW,,http://www.collinsaccounting.com.au
Victoria Street,Weeks Accounting,AU,luke@weeksaccounting.com.au,0265513331,2430,NSW,Taree,
Waterman Street,Collison Accounting Pty Ltd,AU,collisonpn@bigpond.com,02 65533235,2430,NSW,,http://www.collinsaccounting.com.au
Vincent Close,2020 Business Accountants Pty Ltd,AU,2020@westnet.com.au,0427 522 277,2430,NSW,,
Victoria Street,Weeks Accounting,AU,luke@weeksaccounting.com.au,0265513331,2430,NSW,Taree,
Vincent Close,2020 Business Accountants Pty Ltd,AU,2020@westnet.com.au,0427 522 277,2430,NSW,,
Waterman Street,Collison Accounting Pty Ltd,AU,collisonpn@bigpond.com,02 65533235,2430,NSW,,http://www.collinsaccounting.com.au
Victoria Street,Weeks Accounting,AU,luke@weeksaccounting.com.au,0265513331,2430,NSW,Taree,
Vincent Close,2020 Business Accountants Pty Ltd,AU,2020@westnet.com.au,0427 522 277,2430,NSW,,
Waterman Street,Collison Accounting Pty Ltd,AU,collisonpn@bigpond.com,02 65533235,2430,NSW,,http://www.collinsaccounting.com.au
Victoria Street,Weeks Accounting,AU,luke@weeksaccounting.com.au,0265513331,2430,NSW,Taree,
Waterman Street,Collison Accounting Pty Ltd,AU,collisonpn@bigpond.com,02 65533235,2430,NSW,,http://www.collinsaccounting.com.au
Vincent Close,2020 Business Accountants Pty Ltd,AU,2020@westnet.com.au,0427 522 277,2430,NSW,,
Victoria Street,Weeks Accounting,AU,luke@weeksaccounting.com.au,0265513331,2430,NSW,Taree,
Vincent Close,2020 Business Accountants Pty Ltd,AU,2020@westnet.com.au,0427 522 277,2430,NSW,,
Waterman Street,Collison Accounting Pty Ltd,AU,collisonpn@bigpond.com,02 65533235,2430,NSW,,http://www.collinsaccounting.com.au
Victoria Street,Weeks Accounting,AU,luke@weeksaccounting.com.au,0265513331,2430,NSW,Taree,
Vincent Close,2020 Business Accountants Pty Ltd,AU,2020@westnet.com.au,0427 522 277,2430,NSW,,
Waterman Street,Collison Accounting Pty Ltd,AU,collisonpn@bigpond.com,02 65533235,2430,NSW,,http://www.collinsaccounting.com.au
Victoria Street,Weeks Accounting,AU,luke@weeksaccounting.com.au,0265513331,2430,NSW,Taree,
Waterman Street,Collison Accounting Pty Ltd,AU,collisonpn@bigpond.com,02 65533235,2430,NSW,,http://www.collinsaccounting.com.au
Vincent Close,2020 Business Accountants Pty Ltd,AU,2020@westnet.com.au,0427 522 277,2430,NSW,,
Victoria Street,Weeks Accounting,AU,luke@weeksaccounting.com.au,0265513331,2430,NSW,Taree,
Waterman Street,Collison Accounting Pty Ltd,AU,collisonpn@bigpond.com,02 65533235,2430,NSW,,http://www.collinsaccounting.com.au
Vincent Close,2020 Business Accountants Pty Ltd,AU,2020@westnet.com.au,0427 522 277,2430,NSW,,
Victoria Street,Weeks Accounting,AU,luke@weeksaccounting.com.au,0265513331,2430,NSW,Taree,
Waterman Street,Collison Accounting Pty Ltd,AU,collisonpn@bigpond.com,02 65533235,2430,NSW,,http://www.collinsaccounting.com.au
Vincent Close,2020 Business Accountants Pty Ltd,AU,2020@westnet.com.au,0427 522 277,2430,NSW,,
Victoria Street,Weeks Accounting,AU,luke@weeksaccounting.com.au,0265513331,2430,NSW,Taree,
Waterman Street,Collison Accounting Pty Ltd,AU,collisonpn@bigpond.com,02 65533235,2430,NSW,,http://www.collinsaccounting.com.au
Vincent Close,2020 Business Accountants Pty Ltd,AU,2020@westnet.com.au,0427 522 277,2430,NSW,,
Victoria Street,Weeks Accounting,AU,luke@weeksaccounting.com.au,0265513331,2430,NSW,Taree,
Waterman Street,Collison Accounting Pty Ltd,AU,collisonpn@bigpond.com,02 65533235,2430,NSW,,http://www.collinsaccounting.com.au
Vincent Close,2020 Business Accountants Pty Ltd,AU,2020@westnet.com.au,0427 522 277,2430,NSW,,
Victoria Street,Weeks Accounting,AU,luke@weeksaccounting.com.au,0265513331,2430,NSW,Taree,
Waterman Street,Collison Accounting Pty Ltd,AU,collisonpn@bigpond.com,02 65533235,2430,NSW,,http://www.collinsaccounting.com.au
Vincent Close,2020 Business Accountants Pty Ltd,AU,2020@westnet.com.au,0427 522 277,2430,NSW,,
Vincent Close,2020 Business Accountants Pty Ltd,AU,2020@westnet.com.au,0427 522 277,2430,NSW,,
Waterman Street,Collison Accounting Pty Ltd,AU,collisonpn@bigpond.com,02 65533235,2430,NSW,,http://www.collinsaccounting.com.au
Victoria Street,Weeks Accounting,AU,luke@weeksaccounting.com.au,0265513331,2430,NSW,Taree,
Waterman Street,Collison Accounting Pty Ltd,AU,collisonpn@bigpond.com,02 65533235,2430,NSW,,http://www.collinsaccounting.com.au
Victoria Street,Weeks Accounting,AU,luke@weeksaccounting.com.au,0265513331,2430,NSW,Taree,
Vincent Close,2020 Business Accountants Pty Ltd,AU,2020@westnet.com.au,0427 522 277,2430,NSW,,
Victoria Street,Weeks Accounting,AU,luke@weeksaccounting.com.au,0265513331,2430,NSW,Taree,
Waterman Street,Collison Accounting Pty Ltd,AU,collisonpn@bigpond.com,02 65533235,2430,NSW,,http://www.collinsaccounting.com.au
Vincent Close,2020 Business Accountants Pty Ltd,AU,2020@westnet.com.au,0427 522 277,2430,NSW,,
Victoria Street,Weeks Accounting,AU,luke@weeksaccounting.com.au,0265513331,2430,NSW,Taree,
Waterman Street,Collison Accounting Pty Ltd,AU,collisonpn@bigpond.com,02 65533235,2430,NSW,,http://www.collinsaccounting.com.au
Vincent Close,2020 Business Accountants Pty Ltd,AU,2020@westnet.com.au,0427 522 277,2430,NSW,,
Victoria Street,Weeks Accounting,AU,luke@weeksaccounting.com.au,0265513331,2430,NSW,Taree,
Waterman Street,Collison Accounting Pty Ltd,AU,collisonpn@bigpond.com,02 65533235,2430,NSW,,http://www.collinsaccounting.com.au
Vincent Close,2020 Business Accountants Pty Ltd,AU,2020@westnet.com.au,0427 522 277,2430,NSW,,
Waterman Street,Collison Accounting Pty Ltd,AU,collisonpn@bigpond.com,02 65533235,2430,NSW,,http://www.collinsaccounting.com.au
Victoria Street,Weeks Accounting,AU,luke@weeksaccounting.com.au,0265513331,2430,NSW,Taree,
Vincent Close,2020 Business Accountants Pty Ltd,AU,2020@westnet.com.au,0427 522 277,2430,NSW,,
Victoria Street,Weeks Accounting,AU,luke@weeksaccounting.com.au,0265513331,2430,NSW,Taree,
Waterman Street,Collison Accounting Pty Ltd,AU,collisonpn@bigpond.com,02 65533235,2430,NSW,,http://www.collinsaccounting.com.au
Vincent Close,2020 Business Accountants Pty Ltd,AU,2020@westnet.com.au,0427 522 277,2430,NSW,,
Vincent Close,2020 Business Accountants Pty Ltd,AU,2020@westnet.com.au,0427 522 277,2430,NSW,,
Waterman Street,Collison Accounting Pty Ltd,AU,collisonpn@bigpond.com,02 65533235,2430,NSW,,http://www.collinsaccounting.com.au
Victoria Street,Weeks Accounting,AU,luke@weeksaccounting.com.au,0265513331,2430,NSW,Taree,
Victoria Street,Weeks Accounting,AU,luke@weeksaccounting.com.au,0265513331,2430,NSW,Taree,
Waterman Street,Collison Accounting Pty Ltd,AU,collisonpn@bigpond.com,02 65533235,2430,NSW,,http://www.collinsaccounting.com.au
Vincent Close,2020 Business Accountants Pty Ltd,AU,2020@westnet.com.au,0427 522 277,2430,NSW,,
Vincent Close,2020 Business Accountants Pty Ltd,AU,2020@westnet.com.au,0427 522 277,2430,NSW,,
Waterman Street,Collison Accounting Pty Ltd,AU,collisonpn@bigpond.com,02 65533235,2430,NSW,,http://www.collinsaccounting.com.au
Victoria Street,Weeks Accounting,AU,luke@weeksaccounting.com.au,0265513331,2430,NSW,Taree,
Victoria Street,Weeks Accounting,AU,luke@weeksaccounting.com.au,0265513331,2430,NSW,Taree,
Waterman Street,Collison Accounting Pty Ltd,AU,collisonpn@bigpond.com,02 65533235,2430,NSW,,http://www.collinsaccounting.com.au
Vincent Close,2020 Business Accountants Pty Ltd,AU,2020@westnet.com.au,0427 522 277,2430,NSW,,
Victoria Street,Weeks Accounting,AU,luke@weeksaccounting.com.au,0265513331,2430,NSW,Taree,
Waterman Street,Collison Accounting Pty Ltd,AU,collisonpn@bigpond.com,02 65533235,2430,NSW,,http://www.collinsaccounting.com.au
Vincent Close,2020 Business Accountants Pty Ltd,AU,2020@westnet.com.au,0427 522 277,2430,NSW,,
Vincent Close,2020 Business Accountants Pty Ltd,AU,2020@westnet.com.au,0427 522 277,2430,NSW,,
Waterman Street,Collison Accounting Pty Ltd,AU,collisonpn@bigpond.com,02 65533235,2430,NSW,,http://www.collinsaccounting.com.au
Victoria Street,Weeks Accounting,AU,luke@weeksaccounting.com.au,0265513331,2430,NSW,Taree,
Victoria Street,Weeks Accounting,AU,luke@weeksaccounting.com.au,0265513331,2430,NSW,Taree,
Vincent Close,2020 Business Accountants Pty Ltd,AU,2020@westnet.com.au,0427 522 277,2430,NSW,,
Waterman Street,Collison Accounting Pty Ltd,AU,collisonpn@bigpond.com,02 65533235,2430,NSW,,http://www.collinsaccounting.com.au
Waterman Street,Collison Accounting Pty Ltd,AU,collisonpn@bigpond.com,02 65533235,2430,NSW,,http://www.collinsaccounting.com.au
Victoria Street,Weeks Accounting,AU,luke@weeksaccounting.com.au,0265513331,2430,NSW,Taree,
Vincent Close,2020 Business Accountants Pty Ltd,AU,2020@westnet.com.au,0427 522 277,2430,NSW,,
Vincent Close,2020 Business Accountants Pty Ltd,AU,2020@westnet.com.au,0427 522 277,2430,NSW,,
Victoria Street,Weeks Accounting,AU,luke@weeksaccounting.com.au,0265513331,2430,NSW,Taree,
Waterman Street,Collison Accounting Pty Ltd,AU,collisonpn@bigpond.com,02 65533235,2430,NSW,,http://www.collinsaccounting.com.au
Victoria Street,Weeks Accounting,AU,luke@weeksaccounting.com.au,0265513331,2430,NSW,Taree,
Vincent Close,2020 Business Accountants Pty Ltd,AU,2020@westnet.com.au,0427 522 277,2430,NSW,,
Waterman Street,Collison Accounting Pty Ltd,AU,collisonpn@bigpond.com,02 65533235,2430,NSW,,http://www.collinsaccounting.com.au
Victoria Street,Weeks Accounting,AU,luke@weeksaccounting.com.au,0265513331,2430,NSW,Taree,
Waterman Street,Collison Accounting Pty Ltd,AU,collisonpn@bigpond.com,02 65533235,2430,NSW,,http://www.collinsaccounting.com.au
Vincent Close,2020 Business Accountants Pty Ltd,AU,2020@westnet.com.au,0427 522 277,2430,NSW,,
Victoria Street,Weeks Accounting,AU,luke@weeksaccounting.com.au,0265513331,2430,NSW,Taree,
Waterman Street,Collison Accounting Pty Ltd,AU,collisonpn@bigpond.com,02 65533235,2430,NSW,,http://www.collinsaccounting.com.au
,Paragon Accountants,AU,info@paragonaccountants.com.au,02 65598522,2443,NSW,,http://www.paragonaccountants.com.au/
Vincent Close,2020 Business Accountants Pty Ltd,AU,2020@westnet.com.au,0427 522 277,2430,NSW,,
Victoria Street,Weeks Accounting,AU,luke@weeksaccounting.com.au,0265513331,2430,NSW,Taree,
Waterman Street,Collison Accounting Pty Ltd,AU,collisonpn@bigpond.com,02 65533235,2430,NSW,,http://www.collinsaccounting.com.au
Vincent Close,2020 Business Accountants Pty Ltd,AU,2020@westnet.com.au,0427 522 277,2430,NSW,,
Waterman Street,Collison Accounting Pty Ltd,AU,collisonpn@bigpond.com,02 65533235,2430,NSW,,http://www.collinsaccounting.com.au
Victoria Street,Weeks Accounting,AU,luke@weeksaccounting.com.au,0265513331,2430,NSW,Taree,
Vincent Close,2020 Business Accountants Pty Ltd,AU,2020@westnet.com.au,0427 522 277,2430,NSW,,
Victoria Street,Weeks Accounting,AU,luke@weeksaccounting.com.au,0265513331,2430,NSW,Taree,
Waterman Street,Collison Accounting Pty Ltd,AU,collisonpn@bigpond.com,02 65533235,2430,NSW,,http://www.collinsaccounting.com.au
Vincent Close,2020 Business Accountants Pty Ltd,AU,2020@westnet.com.au,0427 522 277,2430,NSW,,
Waterman Street,Collison Accounting Pty Ltd,AU,collisonpn@bigpond.com,02 65533235,2430,NSW,,http://www.collinsaccounting.com.au
Victoria Street,Weeks Accounting,AU,luke@weeksaccounting.com.au,0265513331,2430,NSW,Taree,
Vincent Close,2020 Business Accountants Pty Ltd,AU,2020@westnet.com.au,0427 522 277,2430,NSW,,
Victoria Street,Weeks Accounting,AU,luke@weeksaccounting.com.au,0265513331,2430,NSW,Taree,
Waterman Street,Collison Accounting Pty Ltd,AU,collisonpn@bigpond.com,02 65533235,2430,NSW,,http://www.collinsaccounting.com.au
Vincent Close,2020 Business Accountants Pty Ltd,AU,2020@westnet.com.au,0427 522 277,2430,NSW,,
Waterman Street,Collison Accounting Pty Ltd,AU,collisonpn@bigpond.com,02 65533235,2430,NSW,,http://www.collinsaccounting.com.au
Vincent Close,2020 Business Accountants Pty Ltd,AU,2020@westnet.com.au,0427 522 277,2430,NSW,,
Victoria Street,Weeks Accounting,AU,luke@weeksaccounting.com.au,0265513331,2430,NSW,Taree,
Waterman Street,Collison Accounting Pty Ltd,AU,collisonpn@bigpond.com,02 65533235,2430,NSW,,http://www.collinsaccounting.com.au
Victoria Street,Weeks Accounting,AU,luke@weeksaccounting.com.au,0265513331,2430,NSW,Taree,
Vincent Close,2020 Business Accountants Pty Ltd,AU,2020@westnet.com.au,0427 522 277,2430,NSW,,
Victoria Street,Weeks Accounting,AU,luke@weeksaccounting.com.au,0265513331,2430,NSW,Taree,
Waterman Street,Collison Accounting Pty Ltd,AU,collisonpn@bigpond.com,02 65533235,2430,NSW,,http://www.collinsaccounting.com.au
Vincent Close,2020 Business Accountants Pty Ltd,AU,2020@westnet.com.au,0427 522 277,2430,NSW,,
Vincent Close,2020 Business Accountants Pty Ltd,AU,2020@westnet.com.au,0427 522 277,2430,NSW,,
Victoria Street,Weeks Accounting,AU,luke@weeksaccounting.com.au,0265513331,2430,NSW,Taree,
Waterman Street,Collison Accounting Pty Ltd,AU,collisonpn@bigpond.com,02 65533235,2430,NSW,,http://www.collinsaccounting.com.au
Victoria Street,Weeks Accounting,AU,luke@weeksaccounting.com.au,0265513331,2430,NSW,Taree,
Waterman Street,Collison Accounting Pty Ltd,AU,collisonpn@bigpond.com,02 65533235,2430,NSW,,http://www.collinsaccounting.com.au
Vincent Close,2020 Business Accountants Pty Ltd,AU,2020@westnet.com.au,0427 522 277,2430,NSW,,
Vincent Close,2020 Business Accountants Pty Ltd,AU,2020@westnet.com.au,0427 522 277,2430,NSW,,
Victoria Street,Weeks Accounting,AU,luke@weeksaccounting.com.au,0265513331,2430,NSW,Taree,
Waterman Street,Collison Accounting Pty Ltd,AU,collisonpn@bigpond.com,02 65533235,2430,NSW,,http://www.collinsaccounting.com.au
Vincent Close,2020 Business Accountants Pty Ltd,AU,2020@westnet.com.au,0427 522 277,2430,NSW,,
Waterman Street,Collison Accounting Pty Ltd,AU,collisonpn@bigpond.com,02 65533235,2430,NSW,,http://www.collinsaccounting.com.au
Victoria Street,Weeks Accounting,AU,luke@weeksaccounting.com.au,0265513331,2430,NSW,Taree,
Vincent Close,2020 Business Accountants Pty Ltd,AU,2020@westnet.com.au,0427 522 277,2430,NSW,,
Waterman Street,Collison Accounting Pty Ltd,AU,collisonpn@bigpond.com,02 65533235,2430,NSW,,http://www.collinsaccounting.com.au
Victoria Street,Weeks Accounting,AU,luke@weeksaccounting.com.au,0265513331,2430,NSW,Taree,
Vincent Close,2020 Business Accountants Pty Ltd,AU,2020@westnet.com.au,0427 522 277,2430,NSW,,
Waterman Street,Collison Accounting Pty Ltd,AU,collisonpn@bigpond.com,02 65533235,2430,NSW,,http://www.collinsaccounting.com.au
Victoria Street,Weeks Accounting,AU,luke@weeksaccounting.com.au,0265513331,2430,NSW,Taree,
Victoria Street,Weeks Accounting,AU,luke@weeksaccounting.com.au,0265513331,2430,NSW,Taree,
Waterman Street,Collison Accounting Pty Ltd,AU,collisonpn@bigpond.com,02 65533235,2430,NSW,,http://www.collinsaccounting.com.au
Vincent Close,2020 Business Accountants Pty Ltd,AU,2020@westnet.com.au,0427 522 277,2430,NSW,,
Victoria Street,Weeks Accounting,AU,luke@weeksaccounting.com.au,0265513331,2430,NSW,Taree,
Waterman Street,Collison Accounting Pty Ltd,AU,collisonpn@bigpond.com,02 65533235,2430,NSW,,http://www.collinsaccounting.com.au
Vincent Close,2020 Business Accountants Pty Ltd,AU,2020@westnet.com.au,0427 522 277,2430,NSW,,
Victoria Street,Weeks Accounting,AU,luke@weeksaccounting.com.au,0265513331,2430,NSW,Taree,
Vincent Close,2020 Business Accountants Pty Ltd,AU,2020@westnet.com.au,0427 522 277,2430,NSW,,
Waterman Street,Collison Accounting Pty Ltd,AU,collisonpn@bigpond.com,02 65533235,2430,NSW,,http://www.collinsaccounting.com.au
Victoria Street,Weeks Accounting,AU,luke@weeksaccounting.com.au,0265513331,2430,NSW,Taree,
Waterman Street,Collison Accounting Pty Ltd,AU,collisonpn@bigpond.com,02 65533235,2430,NSW,,http://www.collinsaccounting.com.au
Vincent Close,2020 Business Accountants Pty Ltd,AU,2020@westnet.com.au,0427 522 277,2430,NSW,,
Waterman Street,Collison Accounting Pty Ltd,AU,collisonpn@bigpond.com,02 65533235,2430,NSW,,http://www.collinsaccounting.com.au
Vincent Close,2020 Business Accountants Pty Ltd,AU,2020@westnet.com.au,0427 522 277,2430,NSW,,
Victoria Street,Weeks Accounting,AU,luke@weeksaccounting.com.au,0265513331,2430,NSW,Taree,
Macleay Valley Way,A.E DE JAGER & C.J GARRETT & D.P.WADE t/a Wrights Chartered Accountants,AU,dan@wrightsca.com.au,02 65662200,2440,NSW,,http://www.wrightsca.com.au
Forth Street,Kel Wright & Co,AU,admin@kelwrightandco.com,02 65628699,2440,NSW,,
Verge Lane,Dan Bates & Associates,AU,dan@dkba.com.au,02 65625815,2440,NSW,,
Armidale Road,Laura Kraaymaat t/as Momentous Accounting & Audit Solutions,AU,laura@mmacc.com.au,0429157423,2440,NSW,,http://www.mmacc.com.au
Macleay Valley Way,A.E DE JAGER & C.J GARRETT & D.P.WADE t/a Wrights Chartered Accountants,AU,dan@wrightsca.com.au,02 65662200,2440,NSW,,http://www.wrightsca.com.au
Forth Street,Kel Wright & Co,AU,admin@kelwrightandco.com,02 65628699,2440,NSW,,
Verge Lane,Dan Bates & Associates,AU,dan@dkba.com.au,02 65625815,2440,NSW,,
Armidale Road,Laura Kraaymaat t/as Momentous Accounting & Audit Solutions,AU,laura@mmacc.com.au,0429157423,2440,NSW,,http://www.mmacc.com.au
Macleay Valley Way,A.E DE JAGER & C.J GARRETT & D.P.WADE t/a Wrights Chartered Accountants,AU,dan@wrightsca.com.au,02 65662200,2440,NSW,,http://www.wrightsca.com.au
Forth Street,Kel Wright & Co,AU,admin@kelwrightandco.com,02 65628699,2440,NSW,,
Verge Lane,Dan Bates & Associates,AU,dan@dkba.com.au,02 65625815,2440,NSW,,
Armidale Road,Laura Kraaymaat t/as Momentous Accounting & Audit Solutions,AU,laura@mmacc.com.au,0429157423,2440,NSW,,http://www.mmacc.com.au
,Paragon Accountants,AU,info@paragonaccountants.com.au,02 65598522,2443,NSW,,http://www.paragonaccountants.com.au/
,Paragon Accountants,AU,info@paragonaccountants.com.au,02 65598522,2443,NSW,,http://www.paragonaccountants.com.au/
Rodley Street,Mobile Business Accounting Services,AU,m.lockhart@live.com.au,(042) 969-7737,2445,NSW,,http://www.mobilebusinessaccountingservices.com.au
,Paragon Accountants,AU,info@paragonaccountants.com.au,02 65598522,2443,NSW,,http://www.paragonaccountants.com.au/
,Paragon Accountants,AU,info@paragonaccountants.com.au,02 65598522,2443,NSW,,http://www.paragonaccountants.com.au/
Victoria Street,Weeks Accounting,AU,luke@weeksaccounting.com.au,0265513331,2430,NSW,Taree,
Waterman Street,Collison Accounting Pty Ltd,AU,collisonpn@bigpond.com,02 65533235,2430,NSW,,http://www.collinsaccounting.com.au
Vincent Close,2020 Business Accountants Pty Ltd,AU,2020@westnet.com.au,0427 522 277,2430,NSW,,
,Paragon Accountants,AU,info@paragonaccountants.com.au,02 65598522,2443,NSW,,http://www.paragonaccountants.com.au/
Rodley Street,Mobile Business Accounting Services,AU,m.lockhart@live.com.au,(042) 969-7737,2445,NSW,,http://www.mobilebusinessaccountingservices.com.au
,Paragon Accountants,AU,info@paragonaccountants.com.au,02 65598522,2443,NSW,,http://www.paragonaccountants.com.au/
Rodley Street,Mobile Business Accounting Services,AU,m.lockhart@live.com.au,(042) 969-7737,2445,NSW,,http://www.mobilebusinessaccountingservices.com.au
,Paragon Accountants,AU,info@paragonaccountants.com.au,02 65598522,2443,NSW,,http://www.paragonaccountants.com.au/
,Paragon Accountants,AU,info@paragonaccountants.com.au,02 65598522,2443,NSW,,http://www.paragonaccountants.com.au/
,Paragon Accountants,AU,info@paragonaccountants.com.au,02 65598522,2443,NSW,,http://www.paragonaccountants.com.au/
,Paragon Accountants,AU,info@paragonaccountants.com.au,02 65598522,2443,NSW,,http://www.paragonaccountants.com.au/
Verge Lane,Dan Bates & Associates,AU,dan@dkba.com.au,02 65625815,2440,NSW,,
Forth Street,Kel Wright & Co,AU,admin@kelwrightandco.com,02 65628699,2440,NSW,,
Macleay Valley Way,A.E DE JAGER & C.J GARRETT & D.P.WADE t/a Wrights Chartered Accountants,AU,dan@wrightsca.com.au,02 65662200,2440,NSW,,http://www.wrightsca.com.au
Armidale Road,Laura Kraaymaat t/as Momentous Accounting & Audit Solutions,AU,laura@mmacc.com.au,0429157423,2440,NSW,,http://www.mmacc.com.au
Macleay Valley Way,A.E DE JAGER & C.J GARRETT & D.P.WADE t/a Wrights Chartered Accountants,AU,dan@wrightsca.com.au,02 65662200,2440,NSW,,http://www.wrightsca.com.au
Forth Street,Kel Wright & Co,AU,admin@kelwrightandco.com,02 65628699,2440,NSW,,
Verge Lane,Dan Bates & Associates,AU,dan@dkba.com.au,02 65625815,2440,NSW,,
Armidale Road,Laura Kraaymaat t/as Momentous Accounting & Audit Solutions,AU,laura@mmacc.com.au,0429157423,2440,NSW,,http://www.mmacc.com.au
Armidale Road,Laura Kraaymaat t/as Momentous Accounting & Audit Solutions,AU,laura@mmacc.com.au,0429157423,2440,NSW,,http://www.mmacc.com.au
Macleay Valley Way,A.E DE JAGER & C.J GARRETT & D.P.WADE t/a Wrights Chartered Accountants,AU,dan@wrightsca.com.au,02 65662200,2440,NSW,,http://www.wrightsca.com.au
Forth Street,Kel Wright & Co,AU,admin@kelwrightandco.com,02 65628699,2440,NSW,,
Verge Lane,Dan Bates & Associates,AU,dan@dkba.com.au,02 65625815,2440,NSW,,
Macleay Valley Way,A.E DE JAGER & C.J GARRETT & D.P.WADE t/a Wrights Chartered Accountants,AU,dan@wrightsca.com.au,02 65662200,2440,NSW,,http://www.wrightsca.com.au
Forth Street,Kel Wright & Co,AU,admin@kelwrightandco.com,02 65628699,2440,NSW,,
Verge Lane,Dan Bates & Associates,AU,dan@dkba.com.au,02 65625815,2440,NSW,,
Armidale Road,Laura Kraaymaat t/as Momentous Accounting & Audit Solutions,AU,laura@mmacc.com.au,0429157423,2440,NSW,,http://www.mmacc.com.au
Macleay Valley Way,A.E DE JAGER & C.J GARRETT & D.P.WADE t/a Wrights Chartered Accountants,AU,dan@wrightsca.com.au,02 65662200,2440,NSW,,http://www.wrightsca.com.au
Forth Street,Kel Wright & Co,AU,admin@kelwrightandco.com,02 65628699,2440,NSW,,
Verge Lane,Dan Bates & Associates,AU,dan@dkba.com.au,02 65625815,2440,NSW,,
Armidale Road,Laura Kraaymaat t/as Momentous Accounting & Audit Solutions,AU,laura@mmacc.com.au,0429157423,2440,NSW,,http://www.mmacc.com.au
Verge Lane,Dan Bates & Associates,AU,dan@dkba.com.au,02 65625815,2440,NSW,,
Forth Street,Kel Wright & Co,AU,admin@kelwrightandco.com,02 65628699,2440,NSW,,
Macleay Valley Way,A.E DE JAGER & C.J GARRETT & D.P.WADE t/a Wrights Chartered Accountants,AU,dan@wrightsca.com.au,02 65662200,2440,NSW,,http://www.wrightsca.com.au
Armidale Road,Laura Kraaymaat t/as Momentous Accounting & Audit Solutions,AU,laura@mmacc.com.au,0429157423,2440,NSW,,http://www.mmacc.com.au
Armidale Road,Laura Kraaymaat t/as Momentous Accounting & Audit Solutions,AU,laura@mmacc.com.au,0429157423,2440,NSW,,http://www.mmacc.com.au
Macleay Valley Way,A.E DE JAGER & C.J GARRETT & D.P.WADE t/a Wrights Chartered Accountants,AU,dan@wrightsca.com.au,02 65662200,2440,NSW,,http://www.wrightsca.com.au
Verge Lane,Dan Bates & Associates,AU,dan@dkba.com.au,02 65625815,2440,NSW,,
Forth Street,Kel Wright & Co,AU,admin@kelwrightandco.com,02 65628699,2440,NSW,,
Macleay Valley Way,A.E DE JAGER & C.J GARRETT & D.P.WADE t/a Wrights Chartered Accountants,AU,dan@wrightsca.com.au,02 65662200,2440,NSW,,http://www.wrightsca.com.au
Forth Street,Kel Wright & Co,AU,admin@kelwrightandco.com,02 65628699,2440,NSW,,
Verge Lane,Dan Bates & Associates,AU,dan@dkba.com.au,02 65625815,2440,NSW,,
Armidale Road,Laura Kraaymaat t/as Momentous Accounting & Audit Solutions,AU,laura@mmacc.com.au,0429157423,2440,NSW,,http://www.mmacc.com.au
Macleay Valley Way,A.E DE JAGER & C.J GARRETT & D.P.WADE t/a Wrights Chartered Accountants,AU,dan@wrightsca.com.au,02 65662200,2440,NSW,,http://www.wrightsca.com.au
Forth Street,Kel Wright & Co,AU,admin@kelwrightandco.com,02 65628699,2440,NSW,,
Verge Lane,Dan Bates & Associates,AU,dan@dkba.com.au,02 65625815,2440,NSW,,
Armidale Road,Laura Kraaymaat t/as Momentous Accounting & Audit Solutions,AU,laura@mmacc.com.au,0429157423,2440,NSW,,http://www.mmacc.com.au
Armidale Road,Laura Kraaymaat t/as Momentous Accounting & Audit Solutions,AU,laura@mmacc.com.au,0429157423,2440,NSW,,http://www.mmacc.com.au
Macleay Valley Way,A.E DE JAGER & C.J GARRETT & D.P.WADE t/a Wrights Chartered Accountants,AU,dan@wrightsca.com.au,02 65662200,2440,NSW,,http://www.wrightsca.com.au
Forth Street,Kel Wright & Co,AU,admin@kelwrightandco.com,02 65628699,2440,NSW,,
Verge Lane,Dan Bates & Associates,AU,dan@dkba.com.au,02 65625815,2440,NSW,,
Macleay Valley Way,A.E DE JAGER & C.J GARRETT & D.P.WADE t/a Wrights Chartered Accountants,AU,dan@wrightsca.com.au,02 65662200,2440,NSW,,http://www.wrightsca.com.au
Forth Street,Kel Wright & Co,AU,admin@kelwrightandco.com,02 65628699,2440,NSW,,
Verge Lane,Dan Bates & Associates,AU,dan@dkba.com.au,02 65625815,2440,NSW,,
Armidale Road,Laura Kraaymaat t/as Momentous Accounting & Audit Solutions,AU,laura@mmacc.com.au,0429157423,2440,NSW,,http://www.mmacc.com.au
Verge Lane,Dan Bates & Associates,AU,dan@dkba.com.au,02 65625815,2440,NSW,,
Forth Street,Kel Wright & Co,AU,admin@kelwrightandco.com,02 65628699,2440,NSW,,
Macleay Valley Way,A.E DE JAGER & C.J GARRETT & D.P.WADE t/a Wrights Chartered Accountants,AU,dan@wrightsca.com.au,02 65662200,2440,NSW,,http://www.wrightsca.com.au
Armidale Road,Laura Kraaymaat t/as Momentous Accounting & Audit Solutions,AU,laura@mmacc.com.au,0429157423,2440,NSW,,http://www.mmacc.com.au
Macleay Valley Way,A.E DE JAGER & C.J GARRETT & D.P.WADE t/a Wrights Chartered Accountants,AU,dan@wrightsca.com.au,02 65662200,2440,NSW,,http://www.wrightsca.com.au
Forth Street,Kel Wright & Co,AU,admin@kelwrightandco.com,02 65628699,2440,NSW,,
Verge Lane,Dan Bates & Associates,AU,dan@dkba.com.au,02 65625815,2440,NSW,,
Armidale Road,Laura Kraaymaat t/as Momentous Accounting & Audit Solutions,AU,laura@mmacc.com.au,0429157423,2440,NSW,,http://www.mmacc.com.au
Verge Lane,Dan Bates & Associates,AU,dan@dkba.com.au,02 65625815,2440,NSW,,
Forth Street,Kel Wright & Co,AU,admin@kelwrightandco.com,02 65628699,2440,NSW,,
Macleay Valley Way,A.E DE JAGER & C.J GARRETT & D.P.WADE t/a Wrights Chartered Accountants,AU,dan@wrightsca.com.au,02 65662200,2440,NSW,,http://www.wrightsca.com.au
Armidale Road,Laura Kraaymaat t/as Momentous Accounting & Audit Solutions,AU,laura@mmacc.com.au,0429157423,2440,NSW,,http://www.mmacc.com.au
Verge Lane,Dan Bates & Associates,AU,dan@dkba.com.au,02 65625815,2440,NSW,,
Forth Street,Kel Wright & Co,AU,admin@kelwrightandco.com,02 65628699,2440,NSW,,
Macleay Valley Way,A.E DE JAGER & C.J GARRETT & D.P.WADE t/a Wrights Chartered Accountants,AU,dan@wrightsca.com.au,02 65662200,2440,NSW,,http://www.wrightsca.com.au
Armidale Road,Laura Kraaymaat t/as Momentous Accounting & Audit Solutions,AU,laura@mmacc.com.au,0429157423,2440,NSW,,http://www.mmacc.com.au
Verge Lane,Dan Bates & Associates,AU,dan@dkba.com.au,02 65625815,2440,NSW,,
Forth Street,Kel Wright & Co,AU,admin@kelwrightandco.com,02 65628699,2440,NSW,,
Macleay Valley Way,A.E DE JAGER & C.J GARRETT & D.P.WADE t/a Wrights Chartered Accountants,AU,dan@wrightsca.com.au,02 65662200,2440,NSW,,http://www.wrightsca.com.au
Armidale Road,Laura Kraaymaat t/as Momentous Accounting & Audit Solutions,AU,laura@mmacc.com.au,0429157423,2440,NSW,,http://www.mmacc.com.au
Macleay Valley Way,A.E DE JAGER & C.J GARRETT & D.P.WADE t/a Wrights Chartered Accountants,AU,dan@wrightsca.com.au,02 65662200,2440,NSW,,http://www.wrightsca.com.au
Forth Street,Kel Wright & Co,AU,admin@kelwrightandco.com,02 65628699,2440,NSW,,
Verge Lane,Dan Bates & Associates,AU,dan@dkba.com.au,02 65625815,2440,NSW,,
Armidale Road,Laura Kraaymaat t/as Momentous Accounting & Audit Solutions,AU,laura@mmacc.com.au,0429157423,2440,NSW,,http://www.mmacc.com.au
Macleay Valley Way,A.E DE JAGER & C.J GARRETT & D.P.WADE t/a Wrights Chartered Accountants,AU,dan@wrightsca.com.au,02 65662200,2440,NSW,,http://www.wrightsca.com.au
Forth Street,Kel Wright & Co,AU,admin@kelwrightandco.com,02 65628699,2440,NSW,,
Verge Lane,Dan Bates & Associates,AU,dan@dkba.com.au,02 65625815,2440,NSW,,
Armidale Road,Laura Kraaymaat t/as Momentous Accounting & Audit Solutions,AU,laura@mmacc.com.au,0429157423,2440,NSW,,http://www.mmacc.com.au
Forth Street,Kel Wright & Co,AU,admin@kelwrightandco.com,02 65628699,2440,NSW,,
Verge Lane,Dan Bates & Associates,AU,dan@dkba.com.au,02 65625815,2440,NSW,,
Macleay Valley Way,A.E DE JAGER & C.J GARRETT & D.P.WADE t/a Wrights Chartered Accountants,AU,dan@wrightsca.com.au,02 65662200,2440,NSW,,http://www.wrightsca.com.au
Armidale Road,Laura Kraaymaat t/as Momentous Accounting & Audit Solutions,AU,laura@mmacc.com.au,0429157423,2440,NSW,,http://www.mmacc.com.au
Macleay Valley Way,A.E DE JAGER & C.J GARRETT & D.P.WADE t/a Wrights Chartered Accountants,AU,dan@wrightsca.com.au,02 65662200,2440,NSW,,http://www.wrightsca.com.au
Forth Street,Kel Wright & Co,AU,admin@kelwrightandco.com,02 65628699,2440,NSW,,
Verge Lane,Dan Bates & Associates,AU,dan@dkba.com.au,02 65625815,2440,NSW,,
Armidale Road,Laura Kraaymaat t/as Momentous Accounting & Audit Solutions,AU,laura@mmacc.com.au,0429157423,2440,NSW,,http://www.mmacc.com.au
Macleay Valley Way,A.E DE JAGER & C.J GARRETT & D.P.WADE t/a Wrights Chartered Accountants,AU,dan@wrightsca.com.au,02 65662200,2440,NSW,,http://www.wrightsca.com.au
Forth Street,Kel Wright & Co,AU,admin@kelwrightandco.com,02 65628699,2440,NSW,,
Verge Lane,Dan Bates & Associates,AU,dan@dkba.com.au,02 65625815,2440,NSW,,
Armidale Road,Laura Kraaymaat t/as Momentous Accounting & Audit Solutions,AU,laura@mmacc.com.au,0429157423,2440,NSW,,http://www.mmacc.com.au
Armidale Road,Laura Kraaymaat t/as Momentous Accounting & Audit Solutions,AU,laura@mmacc.com.au,0429157423,2440,NSW,,http://www.mmacc.com.au
Macleay Valley Way,A.E DE JAGER & C.J GARRETT & D.P.WADE t/a Wrights Chartered Accountants,AU,dan@wrightsca.com.au,02 65662200,2440,NSW,,http://www.wrightsca.com.au
Forth Street,Kel Wright & Co,AU,admin@kelwrightandco.com,02 65628699,2440,NSW,,
Verge Lane,Dan Bates & Associates,AU,dan@dkba.com.au,02 65625815,2440,NSW,,
Verge Lane,Dan Bates & Associates,AU,dan@dkba.com.au,02 65625815,2440,NSW,,
Forth Street,Kel Wright & Co,AU,admin@kelwrightandco.com,02 65628699,2440,NSW,,
Macleay Valley Way,A.E DE JAGER & C.J GARRETT & D.P.WADE t/a Wrights Chartered Accountants,AU,dan@wrightsca.com.au,02 65662200,2440,NSW,,http://www.wrightsca.com.au
Armidale Road,Laura Kraaymaat t/as Momentous Accounting & Audit Solutions,AU,laura@mmacc.com.au,0429157423,2440,NSW,,http://www.mmacc.com.au
