address,company_name,country,email,phone,postcode,state,suburb,website
Douglas Street,GC Accountants,AU,garyc@gcaccountants.com.au,02 4956 1640,2287,NSW,Wallsend,http://www.gcaccountants.com.au
Virgo Street,Scott Sharp,AU,scottsharp79@gmail.com,0407906978,2287,NSW,Elermore Vale,
Howe Street,G C Accountants Pty Ltd,AU,mail@gcaccountants.com.au,02 49561640,2299,NSW,Lambton,http://www.gcaccountants.com.au
Serenity Crescent,Precision Taxation Accounting & Management,AU,peter@ptam.com.au,1300007826,2287,NSW,Fletcher,
Arnott Street,A J Dorse Accounting,AU,ashley@ajdorseaccounting.com.au,(02) 4048 2175,2287,NSW,Edgeworth,http://www.ajdorseaccounting.com.au
Douglas Street,GC Accountants,AU,garyc@gcaccountants.com.au,02 4956 1640,2287,NSW,Wallsend,http://www.gcaccountants.com.au
Virgo Street,Scott Sharp,AU,scottsharp79@gmail.com,0407906978,2287,NSW,Elermore Vale,
Kirby Street,CNS Accounting Pty Ltd,AU,scott@cnsaccounting.com.au,0407 906 978,2285,NSW,Cardiff,http://www.cnsaccounting.com.au
Howe Street,G C Accountants Pty Ltd,AU,mail@gcaccountants.com.au,02 49561640,2299,NSW,Lambton,http://www.gcaccountants.com.au
Park Avenue,Delia Scopulovic,AU,dscopulovic@exemail.com.au,0412491030,2289,NSW,Kotara,
Lambton Road,Visionary Accountants,AU,contact@visionaryaccountants.com.au,0249671268,2305,NSW,New Lambton,http://www.visionaryaccountants.com.au
Arnott Street,A J Dorse Accounting,AU,ashley@ajdorseaccounting.com.au,(02) 4048 2175,2287,NSW,Edgeworth,http://www.ajdorseaccounting.com.au
Arnott Street,Summit Accounting & Taxation,AU,trina@summitacc.com.au,02 40131222,2285,NSW,Edgeworth,http://www.summitacc.com.au
Gosford Road,Triple L Services,AU,tripleLservicesau@gmail.com,0431195000,2289,NSW,Adamstown,
Serenity Crescent,Precision Taxation Accounting & Management,AU,peter@ptam.com.au,1300007826,2287,NSW,Fletcher,
Gosford Road,Triple L Services,AU,tripleLservicesau@gmail.com,0431195000,2289,NSW,Adamstown,
Awaba Road,Super Auditors Pty Ltd,AU,jean@superauditors.com.au,1300 738 288,2292,NSW,Broadmeadow,www.superauditors.com.au
Heddon Road,Pivotal Accounting,AU,grant@pivotalaccounting.com.au,,2292,NSW,Broadmeadow,http://www.pivotalaccounting.com.au/
Lambton Road,Visionary Accountants,AU,contact@visionaryaccountants.com.au,0249671268,2305,NSW,New Lambton,http://www.visionaryaccountants.com.au
Denison Street,Bentleys Newcastle Pty Ltd,AU,admin@newc.bentleys.com.au,02 49406100,2292,NSW,Broadmeadow,http://www.bentleys.com.au
Ailsa Road,Millenium Accountancy Pty Ltd,AU,francis@milacc.com.au,02 49614442,2292,NSW,Broadmeadow,http://milacc.com.au/
Park Avenue,Delia Scopulovic,AU,dscopulovic@exemail.com.au,0412491030,2289,NSW,Kotara,
James Street,Hamilton Taggart Business Advisors,AU,melanie@hamiltontaggart.com.au,02 4962 2022,2303,NSW,Hamilton,http://www.hamiltontaggart.com.au
James Street,Real Balance Business Consulting,AU,craig.whitton@realbalance.com.au,02 49421839,2303,NSW,Hamilton,http://realbalance.com.au/
Murray Street,Rees Pritchard Pty Limited,AU,mail@reespritchard.com.au,02 49202877,2303,NSW,Hamilton,http://www.pritchards.com.au/
Hudson Street,Lambourne Partners,AU,mail@lambourne.com.au,02 49696600,2303,NSW,Hamilton,http://www.lambourne.com.au
,Taggart Partners,AU,ross@taggart.com.au,02 4962 2022,2303,NSW,Hamilton,http://www.taggart.com.au
Howe Street,G C Accountants Pty Ltd,AU,mail@gcaccountants.com.au,02 49561640,2299,NSW,Lambton,http://www.gcaccountants.com.au
Watkins Street,CM Hewitt and Associates Pty Ltd Chartered Accountants,AU,emily@cmhewitt.com.au,02 49400255,2291,NSW,The Junction,http://www.cmhewitt.com.au
Watkins Street,H & M Accountants Pty Ltd,AU,philippe@hmaccountants.com.au,02 49622088,2291,NSW,The Junction,http://www.hmaccountants.com.au
Kemp Street,Bellcorp Accountants,AU,erminio@adorantibell.com.au,02 49622440,2291,NSW,The Junction,https://adorantibell.com.au/
Park Avenue,Delia Scopulovic,AU,dscopulovic@exemail.com.au,0412491030,2289,NSW,Kotara,
Gosford Road,Triple L Services,AU,tripleLservicesau@gmail.com,0431195000,2289,NSW,Adamstown,
Hopetoun Street,PDH Accounting Services Pty Ltd,AU,admin@pdhaccounting.com.au,02 49434475,2290,NSW,Charlestown,http://pdhaccounting.com.au/
Lambton Road,Visionary Accountants,AU,contact@visionaryaccountants.com.au,0249671268,2305,NSW,New Lambton,http://www.visionaryaccountants.com.au
Park Street,Kilpatrick Lake Mackenzie P/L,AU,daniel@klmaccountants.com.au,02 4908 0400,2290,NSW,Charlestown,http://www.klmaccountants.com.au
Watkins Street,CM Hewitt and Associates Pty Ltd Chartered Accountants,AU,emily@cmhewitt.com.au,02 49400255,2291,NSW,The Junction,http://www.cmhewitt.com.au
Watkins Street,H & M Accountants Pty Ltd,AU,philippe@hmaccountants.com.au,02 49622088,2291,NSW,The Junction,http://www.hmaccountants.com.au
Schroder Avenue,McCallum Partners Pty Ltd,AU,ian@mccallumpartners.com.au,0448870234,2290,NSW,Gateshead,http://www.mccallumpartners.com.au/
Kemp Street,Bellcorp Accountants,AU,erminio@adorantibell.com.au,02 49622440,2291,NSW,The Junction,https://adorantibell.com.au/
Hopetoun Street,PDH Accounting Services Pty Ltd,AU,admin@pdhaccounting.com.au,02 49434475,2290,NSW,Charlestown,http://pdhaccounting.com.au/
Park Street,Kilpatrick Lake Mackenzie P/L,AU,daniel@klmaccountants.com.au,02 4908 0400,2290,NSW,Charlestown,http://www.klmaccountants.com.au
Kirby Street,CNS Accounting Pty Ltd,AU,scott@cnsaccounting.com.au,0407 906 978,2285,NSW,Cardiff,http://www.cnsaccounting.com.au
Park Avenue,Delia Scopulovic,AU,dscopulovic@exemail.com.au,0412491030,2289,NSW,Kotara,
Schroder Avenue,McCallum Partners Pty Ltd,AU,ian@mccallumpartners.com.au,0448870234,2290,NSW,Gateshead,http://www.mccallumpartners.com.au/
Virgo Street,Scott Sharp,AU,scottsharp79@gmail.com,0407906978,2287,NSW,Elermore Vale,
Gosford Road,Triple L Services,AU,tripleLservicesau@gmail.com,0431195000,2289,NSW,Adamstown,
Douglas Street,GC Accountants,AU,garyc@gcaccountants.com.au,02 4956 1640,2287,NSW,Wallsend,http://www.gcaccountants.com.au
Lambton Road,Visionary Accountants,AU,contact@visionaryaccountants.com.au,0249671268,2305,NSW,New Lambton,http://www.visionaryaccountants.com.au
Arnott Street,A J Dorse Accounting,AU,ashley@ajdorseaccounting.com.au,(02) 4048 2175,2287,NSW,Edgeworth,http://www.ajdorseaccounting.com.au
Arnott Street,Summit Accounting & Taxation,AU,trina@summitacc.com.au,02 40131222,2285,NSW,Edgeworth,http://www.summitacc.com.au
Serenity Crescent,Precision Taxation Accounting & Management,AU,peter@ptam.com.au,1300007826,2287,NSW,Fletcher,
Park Avenue,Delia Scopulovic,AU,dscopulovic@exemail.com.au,0412491030,2289,NSW,Kotara,
Hopetoun Street,PDH Accounting Services Pty Ltd,AU,admin@pdhaccounting.com.au,02 49434475,2290,NSW,Charlestown,http://pdhaccounting.com.au/
Gosford Road,Triple L Services,AU,tripleLservicesau@gmail.com,0431195000,2289,NSW,Adamstown,
Park Street,Kilpatrick Lake Mackenzie P/L,AU,daniel@klmaccountants.com.au,02 4908 0400,2290,NSW,Charlestown,http://www.klmaccountants.com.au
Schroder Avenue,McCallum Partners Pty Ltd,AU,ian@mccallumpartners.com.au,0448870234,2290,NSW,Gateshead,http://www.mccallumpartners.com.au/
Watkins Street,CM Hewitt and Associates Pty Ltd Chartered Accountants,AU,emily@cmhewitt.com.au,02 49400255,2291,NSW,The Junction,http://www.cmhewitt.com.au
Watkins Street,H & M Accountants Pty Ltd,AU,philippe@hmaccountants.com.au,02 49622088,2291,NSW,The Junction,http://www.hmaccountants.com.au
Kemp Street,Bellcorp Accountants,AU,erminio@adorantibell.com.au,02 49622440,2291,NSW,The Junction,https://adorantibell.com.au/
Park Avenue,Delia Scopulovic,AU,dscopulovic@exemail.com.au,0412491030,2289,NSW,Kotara,
Hopetoun Street,PDH Accounting Services Pty Ltd,AU,admin@pdhaccounting.com.au,02 49434475,2290,NSW,Charlestown,http://pdhaccounting.com.au/
Park Street,Kilpatrick Lake Mackenzie P/L,AU,daniel@klmaccountants.com.au,02 4908 0400,2290,NSW,Charlestown,http://www.klmaccountants.com.au
Kirby Street,CNS Accounting Pty Ltd,AU,scott@cnsaccounting.com.au,0407 906 978,2285,NSW,Cardiff,http://www.cnsaccounting.com.au
Lambton Road,Visionary Accountants,AU,contact@visionaryaccountants.com.au,0249671268,2305,NSW,New Lambton,http://www.visionaryaccountants.com.au
Gosford Road,Triple L Services,AU,tripleLservicesau@gmail.com,0431195000,2289,NSW,Adamstown,
Douglas Street,GC Accountants,AU,garyc@gcaccountants.com.au,02 4956 1640,2287,NSW,Wallsend,http://www.gcaccountants.com.au
Virgo Street,Scott Sharp,AU,scottsharp79@gmail.com,0407906978,2287,NSW,Elermore Vale,
Schroder Avenue,McCallum Partners Pty Ltd,AU,ian@mccallumpartners.com.au,0448870234,2290,NSW,Gateshead,http://www.mccallumpartners.com.au/
Arnott Street,A J Dorse Accounting,AU,ashley@ajdorseaccounting.com.au,(02) 4048 2175,2287,NSW,Edgeworth,http://www.ajdorseaccounting.com.au
Arnott Street,Summit Accounting & Taxation,AU,trina@summitacc.com.au,02 40131222,2285,NSW,Edgeworth,http://www.summitacc.com.au
Serenity Crescent,Precision Taxation Accounting & Management,AU,peter@ptam.com.au,1300007826,2287,NSW,Fletcher,
Hopetoun Street,PDH Accounting Services Pty Ltd,AU,admin@pdhaccounting.com.au,02 49434475,2290,NSW,Charlestown,http://pdhaccounting.com.au/
Park Street,Kilpatrick Lake Mackenzie P/L,AU,daniel@klmaccountants.com.au,02 4908 0400,2290,NSW,Charlestown,http://www.klmaccountants.com.au
Park Avenue,Delia Scopulovic,AU,dscopulovic@exemail.com.au,0412491030,2289,NSW,Kotara,
Kirby Street,CNS Accounting Pty Ltd,AU,scott@cnsaccounting.com.au,0407 906 978,2285,NSW,Cardiff,http://www.cnsaccounting.com.au
Schroder Avenue,McCallum Partners Pty Ltd,AU,ian@mccallumpartners.com.au,0448870234,2290,NSW,Gateshead,http://www.mccallumpartners.com.au/
Gosford Road,Triple L Services,AU,tripleLservicesau@gmail.com,0431195000,2289,NSW,Adamstown,
Lambton Road,Visionary Accountants,AU,contact@visionaryaccountants.com.au,0249671268,2305,NSW,New Lambton,http://www.visionaryaccountants.com.au
Arnott Street,Summit Accounting & Taxation,AU,trina@summitacc.com.au,02 40131222,2285,NSW,Edgeworth,http://www.summitacc.com.au
Schroder Avenue,McCallum Partners Pty Ltd,AU,ian@mccallumpartners.com.au,0448870234,2290,NSW,Gateshead,http://www.mccallumpartners.com.au/
Park Street,Kilpatrick Lake Mackenzie P/L,AU,daniel@klmaccountants.com.au,02 4908 0400,2290,NSW,Charlestown,http://www.klmaccountants.com.au
Hopetoun Street,PDH Accounting Services Pty Ltd,AU,admin@pdhaccounting.com.au,02 49434475,2290,NSW,Charlestown,http://pdhaccounting.com.au/
Henry Street,Neil Marshall Tax and Business Advice PTY LTD,AU,marshallnw@bigpond.com,02 4945 1395,2280,NSW,Belmont,http://www.neilmarshalltaxandbusiness.com.au/
Frederick Street,G Buckton,AU,bucktongr@yahoo.com.au,02 49659059,2280,NSW,Valentine,
Hopetoun Street,PDH Accounting Services Pty Ltd,AU,admin@pdhaccounting.com.au,02 49434475,2290,NSW,Charlestown,http://pdhaccounting.com.au/
Park Street,Kilpatrick Lake Mackenzie P/L,AU,daniel@klmaccountants.com.au,02 4908 0400,2290,NSW,Charlestown,http://www.klmaccountants.com.au
Schroder Avenue,McCallum Partners Pty Ltd,AU,ian@mccallumpartners.com.au,0448870234,2290,NSW,Gateshead,http://www.mccallumpartners.com.au/
Park Avenue,Delia Scopulovic,AU,dscopulovic@exemail.com.au,0412491030,2289,NSW,Kotara,
Gosford Road,Triple L Services,AU,tripleLservicesau@gmail.com,0431195000,2289,NSW,Adamstown,
Schroder Avenue,McCallum Partners Pty Ltd,AU,ian@mccallumpartners.com.au,0448870234,2290,NSW,Gateshead,http://www.mccallumpartners.com.au/
Hopetoun Street,PDH Accounting Services Pty Ltd,AU,admin@pdhaccounting.com.au,02 49434475,2290,NSW,Charlestown,http://pdhaccounting.com.au/
Park Street,Kilpatrick Lake Mackenzie P/L,AU,daniel@klmaccountants.com.au,02 4908 0400,2290,NSW,Charlestown,http://www.klmaccountants.com.au
Schroder Avenue,McCallum Partners Pty Ltd,AU,ian@mccallumpartners.com.au,0448870234,2290,NSW,Gateshead,http://www.mccallumpartners.com.au/
Park Street,Kilpatrick Lake Mackenzie P/L,AU,daniel@klmaccountants.com.au,02 4908 0400,2290,NSW,Charlestown,http://www.klmaccountants.com.au
Hopetoun Street,PDH Accounting Services Pty Ltd,AU,admin@pdhaccounting.com.au,02 49434475,2290,NSW,Charlestown,http://pdhaccounting.com.au/
Henry Street,Neil Marshall Tax and Business Advice PTY LTD,AU,marshallnw@bigpond.com,02 4945 1395,2280,NSW,Belmont,http://www.neilmarshalltaxandbusiness.com.au/
Frederick Street,G Buckton,AU,bucktongr@yahoo.com.au,02 49659059,2280,NSW,Valentine,
Park Street,Kilpatrick Lake Mackenzie P/L,AU,daniel@klmaccountants.com.au,02 4908 0400,2290,NSW,Charlestown,http://www.klmaccountants.com.au
Hopetoun Street,PDH Accounting Services Pty Ltd,AU,admin@pdhaccounting.com.au,02 49434475,2290,NSW,Charlestown,http://pdhaccounting.com.au/
Kirby Street,CNS Accounting Pty Ltd,AU,scott@cnsaccounting.com.au,0407 906 978,2285,NSW,Cardiff,http://www.cnsaccounting.com.au
Schroder Avenue,McCallum Partners Pty Ltd,AU,ian@mccallumpartners.com.au,0448870234,2290,NSW,Gateshead,http://www.mccallumpartners.com.au/
Jonathan Street,Emcaw nominees Pty Ltd ATF Emcaw Trust T/As FinBiz Advisers,AU,annette@finbiz.com.au,0249471668,2282,NSW,Warners Bay,http://www.finbiz.com.au
Jonathan Street,Shane McGrath Accountant,AU,shane@smacc.com.au,02 49468409,2282,NSW,Warners Bay,http://smacc.com.au
Beryl Street,Michelle Jardine,AU,Michelle.jardine@live.com.au,0422124444,2282,NSW,Warners Bay,
Park Avenue,Delia Scopulovic,AU,dscopulovic@exemail.com.au,0412491030,2289,NSW,Kotara,
Seppelt Close,Jenni Thompson,AU,jennilthompson@bigpond.com,0438450066,2282,NSW,Eleebana,
Wyndham Way,Bullet Business Services Pty Ltd,AU,,02 49461800,2282,NSW,Eleebana,
Gosford Road,Triple L Services,AU,tripleLservicesau@gmail.com,0431195000,2289,NSW,Adamstown,
Arnott Street,Summit Accounting & Taxation,AU,trina@summitacc.com.au,02 40131222,2285,NSW,Edgeworth,http://www.summitacc.com.au
Hopetoun Street,PDH Accounting Services Pty Ltd,AU,admin@pdhaccounting.com.au,02 49434475,2290,NSW,Charlestown,http://pdhaccounting.com.au/
Park Avenue,Delia Scopulovic,AU,dscopulovic@exemail.com.au,0412491030,2289,NSW,Kotara,
Park Street,Kilpatrick Lake Mackenzie P/L,AU,daniel@klmaccountants.com.au,02 4908 0400,2290,NSW,Charlestown,http://www.klmaccountants.com.au
Schroder Avenue,McCallum Partners Pty Ltd,AU,ian@mccallumpartners.com.au,0448870234,2290,NSW,Gateshead,http://www.mccallumpartners.com.au/
Gosford Road,Triple L Services,AU,tripleLservicesau@gmail.com,0431195000,2289,NSW,Adamstown,
Watkins Street,CM Hewitt and Associates Pty Ltd Chartered Accountants,AU,emily@cmhewitt.com.au,02 49400255,2291,NSW,The Junction,http://www.cmhewitt.com.au
Watkins Street,H & M Accountants Pty Ltd,AU,philippe@hmaccountants.com.au,02 49622088,2291,NSW,The Junction,http://www.hmaccountants.com.au
Kemp Street,Bellcorp Accountants,AU,erminio@adorantibell.com.au,02 49622440,2291,NSW,The Junction,https://adorantibell.com.au/
Seppelt Close,Jenni Thompson,AU,jennilthompson@bigpond.com,0438450066,2282,NSW,Eleebana,
Jonathan Street,Emcaw nominees Pty Ltd ATF Emcaw Trust T/As FinBiz Advisers,AU,annette@finbiz.com.au,0249471668,2282,NSW,Warners Bay,http://www.finbiz.com.au
Jonathan Street,Shane McGrath Accountant,AU,shane@smacc.com.au,02 49468409,2282,NSW,Warners Bay,http://smacc.com.au
Schroder Avenue,McCallum Partners Pty Ltd,AU,ian@mccallumpartners.com.au,0448870234,2290,NSW,Gateshead,http://www.mccallumpartners.com.au/
Beryl Street,Michelle Jardine,AU,Michelle.jardine@live.com.au,0422124444,2282,NSW,Warners Bay,
Wyndham Way,Bullet Business Services Pty Ltd,AU,,02 49461800,2282,NSW,Eleebana,
Park Street,Kilpatrick Lake Mackenzie P/L,AU,daniel@klmaccountants.com.au,02 4908 0400,2290,NSW,Charlestown,http://www.klmaccountants.com.au
Hopetoun Street,PDH Accounting Services Pty Ltd,AU,admin@pdhaccounting.com.au,02 49434475,2290,NSW,Charlestown,http://pdhaccounting.com.au/
Frederick Street,G Buckton,AU,bucktongr@yahoo.com.au,02 49659059,2280,NSW,Valentine,
Henry Street,Neil Marshall Tax and Business Advice PTY LTD,AU,marshallnw@bigpond.com,02 4945 1395,2280,NSW,Belmont,http://www.neilmarshalltaxandbusiness.com.au/
Schroder Avenue,McCallum Partners Pty Ltd,AU,ian@mccallumpartners.com.au,0448870234,2290,NSW,Gateshead,http://www.mccallumpartners.com.au/
Henry Street,Neil Marshall Tax and Business Advice PTY LTD,AU,marshallnw@bigpond.com,02 4945 1395,2280,NSW,Belmont,http://www.neilmarshalltaxandbusiness.com.au/
Park Street,Kilpatrick Lake Mackenzie P/L,AU,daniel@klmaccountants.com.au,02 4908 0400,2290,NSW,Charlestown,http://www.klmaccountants.com.au
Hopetoun Street,PDH Accounting Services Pty Ltd,AU,admin@pdhaccounting.com.au,02 49434475,2290,NSW,Charlestown,http://pdhaccounting.com.au/
Frederick Street,G Buckton,AU,bucktongr@yahoo.com.au,02 49659059,2280,NSW,Valentine,
Seppelt Close,Jenni Thompson,AU,jennilthompson@bigpond.com,0438450066,2282,NSW,Eleebana,
Wyndham Way,Bullet Business Services Pty Ltd,AU,,02 49461800,2282,NSW,Eleebana,
Jonathan Street,Emcaw nominees Pty Ltd ATF Emcaw Trust T/As FinBiz Advisers,AU,annette@finbiz.com.au,0249471668,2282,NSW,Warners Bay,http://www.finbiz.com.au
Jonathan Street,Shane McGrath Accountant,AU,shane@smacc.com.au,02 49468409,2282,NSW,Warners Bay,http://smacc.com.au
Schroder Avenue,McCallum Partners Pty Ltd,AU,ian@mccallumpartners.com.au,0448870234,2290,NSW,Gateshead,http://www.mccallumpartners.com.au/
Beryl Street,Michelle Jardine,AU,Michelle.jardine@live.com.au,0422124444,2282,NSW,Warners Bay,
Park Street,Kilpatrick Lake Mackenzie P/L,AU,daniel@klmaccountants.com.au,02 4908 0400,2290,NSW,Charlestown,http://www.klmaccountants.com.au
Henry Street,Neil Marshall Tax and Business Advice PTY LTD,AU,marshallnw@bigpond.com,02 4945 1395,2280,NSW,Belmont,http://www.neilmarshalltaxandbusiness.com.au/
Frederick Street,G Buckton,AU,bucktongr@yahoo.com.au,02 49659059,2280,NSW,Valentine,
Hopetoun Street,PDH Accounting Services Pty Ltd,AU,admin@pdhaccounting.com.au,02 49434475,2290,NSW,Charlestown,http://pdhaccounting.com.au/
Schroder Avenue,McCallum Partners Pty Ltd,AU,ian@mccallumpartners.com.au,0448870234,2290,NSW,Gateshead,http://www.mccallumpartners.com.au/
Hopetoun Street,PDH Accounting Services Pty Ltd,AU,admin@pdhaccounting.com.au,02 49434475,2290,NSW,Charlestown,http://pdhaccounting.com.au/
Park Street,Kilpatrick Lake Mackenzie P/L,AU,daniel@klmaccountants.com.au,02 4908 0400,2290,NSW,Charlestown,http://www.klmaccountants.com.au
Park Avenue,Delia Scopulovic,AU,dscopulovic@exemail.com.au,0412491030,2289,NSW,Kotara,
Gosford Road,Triple L Services,AU,tripleLservicesau@gmail.com,0431195000,2289,NSW,Adamstown,
Watkins Street,CM Hewitt and Associates Pty Ltd Chartered Accountants,AU,emily@cmhewitt.com.au,02 49400255,2291,NSW,The Junction,http://www.cmhewitt.com.au
Watkins Street,H & M Accountants Pty Ltd,AU,philippe@hmaccountants.com.au,02 49622088,2291,NSW,The Junction,http://www.hmaccountants.com.au
Kemp Street,Bellcorp Accountants,AU,erminio@adorantibell.com.au,02 49622440,2291,NSW,The Junction,https://adorantibell.com.au/
Parry Street,Growthwise Pty Ltd,AU,accounts@growthwise.com.au,61402083684,2300,NSW,Newcastle West,http://www.growthwise.com.au
Arnott Street,Shane Roxby Accountants,AU,,0249264499,2302,NSW,Cooks Hill,http://www.roxby.com.au
Dick Street,Rethink Accounting Pty Ltd,AU,craig@rethinkfinancial.com.au,02 4962 4440,2302,NSW,Newcastle West,http://www.rethinkfinancial.com.au
Hunter Street,Thomas Fahey - Accountants,AU,darvalt@thomfahey.com.au,02 49293331,2302,NSW,Newcastle West,
Murray Street,Rees Pritchard Pty Limited,AU,mail@reespritchard.com.au,02 49202877,2303,NSW,Hamilton,http://www.pritchards.com.au/
Hunter Street,Ken Archer & Associates,AU,kenarcher@ozemail.com.au,0428494144,2302,NSW,Newcastle West,
James Street,Hamilton Taggart Business Advisors,AU,melanie@hamiltontaggart.com.au,02 4962 2022,2303,NSW,Hamilton,http://www.hamiltontaggart.com.au
James Street,Real Balance Business Consulting,AU,craig.whitton@realbalance.com.au,02 49421839,2303,NSW,Hamilton,http://realbalance.com.au/
Denison Street,Bentleys Newcastle Pty Ltd,AU,admin@newc.bentleys.com.au,02 49406100,2292,NSW,Broadmeadow,http://www.bentleys.com.au
Awaba Road,Super Auditors Pty Ltd,AU,jean@superauditors.com.au,1300 738 288,2292,NSW,Broadmeadow,www.superauditors.com.au
Gosford Road,Triple L Services,AU,tripleLservicesau@gmail.com,0431195000,2289,NSW,Adamstown,
,Taggart Partners,AU,ross@taggart.com.au,02 4962 2022,2303,NSW,Hamilton,http://www.taggart.com.au
Heddon Road,Pivotal Accounting,AU,grant@pivotalaccounting.com.au,,2292,NSW,Broadmeadow,http://www.pivotalaccounting.com.au/
Hudson Street,Lambourne Partners,AU,mail@lambourne.com.au,02 49696600,2303,NSW,Hamilton,http://www.lambourne.com.au
Hunter Street,N R Allen,AU,nallen@allsupport.com.au,02 49294747,2300,NSW,Newcastle,
Hunter Street,Perry Ure Pty Ltd,AU,jure@perryure.com.au,02 49264522,2300,NSW,Newcastle,http://
Bolton Street,Jirsch Sutherland,AU,bradd@jirschsutherland.com.au,02 49656500,2300,NSW,Newcastle,http://www.jirschsutherland.com.au
Ailsa Road,Millenium Accountancy Pty Ltd,AU,francis@milacc.com.au,02 49614442,2292,NSW,Broadmeadow,http://milacc.com.au/
King Street,John W Hopton Pty Ltd,AU,john@johnwhopton.com.au,02 49291414,2300,NSW,Newcastle,http://www.johnwhopton.com.au/
Park Avenue,Delia Scopulovic,AU,dscopulovic@exemail.com.au,0412491030,2289,NSW,Kotara,
Gosford Road,Triple L Services,AU,tripleLservicesau@gmail.com,0431195000,2289,NSW,Adamstown,
Awaba Road,Super Auditors Pty Ltd,AU,jean@superauditors.com.au,1300 738 288,2292,NSW,Broadmeadow,www.superauditors.com.au
Watkins Street,CM Hewitt and Associates Pty Ltd Chartered Accountants,AU,emily@cmhewitt.com.au,02 49400255,2291,NSW,The Junction,http://www.cmhewitt.com.au
Watkins Street,H & M Accountants Pty Ltd,AU,philippe@hmaccountants.com.au,02 49622088,2291,NSW,The Junction,http://www.hmaccountants.com.au
Park Avenue,Delia Scopulovic,AU,dscopulovic@exemail.com.au,0412491030,2289,NSW,Kotara,
Denison Street,Bentleys Newcastle Pty Ltd,AU,admin@newc.bentleys.com.au,02 49406100,2292,NSW,Broadmeadow,http://www.bentleys.com.au
Heddon Road,Pivotal Accounting,AU,grant@pivotalaccounting.com.au,,2292,NSW,Broadmeadow,http://www.pivotalaccounting.com.au/
Kemp Street,Bellcorp Accountants,AU,erminio@adorantibell.com.au,02 49622440,2291,NSW,The Junction,https://adorantibell.com.au/
Murray Street,Rees Pritchard Pty Limited,AU,mail@reespritchard.com.au,02 49202877,2303,NSW,Hamilton,http://www.pritchards.com.au/
James Street,Hamilton Taggart Business Advisors,AU,melanie@hamiltontaggart.com.au,02 4962 2022,2303,NSW,Hamilton,http://www.hamiltontaggart.com.au
James Street,Real Balance Business Consulting,AU,craig.whitton@realbalance.com.au,02 49421839,2303,NSW,Hamilton,http://realbalance.com.au/
,Taggart Partners,AU,ross@taggart.com.au,02 4962 2022,2303,NSW,Hamilton,http://www.taggart.com.au
Ailsa Road,Millenium Accountancy Pty Ltd,AU,francis@milacc.com.au,02 49614442,2292,NSW,Broadmeadow,http://milacc.com.au/
Hudson Street,Lambourne Partners,AU,mail@lambourne.com.au,02 49696600,2303,NSW,Hamilton,http://www.lambourne.com.au
Hopetoun Street,PDH Accounting Services Pty Ltd,AU,admin@pdhaccounting.com.au,02 49434475,2290,NSW,Charlestown,http://pdhaccounting.com.au/
Park Street,Kilpatrick Lake Mackenzie P/L,AU,daniel@klmaccountants.com.au,02 4908 0400,2290,NSW,Charlestown,http://www.klmaccountants.com.au
Schroder Avenue,McCallum Partners Pty Ltd,AU,ian@mccallumpartners.com.au,0448870234,2290,NSW,Gateshead,http://www.mccallumpartners.com.au/
Kemp Street,Bellcorp Accountants,AU,erminio@adorantibell.com.au,02 49622440,2291,NSW,The Junction,https://adorantibell.com.au/
Watkins Street,CM Hewitt and Associates Pty Ltd Chartered Accountants,AU,emily@cmhewitt.com.au,02 49400255,2291,NSW,The Junction,http://www.cmhewitt.com.au
Watkins Street,H & M Accountants Pty Ltd,AU,philippe@hmaccountants.com.au,02 49622088,2291,NSW,The Junction,http://www.hmaccountants.com.au
Arnott Street,Shane Roxby Accountants,AU,,0249264499,2302,NSW,Cooks Hill,http://www.roxby.com.au
Dick Street,Rethink Accounting Pty Ltd,AU,craig@rethinkfinancial.com.au,02 4962 4440,2302,NSW,Newcastle West,http://www.rethinkfinancial.com.au
Parry Street,Growthwise Pty Ltd,AU,accounts@growthwise.com.au,61402083684,2300,NSW,Newcastle West,http://www.growthwise.com.au
Hunter Street,Ken Archer & Associates,AU,kenarcher@ozemail.com.au,0428494144,2302,NSW,Newcastle West,
Hunter Street,Thomas Fahey - Accountants,AU,darvalt@thomfahey.com.au,02 49293331,2302,NSW,Newcastle West,
Murray Street,Rees Pritchard Pty Limited,AU,mail@reespritchard.com.au,02 49202877,2303,NSW,Hamilton,http://www.pritchards.com.au/
James Street,Hamilton Taggart Business Advisors,AU,melanie@hamiltontaggart.com.au,02 4962 2022,2303,NSW,Hamilton,http://www.hamiltontaggart.com.au
James Street,Real Balance Business Consulting,AU,craig.whitton@realbalance.com.au,02 49421839,2303,NSW,Hamilton,http://realbalance.com.au/
Hunter Street,N R Allen,AU,nallen@allsupport.com.au,02 49294747,2300,NSW,Newcastle,
Hunter Street,Perry Ure Pty Ltd,AU,jure@perryure.com.au,02 49264522,2300,NSW,Newcastle,http://
,Taggart Partners,AU,ross@taggart.com.au,02 4962 2022,2303,NSW,Hamilton,http://www.taggart.com.au
Bolton Street,Jirsch Sutherland,AU,bradd@jirschsutherland.com.au,02 49656500,2300,NSW,Newcastle,http://www.jirschsutherland.com.au
King Street,John W Hopton Pty Ltd,AU,john@johnwhopton.com.au,02 49291414,2300,NSW,Newcastle,http://www.johnwhopton.com.au/
,Quest Financial Group Pty Limited,AU,mail@achievefinancial.com.au,61249696266,2294,NSW,Carrington,http://www.achievefinancial.com.au
Hudson Street,Lambourne Partners,AU,mail@lambourne.com.au,02 49696600,2303,NSW,Hamilton,http://www.lambourne.com.au
Denison Street,Bentleys Newcastle Pty Ltd,AU,admin@newc.bentleys.com.au,02 49406100,2292,NSW,Broadmeadow,http://www.bentleys.com.au
Heddon Road,Pivotal Accounting,AU,grant@pivotalaccounting.com.au,,2292,NSW,Broadmeadow,http://www.pivotalaccounting.com.au/
Awaba Road,Super Auditors Pty Ltd,AU,jean@superauditors.com.au,1300 738 288,2292,NSW,Broadmeadow,www.superauditors.com.au
James Street,Hamilton Taggart Business Advisors,AU,melanie@hamiltontaggart.com.au,02 4962 2022,2303,NSW,Hamilton,http://www.hamiltontaggart.com.au
James Street,Real Balance Business Consulting,AU,craig.whitton@realbalance.com.au,02 49421839,2303,NSW,Hamilton,http://realbalance.com.au/
Ailsa Road,Millenium Accountancy Pty Ltd,AU,francis@milacc.com.au,02 49614442,2292,NSW,Broadmeadow,http://milacc.com.au/
Hudson Street,Lambourne Partners,AU,mail@lambourne.com.au,02 49696600,2303,NSW,Hamilton,http://www.lambourne.com.au
Murray Street,Rees Pritchard Pty Limited,AU,mail@reespritchard.com.au,02 49202877,2303,NSW,Hamilton,http://www.pritchards.com.au/
,Taggart Partners,AU,ross@taggart.com.au,02 4962 2022,2303,NSW,Hamilton,http://www.taggart.com.au
Gosford Road,Triple L Services,AU,tripleLservicesau@gmail.com,0431195000,2289,NSW,Adamstown,
Lambton Road,Visionary Accountants,AU,contact@visionaryaccountants.com.au,0249671268,2305,NSW,New Lambton,http://www.visionaryaccountants.com.au
Parry Street,Growthwise Pty Ltd,AU,accounts@growthwise.com.au,61402083684,2300,NSW,Newcastle West,http://www.growthwise.com.au
Hunter Street,Thomas Fahey - Accountants,AU,darvalt@thomfahey.com.au,02 49293331,2302,NSW,Newcastle West,
Kemp Street,Bellcorp Accountants,AU,erminio@adorantibell.com.au,02 49622440,2291,NSW,The Junction,https://adorantibell.com.au/
Dick Street,Rethink Accounting Pty Ltd,AU,craig@rethinkfinancial.com.au,02 4962 4440,2302,NSW,Newcastle West,http://www.rethinkfinancial.com.au
Arnott Street,Shane Roxby Accountants,AU,,0249264499,2302,NSW,Cooks Hill,http://www.roxby.com.au
Watkins Street,CM Hewitt and Associates Pty Ltd Chartered Accountants,AU,emily@cmhewitt.com.au,02 49400255,2291,NSW,The Junction,http://www.cmhewitt.com.au
Watkins Street,H & M Accountants Pty Ltd,AU,philippe@hmaccountants.com.au,02 49622088,2291,NSW,The Junction,http://www.hmaccountants.com.au
Hunter Street,Ken Archer & Associates,AU,kenarcher@ozemail.com.au,0428494144,2302,NSW,Newcastle West,
Maitland Road,Hunter Accounting Services Pty Ltd,AU,marco@hunteraccounting.com.au,02 49681740,2304,NSW,Mayfield,http://www.hunteraccounting.com.au
Maitland Road,Miles Investments Pty Ltd,AU,adrian@ajwmilesandson.com.au,02 49672699,2304,NSW,Mayfield,
Park Avenue,Delia Scopulovic,AU,dscopulovic@exemail.com.au,0412491030,2289,NSW,Kotara,
Hunter Street,N R Allen,AU,nallen@allsupport.com.au,02 49294747,2300,NSW,Newcastle,
Hunter Street,Perry Ure Pty Ltd,AU,jure@perryure.com.au,02 49264522,2300,NSW,Newcastle,http://
Bolton Street,Jirsch Sutherland,AU,bradd@jirschsutherland.com.au,02 49656500,2300,NSW,Newcastle,http://www.jirschsutherland.com.au
King Street,John W Hopton Pty Ltd,AU,john@johnwhopton.com.au,02 49291414,2300,NSW,Newcastle,http://www.johnwhopton.com.au/
Angophora Drive,iPacific Accountant Pty Ltd,AU,,,2304,NSW,Warabrook,
Hudson Street,Lambourne Partners,AU,mail@lambourne.com.au,02 49696600,2303,NSW,Hamilton,http://www.lambourne.com.au
Ailsa Road,Millenium Accountancy Pty Ltd,AU,francis@milacc.com.au,02 49614442,2292,NSW,Broadmeadow,http://milacc.com.au/
,Taggart Partners,AU,ross@taggart.com.au,02 4962 2022,2303,NSW,Hamilton,http://www.taggart.com.au
James Street,Hamilton Taggart Business Advisors,AU,melanie@hamiltontaggart.com.au,02 4962 2022,2303,NSW,Hamilton,http://www.hamiltontaggart.com.au
James Street,Real Balance Business Consulting,AU,craig.whitton@realbalance.com.au,02 49421839,2303,NSW,Hamilton,http://realbalance.com.au/
Denison Street,Bentleys Newcastle Pty Ltd,AU,admin@newc.bentleys.com.au,02 49406100,2292,NSW,Broadmeadow,http://www.bentleys.com.au
Heddon Road,Pivotal Accounting,AU,grant@pivotalaccounting.com.au,,2292,NSW,Broadmeadow,http://www.pivotalaccounting.com.au/
Murray Street,Rees Pritchard Pty Limited,AU,mail@reespritchard.com.au,02 49202877,2303,NSW,Hamilton,http://www.pritchards.com.au/
Maitland Road,Hunter Accounting Services Pty Ltd,AU,marco@hunteraccounting.com.au,02 49681740,2304,NSW,Mayfield,http://www.hunteraccounting.com.au
Awaba Road,Super Auditors Pty Ltd,AU,jean@superauditors.com.au,1300 738 288,2292,NSW,Broadmeadow,www.superauditors.com.au
Maitland Road,Miles Investments Pty Ltd,AU,adrian@ajwmilesandson.com.au,02 49672699,2304,NSW,Mayfield,
,Quest Financial Group Pty Limited,AU,mail@achievefinancial.com.au,61249696266,2294,NSW,Carrington,http://www.achievefinancial.com.au
Hunter Street,Thomas Fahey - Accountants,AU,darvalt@thomfahey.com.au,02 49293331,2302,NSW,Newcastle West,
Howe Street,G C Accountants Pty Ltd,AU,mail@gcaccountants.com.au,02 49561640,2299,NSW,Lambton,http://www.gcaccountants.com.au
Dick Street,Rethink Accounting Pty Ltd,AU,craig@rethinkfinancial.com.au,02 4962 4440,2302,NSW,Newcastle West,http://www.rethinkfinancial.com.au
Hunter Street,Ken Archer & Associates,AU,kenarcher@ozemail.com.au,0428494144,2302,NSW,Newcastle West,
Arnott Street,Shane Roxby Accountants,AU,,0249264499,2302,NSW,Cooks Hill,http://www.roxby.com.au
Angophora Drive,iPacific Accountant Pty Ltd,AU,,,2304,NSW,Warabrook,
,Taggart Partners,AU,ross@taggart.com.au,02 4962 2022,2303,NSW,Hamilton,http://www.taggart.com.au
,Quest Financial Group Pty Limited,AU,mail@achievefinancial.com.au,61249696266,2294,NSW,Carrington,http://www.achievefinancial.com.au
Hudson Street,Lambourne Partners,AU,mail@lambourne.com.au,02 49696600,2303,NSW,Hamilton,http://www.lambourne.com.au
James Street,Hamilton Taggart Business Advisors,AU,melanie@hamiltontaggart.com.au,02 4962 2022,2303,NSW,Hamilton,http://www.hamiltontaggart.com.au
James Street,Real Balance Business Consulting,AU,craig.whitton@realbalance.com.au,02 49421839,2303,NSW,Hamilton,http://realbalance.com.au/
Murray Street,Rees Pritchard Pty Limited,AU,mail@reespritchard.com.au,02 49202877,2303,NSW,Hamilton,http://www.pritchards.com.au/
Hunter Street,Thomas Fahey - Accountants,AU,darvalt@thomfahey.com.au,02 49293331,2302,NSW,Newcastle West,
Parry Street,Growthwise Pty Ltd,AU,accounts@growthwise.com.au,61402083684,2300,NSW,Newcastle West,http://www.growthwise.com.au
Maitland Road,Hunter Accounting Services Pty Ltd,AU,marco@hunteraccounting.com.au,02 49681740,2304,NSW,Mayfield,http://www.hunteraccounting.com.au
Denison Street,Bentleys Newcastle Pty Ltd,AU,admin@newc.bentleys.com.au,02 49406100,2292,NSW,Broadmeadow,http://www.bentleys.com.au
Hunter Street,Ken Archer & Associates,AU,kenarcher@ozemail.com.au,0428494144,2302,NSW,Newcastle West,
Ailsa Road,Millenium Accountancy Pty Ltd,AU,francis@milacc.com.au,02 49614442,2292,NSW,Broadmeadow,http://milacc.com.au/
Dick Street,Rethink Accounting Pty Ltd,AU,craig@rethinkfinancial.com.au,02 4962 4440,2302,NSW,Newcastle West,http://www.rethinkfinancial.com.au
Arnott Street,Shane Roxby Accountants,AU,,0249264499,2302,NSW,Cooks Hill,http://www.roxby.com.au
Heddon Road,Pivotal Accounting,AU,grant@pivotalaccounting.com.au,,2292,NSW,Broadmeadow,http://www.pivotalaccounting.com.au/
Maitland Road,Miles Investments Pty Ltd,AU,adrian@ajwmilesandson.com.au,02 49672699,2304,NSW,Mayfield,
Awaba Road,Super Auditors Pty Ltd,AU,jean@superauditors.com.au,1300 738 288,2292,NSW,Broadmeadow,www.superauditors.com.au
Kemp Street,Bellcorp Accountants,AU,erminio@adorantibell.com.au,02 49622440,2291,NSW,The Junction,https://adorantibell.com.au/
Hunter Street,N R Allen,AU,nallen@allsupport.com.au,02 49294747,2300,NSW,Newcastle,
Hunter Street,Perry Ure Pty Ltd,AU,jure@perryure.com.au,02 49264522,2300,NSW,Newcastle,http://
Watkins Street,CM Hewitt and Associates Pty Ltd Chartered Accountants,AU,emily@cmhewitt.com.au,02 49400255,2291,NSW,The Junction,http://www.cmhewitt.com.au
Watkins Street,H & M Accountants Pty Ltd,AU,philippe@hmaccountants.com.au,02 49622088,2291,NSW,The Junction,http://www.hmaccountants.com.au
Bolton Street,Jirsch Sutherland,AU,bradd@jirschsutherland.com.au,02 49656500,2300,NSW,Newcastle,http://www.jirschsutherland.com.au
King Street,John W Hopton Pty Ltd,AU,john@johnwhopton.com.au,02 49291414,2300,NSW,Newcastle,http://www.johnwhopton.com.au/
Angophora Drive,iPacific Accountant Pty Ltd,AU,,,2304,NSW,Warabrook,
Hunter Street,Thomas Fahey - Accountants,AU,darvalt@thomfahey.com.au,02 49293331,2302,NSW,Newcastle West,
Parry Street,Growthwise Pty Ltd,AU,accounts@growthwise.com.au,61402083684,2300,NSW,Newcastle West,http://www.growthwise.com.au
,Quest Financial Group Pty Limited,AU,mail@achievefinancial.com.au,61249696266,2294,NSW,Carrington,http://www.achievefinancial.com.au
Hunter Street,Ken Archer & Associates,AU,kenarcher@ozemail.com.au,0428494144,2302,NSW,Newcastle West,
Dick Street,Rethink Accounting Pty Ltd,AU,craig@rethinkfinancial.com.au,02 4962 4440,2302,NSW,Newcastle West,http://www.rethinkfinancial.com.au
Arnott Street,Shane Roxby Accountants,AU,,0249264499,2302,NSW,Cooks Hill,http://www.roxby.com.au
,Taggart Partners,AU,ross@taggart.com.au,02 4962 2022,2303,NSW,Hamilton,http://www.taggart.com.au
Murray Street,Rees Pritchard Pty Limited,AU,mail@reespritchard.com.au,02 49202877,2303,NSW,Hamilton,http://www.pritchards.com.au/
James Street,Hamilton Taggart Business Advisors,AU,melanie@hamiltontaggart.com.au,02 4962 2022,2303,NSW,Hamilton,http://www.hamiltontaggart.com.au
James Street,Real Balance Business Consulting,AU,craig.whitton@realbalance.com.au,02 49421839,2303,NSW,Hamilton,http://realbalance.com.au/
Hudson Street,Lambourne Partners,AU,mail@lambourne.com.au,02 49696600,2303,NSW,Hamilton,http://www.lambourne.com.au
Kemp Street,Bellcorp Accountants,AU,erminio@adorantibell.com.au,02 49622440,2291,NSW,The Junction,https://adorantibell.com.au/
Hunter Street,N R Allen,AU,nallen@allsupport.com.au,02 49294747,2300,NSW,Newcastle,
Hunter Street,Perry Ure Pty Ltd,AU,jure@perryure.com.au,02 49264522,2300,NSW,Newcastle,http://
Watkins Street,CM Hewitt and Associates Pty Ltd Chartered Accountants,AU,emily@cmhewitt.com.au,02 49400255,2291,NSW,The Junction,http://www.cmhewitt.com.au
Watkins Street,H & M Accountants Pty Ltd,AU,philippe@hmaccountants.com.au,02 49622088,2291,NSW,The Junction,http://www.hmaccountants.com.au
Denison Street,Bentleys Newcastle Pty Ltd,AU,admin@newc.bentleys.com.au,02 49406100,2292,NSW,Broadmeadow,http://www.bentleys.com.au
Bolton Street,Jirsch Sutherland,AU,bradd@jirschsutherland.com.au,02 49656500,2300,NSW,Newcastle,http://www.jirschsutherland.com.au
King Street,John W Hopton Pty Ltd,AU,john@johnwhopton.com.au,02 49291414,2300,NSW,Newcastle,http://www.johnwhopton.com.au/
Heddon Road,Pivotal Accounting,AU,grant@pivotalaccounting.com.au,,2292,NSW,Broadmeadow,http://www.pivotalaccounting.com.au/
Awaba Road,Super Auditors Pty Ltd,AU,jean@superauditors.com.au,1300 738 288,2292,NSW,Broadmeadow,www.superauditors.com.au
Ailsa Road,Millenium Accountancy Pty Ltd,AU,francis@milacc.com.au,02 49614442,2292,NSW,Broadmeadow,http://milacc.com.au/
Maitland Road,Hunter Accounting Services Pty Ltd,AU,marco@hunteraccounting.com.au,02 49681740,2304,NSW,Mayfield,http://www.hunteraccounting.com.au
Maitland Road,Miles Investments Pty Ltd,AU,adrian@ajwmilesandson.com.au,02 49672699,2304,NSW,Mayfield,
Angophora Drive,iPacific Accountant Pty Ltd,AU,,,2304,NSW,Warabrook,
,Quest Financial Group Pty Limited,AU,mail@achievefinancial.com.au,61249696266,2294,NSW,Carrington,http://www.achievefinancial.com.au
Hunter Street,Thomas Fahey - Accountants,AU,darvalt@thomfahey.com.au,02 49293331,2302,NSW,Newcastle West,
Hunter Street,Ken Archer & Associates,AU,kenarcher@ozemail.com.au,0428494144,2302,NSW,Newcastle West,
Parry Street,Growthwise Pty Ltd,AU,accounts@growthwise.com.au,61402083684,2300,NSW,Newcastle West,http://www.growthwise.com.au
Dick Street,Rethink Accounting Pty Ltd,AU,craig@rethinkfinancial.com.au,02 4962 4440,2302,NSW,Newcastle West,http://www.rethinkfinancial.com.au
Arnott Street,Shane Roxby Accountants,AU,,0249264499,2302,NSW,Cooks Hill,http://www.roxby.com.au
,Taggart Partners,AU,ross@taggart.com.au,02 4962 2022,2303,NSW,Hamilton,http://www.taggart.com.au
Hunter Street,N R Allen,AU,nallen@allsupport.com.au,02 49294747,2300,NSW,Newcastle,
Hunter Street,Perry Ure Pty Ltd,AU,jure@perryure.com.au,02 49264522,2300,NSW,Newcastle,http://
Murray Street,Rees Pritchard Pty Limited,AU,mail@reespritchard.com.au,02 49202877,2303,NSW,Hamilton,http://www.pritchards.com.au/
James Street,Hamilton Taggart Business Advisors,AU,melanie@hamiltontaggart.com.au,02 4962 2022,2303,NSW,Hamilton,http://www.hamiltontaggart.com.au
James Street,Real Balance Business Consulting,AU,craig.whitton@realbalance.com.au,02 49421839,2303,NSW,Hamilton,http://realbalance.com.au/
Hudson Street,Lambourne Partners,AU,mail@lambourne.com.au,02 49696600,2303,NSW,Hamilton,http://www.lambourne.com.au
Bolton Street,Jirsch Sutherland,AU,bradd@jirschsutherland.com.au,02 49656500,2300,NSW,Newcastle,http://www.jirschsutherland.com.au
King Street,John W Hopton Pty Ltd,AU,john@johnwhopton.com.au,02 49291414,2300,NSW,Newcastle,http://www.johnwhopton.com.au/
Kemp Street,Bellcorp Accountants,AU,erminio@adorantibell.com.au,02 49622440,2291,NSW,The Junction,https://adorantibell.com.au/
Watkins Street,CM Hewitt and Associates Pty Ltd Chartered Accountants,AU,emily@cmhewitt.com.au,02 49400255,2291,NSW,The Junction,http://www.cmhewitt.com.au
Watkins Street,H & M Accountants Pty Ltd,AU,philippe@hmaccountants.com.au,02 49622088,2291,NSW,The Junction,http://www.hmaccountants.com.au
Denison Street,Bentleys Newcastle Pty Ltd,AU,admin@newc.bentleys.com.au,02 49406100,2292,NSW,Broadmeadow,http://www.bentleys.com.au
Heddon Road,Pivotal Accounting,AU,grant@pivotalaccounting.com.au,,2292,NSW,Broadmeadow,http://www.pivotalaccounting.com.au/
Ailsa Road,Millenium Accountancy Pty Ltd,AU,francis@milacc.com.au,02 49614442,2292,NSW,Broadmeadow,http://milacc.com.au/
Maitland Road,Hunter Accounting Services Pty Ltd,AU,marco@hunteraccounting.com.au,02 49681740,2304,NSW,Mayfield,http://www.hunteraccounting.com.au
Awaba Road,Super Auditors Pty Ltd,AU,jean@superauditors.com.au,1300 738 288,2292,NSW,Broadmeadow,www.superauditors.com.au
Maitland Road,Miles Investments Pty Ltd,AU,adrian@ajwmilesandson.com.au,02 49672699,2304,NSW,Mayfield,
Angophora Drive,iPacific Accountant Pty Ltd,AU,,,2304,NSW,Warabrook,
,Quest Financial Group Pty Limited,AU,mail@achievefinancial.com.au,61249696266,2294,NSW,Carrington,http://www.achievefinancial.com.au
Maitland Road,Miles Investments Pty Ltd,AU,adrian@ajwmilesandson.com.au,02 49672699,2304,NSW,Mayfield,
Maitland Road,Hunter Accounting Services Pty Ltd,AU,marco@hunteraccounting.com.au,02 49681740,2304,NSW,Mayfield,http://www.hunteraccounting.com.au
Hunter Street,N R Allen,AU,nallen@allsupport.com.au,02 49294747,2300,NSW,Newcastle,
Hunter Street,Perry Ure Pty Ltd,AU,jure@perryure.com.au,02 49264522,2300,NSW,Newcastle,http://
King Street,John W Hopton Pty Ltd,AU,john@johnwhopton.com.au,02 49291414,2300,NSW,Newcastle,http://www.johnwhopton.com.au/
Bolton Street,Jirsch Sutherland,AU,bradd@jirschsutherland.com.au,02 49656500,2300,NSW,Newcastle,http://www.jirschsutherland.com.au
Angophora Drive,iPacific Accountant Pty Ltd,AU,,,2304,NSW,Warabrook,
Parry Street,Growthwise Pty Ltd,AU,accounts@growthwise.com.au,61402083684,2300,NSW,Newcastle West,http://www.growthwise.com.au
Forsythe Parade,P A Clulow,AU,phil.clulow@revtax.com.au,02 49665982,2322,NSW,Black Hill,
Hunter Street,N R Allen,AU,nallen@allsupport.com.au,02 49294747,2300,NSW,Newcastle,
Hunter Street,Perry Ure Pty Ltd,AU,jure@perryure.com.au,02 49264522,2300,NSW,Newcastle,http://
King Street,John W Hopton Pty Ltd,AU,john@johnwhopton.com.au,02 49291414,2300,NSW,Newcastle,http://www.johnwhopton.com.au/
Bolton Street,Jirsch Sutherland,AU,bradd@jirschsutherland.com.au,02 49656500,2300,NSW,Newcastle,http://www.jirschsutherland.com.au
,Quest Financial Group Pty Limited,AU,mail@achievefinancial.com.au,61249696266,2294,NSW,Carrington,http://www.achievefinancial.com.au
Hunter Street,Ken Archer & Associates,AU,kenarcher@ozemail.com.au,0428494144,2302,NSW,Newcastle West,
Hunter Street,Thomas Fahey - Accountants,AU,darvalt@thomfahey.com.au,02 49293331,2302,NSW,Newcastle West,
Dick Street,Rethink Accounting Pty Ltd,AU,craig@rethinkfinancial.com.au,02 4962 4440,2302,NSW,Newcastle West,http://www.rethinkfinancial.com.au
Arnott Street,Shane Roxby Accountants,AU,,0249264499,2302,NSW,Cooks Hill,http://www.roxby.com.au
Parry Street,Growthwise Pty Ltd,AU,accounts@growthwise.com.au,61402083684,2300,NSW,Newcastle West,http://www.growthwise.com.au
Hudson Street,Lambourne Partners,AU,mail@lambourne.com.au,02 49696600,2303,NSW,Hamilton,http://www.lambourne.com.au
,Taggart Partners,AU,ross@taggart.com.au,02 4962 2022,2303,NSW,Hamilton,http://www.taggart.com.au
James Street,Hamilton Taggart Business Advisors,AU,melanie@hamiltontaggart.com.au,02 4962 2022,2303,NSW,Hamilton,http://www.hamiltontaggart.com.au
James Street,Real Balance Business Consulting,AU,craig.whitton@realbalance.com.au,02 49421839,2303,NSW,Hamilton,http://realbalance.com.au/
Murray Street,Rees Pritchard Pty Limited,AU,mail@reespritchard.com.au,02 49202877,2303,NSW,Hamilton,http://www.pritchards.com.au/
Ailsa Road,Millenium Accountancy Pty Ltd,AU,francis@milacc.com.au,02 49614442,2292,NSW,Broadmeadow,http://milacc.com.au/
Denison Street,Bentleys Newcastle Pty Ltd,AU,admin@newc.bentleys.com.au,02 49406100,2292,NSW,Broadmeadow,http://www.bentleys.com.au
Maitland Road,Hunter Accounting Services Pty Ltd,AU,marco@hunteraccounting.com.au,02 49681740,2304,NSW,Mayfield,http://www.hunteraccounting.com.au
Heddon Road,Pivotal Accounting,AU,grant@pivotalaccounting.com.au,,2292,NSW,Broadmeadow,http://www.pivotalaccounting.com.au/
,Quest Financial Group Pty Limited,AU,mail@achievefinancial.com.au,61249696266,2294,NSW,Carrington,http://www.achievefinancial.com.au
Maitland Road,Miles Investments Pty Ltd,AU,adrian@ajwmilesandson.com.au,02 49672699,2304,NSW,Mayfield,
Awaba Road,Super Auditors Pty Ltd,AU,jean@superauditors.com.au,1300 738 288,2292,NSW,Broadmeadow,www.superauditors.com.au
Hunter Street,Thomas Fahey - Accountants,AU,darvalt@thomfahey.com.au,02 49293331,2302,NSW,Newcastle West,
Hunter Street,Ken Archer & Associates,AU,kenarcher@ozemail.com.au,0428494144,2302,NSW,Newcastle West,
Dick Street,Rethink Accounting Pty Ltd,AU,craig@rethinkfinancial.com.au,02 4962 4440,2302,NSW,Newcastle West,http://www.rethinkfinancial.com.au
Arnott Street,Shane Roxby Accountants,AU,,0249264499,2302,NSW,Cooks Hill,http://www.roxby.com.au
Angophora Drive,iPacific Accountant Pty Ltd,AU,,,2304,NSW,Warabrook,
Hudson Street,Lambourne Partners,AU,mail@lambourne.com.au,02 49696600,2303,NSW,Hamilton,http://www.lambourne.com.au
,Taggart Partners,AU,ross@taggart.com.au,02 4962 2022,2303,NSW,Hamilton,http://www.taggart.com.au
,Quest Financial Group Pty Limited,AU,mail@achievefinancial.com.au,61249696266,2294,NSW,Carrington,http://www.achievefinancial.com.au
Maitland Road,Hunter Accounting Services Pty Ltd,AU,marco@hunteraccounting.com.au,02 49681740,2304,NSW,Mayfield,http://www.hunteraccounting.com.au
James Street,Hamilton Taggart Business Advisors,AU,melanie@hamiltontaggart.com.au,02 4962 2022,2303,NSW,Hamilton,http://www.hamiltontaggart.com.au
James Street,Real Balance Business Consulting,AU,craig.whitton@realbalance.com.au,02 49421839,2303,NSW,Hamilton,http://realbalance.com.au/
Murray Street,Rees Pritchard Pty Limited,AU,mail@reespritchard.com.au,02 49202877,2303,NSW,Hamilton,http://www.pritchards.com.au/
Maitland Road,Miles Investments Pty Ltd,AU,adrian@ajwmilesandson.com.au,02 49672699,2304,NSW,Mayfield,
Ailsa Road,Millenium Accountancy Pty Ltd,AU,francis@milacc.com.au,02 49614442,2292,NSW,Broadmeadow,http://milacc.com.au/
Hunter Street,Thomas Fahey - Accountants,AU,darvalt@thomfahey.com.au,02 49293331,2302,NSW,Newcastle West,
Denison Street,Bentleys Newcastle Pty Ltd,AU,admin@newc.bentleys.com.au,02 49406100,2292,NSW,Broadmeadow,http://www.bentleys.com.au
Heddon Road,Pivotal Accounting,AU,grant@pivotalaccounting.com.au,,2292,NSW,Broadmeadow,http://www.pivotalaccounting.com.au/
Hunter Street,Ken Archer & Associates,AU,kenarcher@ozemail.com.au,0428494144,2302,NSW,Newcastle West,
Dick Street,Rethink Accounting Pty Ltd,AU,craig@rethinkfinancial.com.au,02 4962 4440,2302,NSW,Newcastle West,http://www.rethinkfinancial.com.au
Awaba Road,Super Auditors Pty Ltd,AU,jean@superauditors.com.au,1300 738 288,2292,NSW,Broadmeadow,www.superauditors.com.au
Arnott Street,Shane Roxby Accountants,AU,,0249264499,2302,NSW,Cooks Hill,http://www.roxby.com.au
Angophora Drive,iPacific Accountant Pty Ltd,AU,,,2304,NSW,Warabrook,
Ailsa Road,Millenium Accountancy Pty Ltd,AU,francis@milacc.com.au,02 49614442,2292,NSW,Broadmeadow,http://milacc.com.au/
Maitland Road,Hunter Accounting Services Pty Ltd,AU,marco@hunteraccounting.com.au,02 49681740,2304,NSW,Mayfield,http://www.hunteraccounting.com.au
Maitland Road,Miles Investments Pty Ltd,AU,adrian@ajwmilesandson.com.au,02 49672699,2304,NSW,Mayfield,
Hudson Street,Lambourne Partners,AU,mail@lambourne.com.au,02 49696600,2303,NSW,Hamilton,http://www.lambourne.com.au
Lambton Road,Visionary Accountants,AU,contact@visionaryaccountants.com.au,0249671268,2305,NSW,New Lambton,http://www.visionaryaccountants.com.au
Heddon Road,Pivotal Accounting,AU,grant@pivotalaccounting.com.au,,2292,NSW,Broadmeadow,http://www.pivotalaccounting.com.au/
Howe Street,G C Accountants Pty Ltd,AU,mail@gcaccountants.com.au,02 49561640,2299,NSW,Lambton,http://www.gcaccountants.com.au
Denison Street,Bentleys Newcastle Pty Ltd,AU,admin@newc.bentleys.com.au,02 49406100,2292,NSW,Broadmeadow,http://www.bentleys.com.au
,Taggart Partners,AU,ross@taggart.com.au,02 4962 2022,2303,NSW,Hamilton,http://www.taggart.com.au
Awaba Road,Super Auditors Pty Ltd,AU,jean@superauditors.com.au,1300 738 288,2292,NSW,Broadmeadow,www.superauditors.com.au
James Street,Hamilton Taggart Business Advisors,AU,melanie@hamiltontaggart.com.au,02 4962 2022,2303,NSW,Hamilton,http://www.hamiltontaggart.com.au
James Street,Real Balance Business Consulting,AU,craig.whitton@realbalance.com.au,02 49421839,2303,NSW,Hamilton,http://realbalance.com.au/
Murray Street,Rees Pritchard Pty Limited,AU,mail@reespritchard.com.au,02 49202877,2303,NSW,Hamilton,http://www.pritchards.com.au/
Angophora Drive,iPacific Accountant Pty Ltd,AU,,,2304,NSW,Warabrook,
Ailsa Road,Millenium Accountancy Pty Ltd,AU,francis@milacc.com.au,02 49614442,2292,NSW,Broadmeadow,http://milacc.com.au/
Maitland Road,Hunter Accounting Services Pty Ltd,AU,marco@hunteraccounting.com.au,02 49681740,2304,NSW,Mayfield,http://www.hunteraccounting.com.au
Maitland Road,Miles Investments Pty Ltd,AU,adrian@ajwmilesandson.com.au,02 49672699,2304,NSW,Mayfield,
Lambton Road,Visionary Accountants,AU,contact@visionaryaccountants.com.au,0249671268,2305,NSW,New Lambton,http://www.visionaryaccountants.com.au
Hudson Street,Lambourne Partners,AU,mail@lambourne.com.au,02 49696600,2303,NSW,Hamilton,http://www.lambourne.com.au
Howe Street,G C Accountants Pty Ltd,AU,mail@gcaccountants.com.au,02 49561640,2299,NSW,Lambton,http://www.gcaccountants.com.au
Heddon Road,Pivotal Accounting,AU,grant@pivotalaccounting.com.au,,2292,NSW,Broadmeadow,http://www.pivotalaccounting.com.au/
Denison Street,Bentleys Newcastle Pty Ltd,AU,admin@newc.bentleys.com.au,02 49406100,2292,NSW,Broadmeadow,http://www.bentleys.com.au
Awaba Road,Super Auditors Pty Ltd,AU,jean@superauditors.com.au,1300 738 288,2292,NSW,Broadmeadow,www.superauditors.com.au
,Taggart Partners,AU,ross@taggart.com.au,02 4962 2022,2303,NSW,Hamilton,http://www.taggart.com.au
James Street,Hamilton Taggart Business Advisors,AU,melanie@hamiltontaggart.com.au,02 4962 2022,2303,NSW,Hamilton,http://www.hamiltontaggart.com.au
James Street,Real Balance Business Consulting,AU,craig.whitton@realbalance.com.au,02 49421839,2303,NSW,Hamilton,http://realbalance.com.au/
Murray Street,Rees Pritchard Pty Limited,AU,mail@reespritchard.com.au,02 49202877,2303,NSW,Hamilton,http://www.pritchards.com.au/
Angophora Drive,iPacific Accountant Pty Ltd,AU,,,2304,NSW,Warabrook,
Howe Street,G C Accountants Pty Ltd,AU,mail@gcaccountants.com.au,02 49561640,2299,NSW,Lambton,http://www.gcaccountants.com.au
Angophora Drive,iPacific Accountant Pty Ltd,AU,,,2304,NSW,Warabrook,
Maitland Road,Miles Investments Pty Ltd,AU,adrian@ajwmilesandson.com.au,02 49672699,2304,NSW,Mayfield,
Maitland Road,Hunter Accounting Services Pty Ltd,AU,marco@hunteraccounting.com.au,02 49681740,2304,NSW,Mayfield,http://www.hunteraccounting.com.au
Ailsa Road,Millenium Accountancy Pty Ltd,AU,francis@milacc.com.au,02 49614442,2292,NSW,Broadmeadow,http://milacc.com.au/
Douglas Street,GC Accountants,AU,garyc@gcaccountants.com.au,02 4956 1640,2287,NSW,Wallsend,http://www.gcaccountants.com.au
Heddon Road,Pivotal Accounting,AU,grant@pivotalaccounting.com.au,,2292,NSW,Broadmeadow,http://www.pivotalaccounting.com.au/
Awaba Road,Super Auditors Pty Ltd,AU,jean@superauditors.com.au,1300 738 288,2292,NSW,Broadmeadow,www.superauditors.com.au
Denison Street,Bentleys Newcastle Pty Ltd,AU,admin@newc.bentleys.com.au,02 49406100,2292,NSW,Broadmeadow,http://www.bentleys.com.au
Virgo Street,Scott Sharp,AU,scottsharp79@gmail.com,0407906978,2287,NSW,Elermore Vale,
Serenity Crescent,Precision Taxation Accounting & Management,AU,peter@ptam.com.au,1300007826,2287,NSW,Fletcher,
Arnott Street,A J Dorse Accounting,AU,ashley@ajdorseaccounting.com.au,(02) 4048 2175,2287,NSW,Edgeworth,http://www.ajdorseaccounting.com.au
Douglas Street,GC Accountants,AU,garyc@gcaccountants.com.au,02 4956 1640,2287,NSW,Wallsend,http://www.gcaccountants.com.au
Howe Street,G C Accountants Pty Ltd,AU,mail@gcaccountants.com.au,02 49561640,2299,NSW,Lambton,http://www.gcaccountants.com.au
Lambton Road,Visionary Accountants,AU,contact@visionaryaccountants.com.au,0249671268,2305,NSW,New Lambton,http://www.visionaryaccountants.com.au
Virgo Street,Scott Sharp,AU,scottsharp79@gmail.com,0407906978,2287,NSW,Elermore Vale,
Serenity Crescent,Precision Taxation Accounting & Management,AU,peter@ptam.com.au,1300007826,2287,NSW,Fletcher,
Arnott Street,A J Dorse Accounting,AU,ashley@ajdorseaccounting.com.au,(02) 4048 2175,2287,NSW,Edgeworth,http://www.ajdorseaccounting.com.au
Howe Street,G C Accountants Pty Ltd,AU,mail@gcaccountants.com.au,02 49561640,2299,NSW,Lambton,http://www.gcaccountants.com.au
Lambton Road,Visionary Accountants,AU,contact@visionaryaccountants.com.au,0249671268,2305,NSW,New Lambton,http://www.visionaryaccountants.com.au
Douglas Street,GC Accountants,AU,garyc@gcaccountants.com.au,02 4956 1640,2287,NSW,Wallsend,http://www.gcaccountants.com.au
Ailsa Road,Millenium Accountancy Pty Ltd,AU,francis@milacc.com.au,02 49614442,2292,NSW,Broadmeadow,http://milacc.com.au/
Heddon Road,Pivotal Accounting,AU,grant@pivotalaccounting.com.au,,2292,NSW,Broadmeadow,http://www.pivotalaccounting.com.au/
Awaba Road,Super Auditors Pty Ltd,AU,jean@superauditors.com.au,1300 738 288,2292,NSW,Broadmeadow,www.superauditors.com.au
Maitland Road,Miles Investments Pty Ltd,AU,adrian@ajwmilesandson.com.au,02 49672699,2304,NSW,Mayfield,
Maitland Road,Hunter Accounting Services Pty Ltd,AU,marco@hunteraccounting.com.au,02 49681740,2304,NSW,Mayfield,http://www.hunteraccounting.com.au
Denison Street,Bentleys Newcastle Pty Ltd,AU,admin@newc.bentleys.com.au,02 49406100,2292,NSW,Broadmeadow,http://www.bentleys.com.au
Angophora Drive,iPacific Accountant Pty Ltd,AU,,,2304,NSW,Warabrook,
Virgo Street,Scott Sharp,AU,scottsharp79@gmail.com,0407906978,2287,NSW,Elermore Vale,
Serenity Crescent,Precision Taxation Accounting & Management,AU,peter@ptam.com.au,1300007826,2287,NSW,Fletcher,
Arnott Street,A J Dorse Accounting,AU,ashley@ajdorseaccounting.com.au,(02) 4048 2175,2287,NSW,Edgeworth,http://www.ajdorseaccounting.com.au
Howe Street,G C Accountants Pty Ltd,AU,mail@gcaccountants.com.au,02 49561640,2299,NSW,Lambton,http://www.gcaccountants.com.au
Douglas Street,GC Accountants,AU,garyc@gcaccountants.com.au,02 4956 1640,2287,NSW,Wallsend,http://www.gcaccountants.com.au
Lambton Road,Visionary Accountants,AU,contact@visionaryaccountants.com.au,0249671268,2305,NSW,New Lambton,http://www.visionaryaccountants.com.au
Ailsa Road,Millenium Accountancy Pty Ltd,AU,francis@milacc.com.au,02 49614442,2292,NSW,Broadmeadow,http://milacc.com.au/
Angophora Drive,iPacific Accountant Pty Ltd,AU,,,2304,NSW,Warabrook,
Maitland Road,Miles Investments Pty Ltd,AU,adrian@ajwmilesandson.com.au,02 49672699,2304,NSW,Mayfield,
Maitland Road,Hunter Accounting Services Pty Ltd,AU,marco@hunteraccounting.com.au,02 49681740,2304,NSW,Mayfield,http://www.hunteraccounting.com.au
Heddon Road,Pivotal Accounting,AU,grant@pivotalaccounting.com.au,,2292,NSW,Broadmeadow,http://www.pivotalaccounting.com.au/
Awaba Road,Super Auditors Pty Ltd,AU,jean@superauditors.com.au,1300 738 288,2292,NSW,Broadmeadow,www.superauditors.com.au
Denison Street,Bentleys Newcastle Pty Ltd,AU,admin@newc.bentleys.com.au,02 49406100,2292,NSW,Broadmeadow,http://www.bentleys.com.au
Virgo Street,Scott Sharp,AU,scottsharp79@gmail.com,0407906978,2287,NSW,Elermore Vale,
Serenity Crescent,Precision Taxation Accounting & Management,AU,peter@ptam.com.au,1300007826,2287,NSW,Fletcher,
Arnott Street,A J Dorse Accounting,AU,ashley@ajdorseaccounting.com.au,(02) 4048 2175,2287,NSW,Edgeworth,http://www.ajdorseaccounting.com.au
Kemp Street,Bellcorp Accountants,AU,erminio@adorantibell.com.au,02 49622440,2291,NSW,The Junction,https://adorantibell.com.au/
Watkins Street,CM Hewitt and Associates Pty Ltd Chartered Accountants,AU,emily@cmhewitt.com.au,02 49400255,2291,NSW,The Junction,http://www.cmhewitt.com.au
Watkins Street,H & M Accountants Pty Ltd,AU,philippe@hmaccountants.com.au,02 49622088,2291,NSW,The Junction,http://www.hmaccountants.com.au
Arnott Street,Shane Roxby Accountants,AU,,0249264499,2302,NSW,Cooks Hill,http://www.roxby.com.au
Dick Street,Rethink Accounting Pty Ltd,AU,craig@rethinkfinancial.com.au,02 4962 4440,2302,NSW,Newcastle West,http://www.rethinkfinancial.com.au
Hunter Street,Ken Archer & Associates,AU,kenarcher@ozemail.com.au,0428494144,2302,NSW,Newcastle West,
Parry Street,Growthwise Pty Ltd,AU,accounts@growthwise.com.au,61402083684,2300,NSW,Newcastle West,http://www.growthwise.com.au
Hunter Street,Thomas Fahey - Accountants,AU,darvalt@thomfahey.com.au,02 49293331,2302,NSW,Newcastle West,
Bolton Street,Jirsch Sutherland,AU,bradd@jirschsutherland.com.au,02 49656500,2300,NSW,Newcastle,http://www.jirschsutherland.com.au
Hunter Street,N R Allen,AU,nallen@allsupport.com.au,02 49294747,2300,NSW,Newcastle,
Hunter Street,Perry Ure Pty Ltd,AU,jure@perryure.com.au,02 49264522,2300,NSW,Newcastle,http://
King Street,John W Hopton Pty Ltd,AU,john@johnwhopton.com.au,02 49291414,2300,NSW,Newcastle,http://www.johnwhopton.com.au/
Murray Street,Rees Pritchard Pty Limited,AU,mail@reespritchard.com.au,02 49202877,2303,NSW,Hamilton,http://www.pritchards.com.au/
James Street,Hamilton Taggart Business Advisors,AU,melanie@hamiltontaggart.com.au,02 4962 2022,2303,NSW,Hamilton,http://www.hamiltontaggart.com.au
James Street,Real Balance Business Consulting,AU,craig.whitton@realbalance.com.au,02 49421839,2303,NSW,Hamilton,http://realbalance.com.au/
,Taggart Partners,AU,ross@taggart.com.au,02 4962 2022,2303,NSW,Hamilton,http://www.taggart.com.au
Hudson Street,Lambourne Partners,AU,mail@lambourne.com.au,02 49696600,2303,NSW,Hamilton,http://www.lambourne.com.au
Arnott Street,Shane Roxby Accountants,AU,,0249264499,2302,NSW,Cooks Hill,http://www.roxby.com.au
Dick Street,Rethink Accounting Pty Ltd,AU,craig@rethinkfinancial.com.au,02 4962 4440,2302,NSW,Newcastle West,http://www.rethinkfinancial.com.au
Hunter Street,Ken Archer & Associates,AU,kenarcher@ozemail.com.au,0428494144,2302,NSW,Newcastle West,
Kemp Street,Bellcorp Accountants,AU,erminio@adorantibell.com.au,02 49622440,2291,NSW,The Junction,https://adorantibell.com.au/
Hunter Street,Thomas Fahey - Accountants,AU,darvalt@thomfahey.com.au,02 49293331,2302,NSW,Newcastle West,
Parry Street,Growthwise Pty Ltd,AU,accounts@growthwise.com.au,61402083684,2300,NSW,Newcastle West,http://www.growthwise.com.au
Watkins Street,CM Hewitt and Associates Pty Ltd Chartered Accountants,AU,emily@cmhewitt.com.au,02 49400255,2291,NSW,The Junction,http://www.cmhewitt.com.au
Watkins Street,H & M Accountants Pty Ltd,AU,philippe@hmaccountants.com.au,02 49622088,2291,NSW,The Junction,http://www.hmaccountants.com.au
Hunter Street,N R Allen,AU,nallen@allsupport.com.au,02 49294747,2300,NSW,Newcastle,
Hunter Street,Perry Ure Pty Ltd,AU,jure@perryure.com.au,02 49264522,2300,NSW,Newcastle,http://
Bolton Street,Jirsch Sutherland,AU,bradd@jirschsutherland.com.au,02 49656500,2300,NSW,Newcastle,http://www.jirschsutherland.com.au
King Street,John W Hopton Pty Ltd,AU,john@johnwhopton.com.au,02 49291414,2300,NSW,Newcastle,http://www.johnwhopton.com.au/
,Quest Financial Group Pty Limited,AU,mail@achievefinancial.com.au,61249696266,2294,NSW,Carrington,http://www.achievefinancial.com.au
Murray Street,Rees Pritchard Pty Limited,AU,mail@reespritchard.com.au,02 49202877,2303,NSW,Hamilton,http://www.pritchards.com.au/
James Street,Hamilton Taggart Business Advisors,AU,melanie@hamiltontaggart.com.au,02 4962 2022,2303,NSW,Hamilton,http://www.hamiltontaggart.com.au
James Street,Real Balance Business Consulting,AU,craig.whitton@realbalance.com.au,02 49421839,2303,NSW,Hamilton,http://realbalance.com.au/
,Taggart Partners,AU,ross@taggart.com.au,02 4962 2022,2303,NSW,Hamilton,http://www.taggart.com.au
Hudson Street,Lambourne Partners,AU,mail@lambourne.com.au,02 49696600,2303,NSW,Hamilton,http://www.lambourne.com.au
Hunter Street,N R Allen,AU,nallen@allsupport.com.au,02 49294747,2300,NSW,Newcastle,
Hunter Street,Perry Ure Pty Ltd,AU,jure@perryure.com.au,02 49264522,2300,NSW,Newcastle,http://
Bolton Street,Jirsch Sutherland,AU,bradd@jirschsutherland.com.au,02 49656500,2300,NSW,Newcastle,http://www.jirschsutherland.com.au
King Street,John W Hopton Pty Ltd,AU,john@johnwhopton.com.au,02 49291414,2300,NSW,Newcastle,http://www.johnwhopton.com.au/
Hunter Street,Ken Archer & Associates,AU,kenarcher@ozemail.com.au,0428494144,2302,NSW,Newcastle West,
Dick Street,Rethink Accounting Pty Ltd,AU,craig@rethinkfinancial.com.au,02 4962 4440,2302,NSW,Newcastle West,http://www.rethinkfinancial.com.au
Arnott Street,Shane Roxby Accountants,AU,,0249264499,2302,NSW,Cooks Hill,http://www.roxby.com.au
Hunter Street,Thomas Fahey - Accountants,AU,darvalt@thomfahey.com.au,02 49293331,2302,NSW,Newcastle West,
,Quest Financial Group Pty Limited,AU,mail@achievefinancial.com.au,61249696266,2294,NSW,Carrington,http://www.achievefinancial.com.au
Parry Street,Growthwise Pty Ltd,AU,accounts@growthwise.com.au,61402083684,2300,NSW,Newcastle West,http://www.growthwise.com.au
Kemp Street,Bellcorp Accountants,AU,erminio@adorantibell.com.au,02 49622440,2291,NSW,The Junction,https://adorantibell.com.au/
Watkins Street,CM Hewitt and Associates Pty Ltd Chartered Accountants,AU,emily@cmhewitt.com.au,02 49400255,2291,NSW,The Junction,http://www.cmhewitt.com.au
Watkins Street,H & M Accountants Pty Ltd,AU,philippe@hmaccountants.com.au,02 49622088,2291,NSW,The Junction,http://www.hmaccountants.com.au
Murray Street,Rees Pritchard Pty Limited,AU,mail@reespritchard.com.au,02 49202877,2303,NSW,Hamilton,http://www.pritchards.com.au/
,Taggart Partners,AU,ross@taggart.com.au,02 4962 2022,2303,NSW,Hamilton,http://www.taggart.com.au
James Street,Hamilton Taggart Business Advisors,AU,melanie@hamiltontaggart.com.au,02 4962 2022,2303,NSW,Hamilton,http://www.hamiltontaggart.com.au
James Street,Real Balance Business Consulting,AU,craig.whitton@realbalance.com.au,02 49421839,2303,NSW,Hamilton,http://realbalance.com.au/
Hudson Street,Lambourne Partners,AU,mail@lambourne.com.au,02 49696600,2303,NSW,Hamilton,http://www.lambourne.com.au
King Street,John W Hopton Pty Ltd,AU,john@johnwhopton.com.au,02 49291414,2300,NSW,Newcastle,http://www.johnwhopton.com.au/
Bolton Street,Jirsch Sutherland,AU,bradd@jirschsutherland.com.au,02 49656500,2300,NSW,Newcastle,http://www.jirschsutherland.com.au
Hunter Street,N R Allen,AU,nallen@allsupport.com.au,02 49294747,2300,NSW,Newcastle,
Hunter Street,Perry Ure Pty Ltd,AU,jure@perryure.com.au,02 49264522,2300,NSW,Newcastle,http://
Hunter Street,Ken Archer & Associates,AU,kenarcher@ozemail.com.au,0428494144,2302,NSW,Newcastle West,
Arnott Street,Shane Roxby Accountants,AU,,0249264499,2302,NSW,Cooks Hill,http://www.roxby.com.au
Dick Street,Rethink Accounting Pty Ltd,AU,craig@rethinkfinancial.com.au,02 4962 4440,2302,NSW,Newcastle West,http://www.rethinkfinancial.com.au
Hunter Street,Thomas Fahey - Accountants,AU,darvalt@thomfahey.com.au,02 49293331,2302,NSW,Newcastle West,
,Quest Financial Group Pty Limited,AU,mail@achievefinancial.com.au,61249696266,2294,NSW,Carrington,http://www.achievefinancial.com.au
Parry Street,Growthwise Pty Ltd,AU,accounts@growthwise.com.au,61402083684,2300,NSW,Newcastle West,http://www.growthwise.com.au
Kemp Street,Bellcorp Accountants,AU,erminio@adorantibell.com.au,02 49622440,2291,NSW,The Junction,https://adorantibell.com.au/
Watkins Street,CM Hewitt and Associates Pty Ltd Chartered Accountants,AU,emily@cmhewitt.com.au,02 49400255,2291,NSW,The Junction,http://www.cmhewitt.com.au
Watkins Street,H & M Accountants Pty Ltd,AU,philippe@hmaccountants.com.au,02 49622088,2291,NSW,The Junction,http://www.hmaccountants.com.au
Hunter Street,N R Allen,AU,nallen@allsupport.com.au,02 49294747,2300,NSW,Newcastle,
Hunter Street,Perry Ure Pty Ltd,AU,jure@perryure.com.au,02 49264522,2300,NSW,Newcastle,http://
Bolton Street,Jirsch Sutherland,AU,bradd@jirschsutherland.com.au,02 49656500,2300,NSW,Newcastle,http://www.jirschsutherland.com.au
King Street,John W Hopton Pty Ltd,AU,john@johnwhopton.com.au,02 49291414,2300,NSW,Newcastle,http://www.johnwhopton.com.au/
Hunter Street,Ken Archer & Associates,AU,kenarcher@ozemail.com.au,0428494144,2302,NSW,Newcastle West,
Arnott Street,Shane Roxby Accountants,AU,,0249264499,2302,NSW,Cooks Hill,http://www.roxby.com.au
Dick Street,Rethink Accounting Pty Ltd,AU,craig@rethinkfinancial.com.au,02 4962 4440,2302,NSW,Newcastle West,http://www.rethinkfinancial.com.au
Hunter Street,Thomas Fahey - Accountants,AU,darvalt@thomfahey.com.au,02 49293331,2302,NSW,Newcastle West,
Parry Street,Growthwise Pty Ltd,AU,accounts@growthwise.com.au,61402083684,2300,NSW,Newcastle West,http://www.growthwise.com.au
Kemp Street,Bellcorp Accountants,AU,erminio@adorantibell.com.au,02 49622440,2291,NSW,The Junction,https://adorantibell.com.au/
,Quest Financial Group Pty Limited,AU,mail@achievefinancial.com.au,61249696266,2294,NSW,Carrington,http://www.achievefinancial.com.au
Watkins Street,CM Hewitt and Associates Pty Ltd Chartered Accountants,AU,emily@cmhewitt.com.au,02 49400255,2291,NSW,The Junction,http://www.cmhewitt.com.au
Watkins Street,H & M Accountants Pty Ltd,AU,philippe@hmaccountants.com.au,02 49622088,2291,NSW,The Junction,http://www.hmaccountants.com.au
Murray Street,Rees Pritchard Pty Limited,AU,mail@reespritchard.com.au,02 49202877,2303,NSW,Hamilton,http://www.pritchards.com.au/
,Taggart Partners,AU,ross@taggart.com.au,02 4962 2022,2303,NSW,Hamilton,http://www.taggart.com.au
James Street,Hamilton Taggart Business Advisors,AU,melanie@hamiltontaggart.com.au,02 4962 2022,2303,NSW,Hamilton,http://www.hamiltontaggart.com.au
James Street,Real Balance Business Consulting,AU,craig.whitton@realbalance.com.au,02 49421839,2303,NSW,Hamilton,http://realbalance.com.au/
Hudson Street,Lambourne Partners,AU,mail@lambourne.com.au,02 49696600,2303,NSW,Hamilton,http://www.lambourne.com.au
Hunter Street,Thomas Fahey - Accountants,AU,darvalt@thomfahey.com.au,02 49293331,2302,NSW,Newcastle West,
Parry Street,Growthwise Pty Ltd,AU,accounts@growthwise.com.au,61402083684,2300,NSW,Newcastle West,http://www.growthwise.com.au
Hunter Street,Ken Archer & Associates,AU,kenarcher@ozemail.com.au,0428494144,2302,NSW,Newcastle West,
Dick Street,Rethink Accounting Pty Ltd,AU,craig@rethinkfinancial.com.au,02 4962 4440,2302,NSW,Newcastle West,http://www.rethinkfinancial.com.au
Arnott Street,Shane Roxby Accountants,AU,,0249264499,2302,NSW,Cooks Hill,http://www.roxby.com.au
,Quest Financial Group Pty Limited,AU,mail@achievefinancial.com.au,61249696266,2294,NSW,Carrington,http://www.achievefinancial.com.au
Kemp Street,Bellcorp Accountants,AU,erminio@adorantibell.com.au,02 49622440,2291,NSW,The Junction,https://adorantibell.com.au/
Murray Street,Rees Pritchard Pty Limited,AU,mail@reespritchard.com.au,02 49202877,2303,NSW,Hamilton,http://www.pritchards.com.au/
,Taggart Partners,AU,ross@taggart.com.au,02 4962 2022,2303,NSW,Hamilton,http://www.taggart.com.au
James Street,Hamilton Taggart Business Advisors,AU,melanie@hamiltontaggart.com.au,02 4962 2022,2303,NSW,Hamilton,http://www.hamiltontaggart.com.au
James Street,Real Balance Business Consulting,AU,craig.whitton@realbalance.com.au,02 49421839,2303,NSW,Hamilton,http://realbalance.com.au/
Watkins Street,CM Hewitt and Associates Pty Ltd Chartered Accountants,AU,emily@cmhewitt.com.au,02 49400255,2291,NSW,The Junction,http://www.cmhewitt.com.au
Watkins Street,H & M Accountants Pty Ltd,AU,philippe@hmaccountants.com.au,02 49622088,2291,NSW,The Junction,http://www.hmaccountants.com.au
Hunter Street,N R Allen,AU,nallen@allsupport.com.au,02 49294747,2300,NSW,Newcastle,
Hunter Street,Perry Ure Pty Ltd,AU,jure@perryure.com.au,02 49264522,2300,NSW,Newcastle,http://
Hudson Street,Lambourne Partners,AU,mail@lambourne.com.au,02 49696600,2303,NSW,Hamilton,http://www.lambourne.com.au
Bolton Street,Jirsch Sutherland,AU,bradd@jirschsutherland.com.au,02 49656500,2300,NSW,Newcastle,http://www.jirschsutherland.com.au
King Street,John W Hopton Pty Ltd,AU,john@johnwhopton.com.au,02 49291414,2300,NSW,Newcastle,http://www.johnwhopton.com.au/
Denison Street,Bentleys Newcastle Pty Ltd,AU,admin@newc.bentleys.com.au,02 49406100,2292,NSW,Broadmeadow,http://www.bentleys.com.au
Heddon Road,Pivotal Accounting,AU,grant@pivotalaccounting.com.au,,2292,NSW,Broadmeadow,http://www.pivotalaccounting.com.au/
Awaba Road,Super Auditors Pty Ltd,AU,jean@superauditors.com.au,1300 738 288,2292,NSW,Broadmeadow,www.superauditors.com.au
Ailsa Road,Millenium Accountancy Pty Ltd,AU,francis@milacc.com.au,02 49614442,2292,NSW,Broadmeadow,http://milacc.com.au/
Gosford Road,Triple L Services,AU,tripleLservicesau@gmail.com,0431195000,2289,NSW,Adamstown,
Maitland Road,Hunter Accounting Services Pty Ltd,AU,marco@hunteraccounting.com.au,02 49681740,2304,NSW,Mayfield,http://www.hunteraccounting.com.au
Lambton Road,Visionary Accountants,AU,contact@visionaryaccountants.com.au,0249671268,2305,NSW,New Lambton,http://www.visionaryaccountants.com.au
Maitland Road,Miles Investments Pty Ltd,AU,adrian@ajwmilesandson.com.au,02 49672699,2304,NSW,Mayfield,
Park Avenue,Delia Scopulovic,AU,dscopulovic@exemail.com.au,0412491030,2289,NSW,Kotara,
Howe Street,G C Accountants Pty Ltd,AU,mail@gcaccountants.com.au,02 49561640,2299,NSW,Lambton,http://www.gcaccountants.com.au
Angophora Drive,iPacific Accountant Pty Ltd,AU,,,2304,NSW,Warabrook,
Murray Street,Rees Pritchard Pty Limited,AU,mail@reespritchard.com.au,02 49202877,2303,NSW,Hamilton,http://www.pritchards.com.au/
James Street,Hamilton Taggart Business Advisors,AU,melanie@hamiltontaggart.com.au,02 4962 2022,2303,NSW,Hamilton,http://www.hamiltontaggart.com.au
James Street,Real Balance Business Consulting,AU,craig.whitton@realbalance.com.au,02 49421839,2303,NSW,Hamilton,http://realbalance.com.au/
,Taggart Partners,AU,ross@taggart.com.au,02 4962 2022,2303,NSW,Hamilton,http://www.taggart.com.au
Hudson Street,Lambourne Partners,AU,mail@lambourne.com.au,02 49696600,2303,NSW,Hamilton,http://www.lambourne.com.au
Denison Street,Bentleys Newcastle Pty Ltd,AU,admin@newc.bentleys.com.au,02 49406100,2292,NSW,Broadmeadow,http://www.bentleys.com.au
Heddon Road,Pivotal Accounting,AU,grant@pivotalaccounting.com.au,,2292,NSW,Broadmeadow,http://www.pivotalaccounting.com.au/
Parry Street,Growthwise Pty Ltd,AU,accounts@growthwise.com.au,61402083684,2300,NSW,Newcastle West,http://www.growthwise.com.au
Awaba Road,Super Auditors Pty Ltd,AU,jean@superauditors.com.au,1300 738 288,2292,NSW,Broadmeadow,www.superauditors.com.au
Hunter Street,Thomas Fahey - Accountants,AU,darvalt@thomfahey.com.au,02 49293331,2302,NSW,Newcastle West,
Ailsa Road,Millenium Accountancy Pty Ltd,AU,francis@milacc.com.au,02 49614442,2292,NSW,Broadmeadow,http://milacc.com.au/
Dick Street,Rethink Accounting Pty Ltd,AU,craig@rethinkfinancial.com.au,02 4962 4440,2302,NSW,Newcastle West,http://www.rethinkfinancial.com.au
Arnott Street,Shane Roxby Accountants,AU,,0249264499,2302,NSW,Cooks Hill,http://www.roxby.com.au
Kemp Street,Bellcorp Accountants,AU,erminio@adorantibell.com.au,02 49622440,2291,NSW,The Junction,https://adorantibell.com.au/
Hunter Street,Ken Archer & Associates,AU,kenarcher@ozemail.com.au,0428494144,2302,NSW,Newcastle West,
,Quest Financial Group Pty Limited,AU,mail@achievefinancial.com.au,61249696266,2294,NSW,Carrington,http://www.achievefinancial.com.au
Watkins Street,CM Hewitt and Associates Pty Ltd Chartered Accountants,AU,emily@cmhewitt.com.au,02 49400255,2291,NSW,The Junction,http://www.cmhewitt.com.au
Watkins Street,H & M Accountants Pty Ltd,AU,philippe@hmaccountants.com.au,02 49622088,2291,NSW,The Junction,http://www.hmaccountants.com.au
Gosford Road,Triple L Services,AU,tripleLservicesau@gmail.com,0431195000,2289,NSW,Adamstown,
Maitland Road,Hunter Accounting Services Pty Ltd,AU,marco@hunteraccounting.com.au,02 49681740,2304,NSW,Mayfield,http://www.hunteraccounting.com.au
Hunter Street,N R Allen,AU,nallen@allsupport.com.au,02 49294747,2300,NSW,Newcastle,
Hunter Street,Perry Ure Pty Ltd,AU,jure@perryure.com.au,02 49264522,2300,NSW,Newcastle,http://
Maitland Road,Miles Investments Pty Ltd,AU,adrian@ajwmilesandson.com.au,02 49672699,2304,NSW,Mayfield,
Bolton Street,Jirsch Sutherland,AU,bradd@jirschsutherland.com.au,02 49656500,2300,NSW,Newcastle,http://www.jirschsutherland.com.au
King Street,John W Hopton Pty Ltd,AU,john@johnwhopton.com.au,02 49291414,2300,NSW,Newcastle,http://www.johnwhopton.com.au/
Park Avenue,Delia Scopulovic,AU,dscopulovic@exemail.com.au,0412491030,2289,NSW,Kotara,
Angophora Drive,iPacific Accountant Pty Ltd,AU,,,2304,NSW,Warabrook,
Parry Street,Growthwise Pty Ltd,AU,accounts@growthwise.com.au,61402083684,2300,NSW,Newcastle West,http://www.growthwise.com.au
Hunter Street,Thomas Fahey - Accountants,AU,darvalt@thomfahey.com.au,02 49293331,2302,NSW,Newcastle West,
Murray Street,Rees Pritchard Pty Limited,AU,mail@reespritchard.com.au,02 49202877,2303,NSW,Hamilton,http://www.pritchards.com.au/
Kemp Street,Bellcorp Accountants,AU,erminio@adorantibell.com.au,02 49622440,2291,NSW,The Junction,https://adorantibell.com.au/
Dick Street,Rethink Accounting Pty Ltd,AU,craig@rethinkfinancial.com.au,02 4962 4440,2302,NSW,Newcastle West,http://www.rethinkfinancial.com.au
Arnott Street,Shane Roxby Accountants,AU,,0249264499,2302,NSW,Cooks Hill,http://www.roxby.com.au
James Street,Hamilton Taggart Business Advisors,AU,melanie@hamiltontaggart.com.au,02 4962 2022,2303,NSW,Hamilton,http://www.hamiltontaggart.com.au
James Street,Real Balance Business Consulting,AU,craig.whitton@realbalance.com.au,02 49421839,2303,NSW,Hamilton,http://realbalance.com.au/
,Taggart Partners,AU,ross@taggart.com.au,02 4962 2022,2303,NSW,Hamilton,http://www.taggart.com.au
Hunter Street,Ken Archer & Associates,AU,kenarcher@ozemail.com.au,0428494144,2302,NSW,Newcastle West,
Watkins Street,CM Hewitt and Associates Pty Ltd Chartered Accountants,AU,emily@cmhewitt.com.au,02 49400255,2291,NSW,The Junction,http://www.cmhewitt.com.au
Watkins Street,H & M Accountants Pty Ltd,AU,philippe@hmaccountants.com.au,02 49622088,2291,NSW,The Junction,http://www.hmaccountants.com.au
Denison Street,Bentleys Newcastle Pty Ltd,AU,admin@newc.bentleys.com.au,02 49406100,2292,NSW,Broadmeadow,http://www.bentleys.com.au
Hudson Street,Lambourne Partners,AU,mail@lambourne.com.au,02 49696600,2303,NSW,Hamilton,http://www.lambourne.com.au
,Quest Financial Group Pty Limited,AU,mail@achievefinancial.com.au,61249696266,2294,NSW,Carrington,http://www.achievefinancial.com.au
Heddon Road,Pivotal Accounting,AU,grant@pivotalaccounting.com.au,,2292,NSW,Broadmeadow,http://www.pivotalaccounting.com.au/
Awaba Road,Super Auditors Pty Ltd,AU,jean@superauditors.com.au,1300 738 288,2292,NSW,Broadmeadow,www.superauditors.com.au
Hunter Street,N R Allen,AU,nallen@allsupport.com.au,02 49294747,2300,NSW,Newcastle,
Hunter Street,Perry Ure Pty Ltd,AU,jure@perryure.com.au,02 49264522,2300,NSW,Newcastle,http://
Ailsa Road,Millenium Accountancy Pty Ltd,AU,francis@milacc.com.au,02 49614442,2292,NSW,Broadmeadow,http://milacc.com.au/
Gosford Road,Triple L Services,AU,tripleLservicesau@gmail.com,0431195000,2289,NSW,Adamstown,
Bolton Street,Jirsch Sutherland,AU,bradd@jirschsutherland.com.au,02 49656500,2300,NSW,Newcastle,http://www.jirschsutherland.com.au
King Street,John W Hopton Pty Ltd,AU,john@johnwhopton.com.au,02 49291414,2300,NSW,Newcastle,http://www.johnwhopton.com.au/
Park Avenue,Delia Scopulovic,AU,dscopulovic@exemail.com.au,0412491030,2289,NSW,Kotara,
Murray Street,Rees Pritchard Pty Limited,AU,mail@reespritchard.com.au,02 49202877,2303,NSW,Hamilton,http://www.pritchards.com.au/
James Street,Hamilton Taggart Business Advisors,AU,melanie@hamiltontaggart.com.au,02 4962 2022,2303,NSW,Hamilton,http://www.hamiltontaggart.com.au
James Street,Real Balance Business Consulting,AU,craig.whitton@realbalance.com.au,02 49421839,2303,NSW,Hamilton,http://realbalance.com.au/
Kemp Street,Bellcorp Accountants,AU,erminio@adorantibell.com.au,02 49622440,2291,NSW,The Junction,https://adorantibell.com.au/
Watkins Street,CM Hewitt and Associates Pty Ltd Chartered Accountants,AU,emily@cmhewitt.com.au,02 49400255,2291,NSW,The Junction,http://www.cmhewitt.com.au
Watkins Street,H & M Accountants Pty Ltd,AU,philippe@hmaccountants.com.au,02 49622088,2291,NSW,The Junction,http://www.hmaccountants.com.au
Parry Street,Growthwise Pty Ltd,AU,accounts@growthwise.com.au,61402083684,2300,NSW,Newcastle West,http://www.growthwise.com.au
Denison Street,Bentleys Newcastle Pty Ltd,AU,admin@newc.bentleys.com.au,02 49406100,2292,NSW,Broadmeadow,http://www.bentleys.com.au
Awaba Road,Super Auditors Pty Ltd,AU,jean@superauditors.com.au,1300 738 288,2292,NSW,Broadmeadow,www.superauditors.com.au
,Taggart Partners,AU,ross@taggart.com.au,02 4962 2022,2303,NSW,Hamilton,http://www.taggart.com.au
Heddon Road,Pivotal Accounting,AU,grant@pivotalaccounting.com.au,,2292,NSW,Broadmeadow,http://www.pivotalaccounting.com.au/
Arnott Street,Shane Roxby Accountants,AU,,0249264499,2302,NSW,Cooks Hill,http://www.roxby.com.au
Hunter Street,Thomas Fahey - Accountants,AU,darvalt@thomfahey.com.au,02 49293331,2302,NSW,Newcastle West,
Dick Street,Rethink Accounting Pty Ltd,AU,craig@rethinkfinancial.com.au,02 4962 4440,2302,NSW,Newcastle West,http://www.rethinkfinancial.com.au
Hudson Street,Lambourne Partners,AU,mail@lambourne.com.au,02 49696600,2303,NSW,Hamilton,http://www.lambourne.com.au
Gosford Road,Triple L Services,AU,tripleLservicesau@gmail.com,0431195000,2289,NSW,Adamstown,
Hunter Street,Ken Archer & Associates,AU,kenarcher@ozemail.com.au,0428494144,2302,NSW,Newcastle West,
Ailsa Road,Millenium Accountancy Pty Ltd,AU,francis@milacc.com.au,02 49614442,2292,NSW,Broadmeadow,http://milacc.com.au/
Hunter Street,N R Allen,AU,nallen@allsupport.com.au,02 49294747,2300,NSW,Newcastle,
Hunter Street,Perry Ure Pty Ltd,AU,jure@perryure.com.au,02 49264522,2300,NSW,Newcastle,http://
Bolton Street,Jirsch Sutherland,AU,bradd@jirschsutherland.com.au,02 49656500,2300,NSW,Newcastle,http://www.jirschsutherland.com.au
King Street,John W Hopton Pty Ltd,AU,john@johnwhopton.com.au,02 49291414,2300,NSW,Newcastle,http://www.johnwhopton.com.au/
Park Avenue,Delia Scopulovic,AU,dscopulovic@exemail.com.au,0412491030,2289,NSW,Kotara,
Maitland Road,Miles Investments Pty Ltd,AU,adrian@ajwmilesandson.com.au,02 49672699,2304,NSW,Mayfield,
Maitland Road,Hunter Accounting Services Pty Ltd,AU,marco@hunteraccounting.com.au,02 49681740,2304,NSW,Mayfield,http://www.hunteraccounting.com.au
Angophora Drive,iPacific Accountant Pty Ltd,AU,,,2304,NSW,Warabrook,
Maitland Road,Hunter Accounting Services Pty Ltd,AU,marco@hunteraccounting.com.au,02 49681740,2304,NSW,Mayfield,http://www.hunteraccounting.com.au
Maitland Road,Miles Investments Pty Ltd,AU,adrian@ajwmilesandson.com.au,02 49672699,2304,NSW,Mayfield,
Hudson Street,Lambourne Partners,AU,mail@lambourne.com.au,02 49696600,2303,NSW,Hamilton,http://www.lambourne.com.au
Ailsa Road,Millenium Accountancy Pty Ltd,AU,francis@milacc.com.au,02 49614442,2292,NSW,Broadmeadow,http://milacc.com.au/
,Taggart Partners,AU,ross@taggart.com.au,02 4962 2022,2303,NSW,Hamilton,http://www.taggart.com.au
James Street,Hamilton Taggart Business Advisors,AU,melanie@hamiltontaggart.com.au,02 4962 2022,2303,NSW,Hamilton,http://www.hamiltontaggart.com.au
James Street,Real Balance Business Consulting,AU,craig.whitton@realbalance.com.au,02 49421839,2303,NSW,Hamilton,http://realbalance.com.au/
Murray Street,Rees Pritchard Pty Limited,AU,mail@reespritchard.com.au,02 49202877,2303,NSW,Hamilton,http://www.pritchards.com.au/
Denison Street,Bentleys Newcastle Pty Ltd,AU,admin@newc.bentleys.com.au,02 49406100,2292,NSW,Broadmeadow,http://www.bentleys.com.au
Heddon Road,Pivotal Accounting,AU,grant@pivotalaccounting.com.au,,2292,NSW,Broadmeadow,http://www.pivotalaccounting.com.au/
Angophora Drive,iPacific Accountant Pty Ltd,AU,,,2304,NSW,Warabrook,
Awaba Road,Super Auditors Pty Ltd,AU,jean@superauditors.com.au,1300 738 288,2292,NSW,Broadmeadow,www.superauditors.com.au
Maitland Road,Hunter Accounting Services Pty Ltd,AU,marco@hunteraccounting.com.au,02 49681740,2304,NSW,Mayfield,http://www.hunteraccounting.com.au
Maitland Road,Miles Investments Pty Ltd,AU,adrian@ajwmilesandson.com.au,02 49672699,2304,NSW,Mayfield,
Hudson Street,Lambourne Partners,AU,mail@lambourne.com.au,02 49696600,2303,NSW,Hamilton,http://www.lambourne.com.au
,Quest Financial Group Pty Limited,AU,mail@achievefinancial.com.au,61249696266,2294,NSW,Carrington,http://www.achievefinancial.com.au
,Taggart Partners,AU,ross@taggart.com.au,02 4962 2022,2303,NSW,Hamilton,http://www.taggart.com.au
James Street,Hamilton Taggart Business Advisors,AU,melanie@hamiltontaggart.com.au,02 4962 2022,2303,NSW,Hamilton,http://www.hamiltontaggart.com.au
James Street,Real Balance Business Consulting,AU,craig.whitton@realbalance.com.au,02 49421839,2303,NSW,Hamilton,http://realbalance.com.au/
Ailsa Road,Millenium Accountancy Pty Ltd,AU,francis@milacc.com.au,02 49614442,2292,NSW,Broadmeadow,http://milacc.com.au/
Murray Street,Rees Pritchard Pty Limited,AU,mail@reespritchard.com.au,02 49202877,2303,NSW,Hamilton,http://www.pritchards.com.au/
Denison Street,Bentleys Newcastle Pty Ltd,AU,admin@newc.bentleys.com.au,02 49406100,2292,NSW,Broadmeadow,http://www.bentleys.com.au
Heddon Road,Pivotal Accounting,AU,grant@pivotalaccounting.com.au,,2292,NSW,Broadmeadow,http://www.pivotalaccounting.com.au/
Awaba Road,Super Auditors Pty Ltd,AU,jean@superauditors.com.au,1300 738 288,2292,NSW,Broadmeadow,www.superauditors.com.au
Angophora Drive,iPacific Accountant Pty Ltd,AU,,,2304,NSW,Warabrook,
Maitland Road,Miles Investments Pty Ltd,AU,adrian@ajwmilesandson.com.au,02 49672699,2304,NSW,Mayfield,
Maitland Road,Hunter Accounting Services Pty Ltd,AU,marco@hunteraccounting.com.au,02 49681740,2304,NSW,Mayfield,http://www.hunteraccounting.com.au
Angophora Drive,iPacific Accountant Pty Ltd,AU,,,2304,NSW,Warabrook,
Maitland Road,Miles Investments Pty Ltd,AU,adrian@ajwmilesandson.com.au,02 49672699,2304,NSW,Mayfield,
Maitland Road,Hunter Accounting Services Pty Ltd,AU,marco@hunteraccounting.com.au,02 49681740,2304,NSW,Mayfield,http://www.hunteraccounting.com.au
Angophora Drive,iPacific Accountant Pty Ltd,AU,,,2304,NSW,Warabrook,
Howe Street,G C Accountants Pty Ltd,AU,mail@gcaccountants.com.au,02 49561640,2299,NSW,Lambton,http://www.gcaccountants.com.au
Ailsa Road,Millenium Accountancy Pty Ltd,AU,francis@milacc.com.au,02 49614442,2292,NSW,Broadmeadow,http://milacc.com.au/
Heddon Road,Pivotal Accounting,AU,grant@pivotalaccounting.com.au,,2292,NSW,Broadmeadow,http://www.pivotalaccounting.com.au/
Denison Street,Bentleys Newcastle Pty Ltd,AU,admin@newc.bentleys.com.au,02 49406100,2292,NSW,Broadmeadow,http://www.bentleys.com.au
Awaba Road,Super Auditors Pty Ltd,AU,jean@superauditors.com.au,1300 738 288,2292,NSW,Broadmeadow,www.superauditors.com.au
Angophora Drive,iPacific Accountant Pty Ltd,AU,,,2304,NSW,Warabrook,
Maitland Road,Miles Investments Pty Ltd,AU,adrian@ajwmilesandson.com.au,02 49672699,2304,NSW,Mayfield,
Maitland Road,Hunter Accounting Services Pty Ltd,AU,marco@hunteraccounting.com.au,02 49681740,2304,NSW,Mayfield,http://www.hunteraccounting.com.au
Howe Street,G C Accountants Pty Ltd,AU,mail@gcaccountants.com.au,02 49561640,2299,NSW,Lambton,http://www.gcaccountants.com.au
Douglas Street,GC Accountants,AU,garyc@gcaccountants.com.au,02 4956 1640,2287,NSW,Wallsend,http://www.gcaccountants.com.au
Ailsa Road,Millenium Accountancy Pty Ltd,AU,francis@milacc.com.au,02 49614442,2292,NSW,Broadmeadow,http://milacc.com.au/
Serenity Crescent,Precision Taxation Accounting & Management,AU,peter@ptam.com.au,1300007826,2287,NSW,Fletcher,
Heddon Road,Pivotal Accounting,AU,grant@pivotalaccounting.com.au,,2292,NSW,Broadmeadow,http://www.pivotalaccounting.com.au/
Denison Street,Bentleys Newcastle Pty Ltd,AU,admin@newc.bentleys.com.au,02 49406100,2292,NSW,Broadmeadow,http://www.bentleys.com.au
Awaba Road,Super Auditors Pty Ltd,AU,jean@superauditors.com.au,1300 738 288,2292,NSW,Broadmeadow,www.superauditors.com.au
Forsythe Parade,P A Clulow,AU,phil.clulow@revtax.com.au,02 49665982,2322,NSW,Black Hill,
Virgo Street,Scott Sharp,AU,scottsharp79@gmail.com,0407906978,2287,NSW,Elermore Vale,
Arnott Street,A J Dorse Accounting,AU,ashley@ajdorseaccounting.com.au,(02) 4048 2175,2287,NSW,Edgeworth,http://www.ajdorseaccounting.com.au
Angophora Drive,iPacific Accountant Pty Ltd,AU,,,2304,NSW,Warabrook,
Maitland Road,Miles Investments Pty Ltd,AU,adrian@ajwmilesandson.com.au,02 49672699,2304,NSW,Mayfield,
Maitland Road,Hunter Accounting Services Pty Ltd,AU,marco@hunteraccounting.com.au,02 49681740,2304,NSW,Mayfield,http://www.hunteraccounting.com.au
Howe Street,G C Accountants Pty Ltd,AU,mail@gcaccountants.com.au,02 49561640,2299,NSW,Lambton,http://www.gcaccountants.com.au
Douglas Street,GC Accountants,AU,garyc@gcaccountants.com.au,02 4956 1640,2287,NSW,Wallsend,http://www.gcaccountants.com.au
Virgo Street,Scott Sharp,AU,scottsharp79@gmail.com,0407906978,2287,NSW,Elermore Vale,
Serenity Crescent,Precision Taxation Accounting & Management,AU,peter@ptam.com.au,1300007826,2287,NSW,Fletcher,
Arnott Street,A J Dorse Accounting,AU,ashley@ajdorseaccounting.com.au,(02) 4048 2175,2287,NSW,Edgeworth,http://www.ajdorseaccounting.com.au
Park Avenue,Delia Scopulovic,AU,dscopulovic@exemail.com.au,0412491030,2289,NSW,Kotara,
Lambton Road,Visionary Accountants,AU,contact@visionaryaccountants.com.au,0249671268,2305,NSW,New Lambton,http://www.visionaryaccountants.com.au
Gosford Road,Triple L Services,AU,tripleLservicesau@gmail.com,0431195000,2289,NSW,Adamstown,
Howe Street,G C Accountants Pty Ltd,AU,mail@gcaccountants.com.au,02 49561640,2299,NSW,Lambton,http://www.gcaccountants.com.au
Awaba Road,Super Auditors Pty Ltd,AU,jean@superauditors.com.au,1300 738 288,2292,NSW,Broadmeadow,www.superauditors.com.au
Heddon Road,Pivotal Accounting,AU,grant@pivotalaccounting.com.au,,2292,NSW,Broadmeadow,http://www.pivotalaccounting.com.au/
Ailsa Road,Millenium Accountancy Pty Ltd,AU,francis@milacc.com.au,02 49614442,2292,NSW,Broadmeadow,http://milacc.com.au/
Denison Street,Bentleys Newcastle Pty Ltd,AU,admin@newc.bentleys.com.au,02 49406100,2292,NSW,Broadmeadow,http://www.bentleys.com.au
Douglas Street,GC Accountants,AU,garyc@gcaccountants.com.au,02 4956 1640,2287,NSW,Wallsend,http://www.gcaccountants.com.au
Watkins Street,CM Hewitt and Associates Pty Ltd Chartered Accountants,AU,emily@cmhewitt.com.au,02 49400255,2291,NSW,The Junction,http://www.cmhewitt.com.au
Watkins Street,H & M Accountants Pty Ltd,AU,philippe@hmaccountants.com.au,02 49622088,2291,NSW,The Junction,http://www.hmaccountants.com.au
Kemp Street,Bellcorp Accountants,AU,erminio@adorantibell.com.au,02 49622440,2291,NSW,The Junction,https://adorantibell.com.au/
Virgo Street,Scott Sharp,AU,scottsharp79@gmail.com,0407906978,2287,NSW,Elermore Vale,
Arnott Street,A J Dorse Accounting,AU,ashley@ajdorseaccounting.com.au,(02) 4048 2175,2287,NSW,Edgeworth,http://www.ajdorseaccounting.com.au
Serenity Crescent,Precision Taxation Accounting & Management,AU,peter@ptam.com.au,1300007826,2287,NSW,Fletcher,
Lambton Road,Visionary Accountants,AU,contact@visionaryaccountants.com.au,0249671268,2305,NSW,New Lambton,http://www.visionaryaccountants.com.au
Howe Street,G C Accountants Pty Ltd,AU,mail@gcaccountants.com.au,02 49561640,2299,NSW,Lambton,http://www.gcaccountants.com.au
Gosford Road,Triple L Services,AU,tripleLservicesau@gmail.com,0431195000,2289,NSW,Adamstown,
Ailsa Road,Millenium Accountancy Pty Ltd,AU,francis@milacc.com.au,02 49614442,2292,NSW,Broadmeadow,http://milacc.com.au/
Awaba Road,Super Auditors Pty Ltd,AU,jean@superauditors.com.au,1300 738 288,2292,NSW,Broadmeadow,www.superauditors.com.au
Heddon Road,Pivotal Accounting,AU,grant@pivotalaccounting.com.au,,2292,NSW,Broadmeadow,http://www.pivotalaccounting.com.au/
Park Avenue,Delia Scopulovic,AU,dscopulovic@exemail.com.au,0412491030,2289,NSW,Kotara,
Denison Street,Bentleys Newcastle Pty Ltd,AU,admin@newc.bentleys.com.au,02 49406100,2292,NSW,Broadmeadow,http://www.bentleys.com.au
Park Avenue,Delia Scopulovic,AU,dscopulovic@exemail.com.au,0412491030,2289,NSW,Kotara,
Howe Street,G C Accountants Pty Ltd,AU,mail@gcaccountants.com.au,02 49561640,2299,NSW,Lambton,http://www.gcaccountants.com.au
Kirby Street,CNS Accounting Pty Ltd,AU,scott@cnsaccounting.com.au,0407 906 978,2285,NSW,Cardiff,http://www.cnsaccounting.com.au
Douglas Street,GC Accountants,AU,garyc@gcaccountants.com.au,02 4956 1640,2287,NSW,Wallsend,http://www.gcaccountants.com.au
Lambton Road,Visionary Accountants,AU,contact@visionaryaccountants.com.au,0249671268,2305,NSW,New Lambton,http://www.visionaryaccountants.com.au
Gosford Road,Triple L Services,AU,tripleLservicesau@gmail.com,0431195000,2289,NSW,Adamstown,
Virgo Street,Scott Sharp,AU,scottsharp79@gmail.com,0407906978,2287,NSW,Elermore Vale,
Arnott Street,A J Dorse Accounting,AU,ashley@ajdorseaccounting.com.au,(02) 4048 2175,2287,NSW,Edgeworth,http://www.ajdorseaccounting.com.au
Arnott Street,Summit Accounting & Taxation,AU,trina@summitacc.com.au,02 40131222,2285,NSW,Edgeworth,http://www.summitacc.com.au
Serenity Crescent,Precision Taxation Accounting & Management,AU,peter@ptam.com.au,1300007826,2287,NSW,Fletcher,
Schroder Avenue,McCallum Partners Pty Ltd,AU,ian@mccallumpartners.com.au,0448870234,2290,NSW,Gateshead,http://www.mccallumpartners.com.au/
Park Street,Kilpatrick Lake Mackenzie P/L,AU,daniel@klmaccountants.com.au,02 4908 0400,2290,NSW,Charlestown,http://www.klmaccountants.com.au
Henry Street,Neil Marshall Tax and Business Advice PTY LTD,AU,marshallnw@bigpond.com,02 4945 1395,2280,NSW,Belmont,http://www.neilmarshalltaxandbusiness.com.au/
Hopetoun Street,PDH Accounting Services Pty Ltd,AU,admin@pdhaccounting.com.au,02 49434475,2290,NSW,Charlestown,http://pdhaccounting.com.au/
Frederick Street,G Buckton,AU,bucktongr@yahoo.com.au,02 49659059,2280,NSW,Valentine,
Angophora Drive,iPacific Accountant Pty Ltd,AU,,,2304,NSW,Warabrook,
Douglas Street,GC Accountants,AU,garyc@gcaccountants.com.au,02 4956 1640,2287,NSW,Wallsend,http://www.gcaccountants.com.au
Howe Street,G C Accountants Pty Ltd,AU,mail@gcaccountants.com.au,02 49561640,2299,NSW,Lambton,http://www.gcaccountants.com.au
Maitland Road,Miles Investments Pty Ltd,AU,adrian@ajwmilesandson.com.au,02 49672699,2304,NSW,Mayfield,
Serenity Crescent,Precision Taxation Accounting & Management,AU,peter@ptam.com.au,1300007826,2287,NSW,Fletcher,
Maitland Road,Hunter Accounting Services Pty Ltd,AU,marco@hunteraccounting.com.au,02 49681740,2304,NSW,Mayfield,http://www.hunteraccounting.com.au
Virgo Street,Scott Sharp,AU,scottsharp79@gmail.com,0407906978,2287,NSW,Elermore Vale,
Arnott Street,A J Dorse Accounting,AU,ashley@ajdorseaccounting.com.au,(02) 4048 2175,2287,NSW,Edgeworth,http://www.ajdorseaccounting.com.au
Mair Street,Riverina Accounting,AU,markrivacc@gmail.com,02 69250741,2650,NSW,Turvey Park,
Dobbs Street,Samuelson & Giacca,AU,paul@samuelsongiacca.com.au,02 69214845,2650,NSW,Wagga Wagga,http://www.samuelsongiacca.com.au
Eurdein Lane,Paisley Robertson,AU,npayton@paisleyrobertson.com.au,02 6921 4566,2650,NSW,Wagga Wagga,http://www.paisleyrobertson.com.au
Railway Street,Audit & Risk Solutions Pty Ltd,AU,vickie.newton@auditrisk.com.au,0269213682,2650,NSW,Turvey Park,
Lake Albert Road,Velocity Business Solutions,AU,darren.atkinson@velocitybs.com.au,02 59088600,2650,NSW,Kooringal,http://www.velocitybs.com.au
Angophora Drive,iPacific Accountant Pty Ltd,AU,,,2304,NSW,Warabrook,
Howe Street,G C Accountants Pty Ltd,AU,mail@gcaccountants.com.au,02 49561640,2299,NSW,Lambton,http://www.gcaccountants.com.au
Douglas Street,GC Accountants,AU,garyc@gcaccountants.com.au,02 4956 1640,2287,NSW,Wallsend,http://www.gcaccountants.com.au
Maitland Road,Miles Investments Pty Ltd,AU,adrian@ajwmilesandson.com.au,02 49672699,2304,NSW,Mayfield,
Maitland Road,Hunter Accounting Services Pty Ltd,AU,marco@hunteraccounting.com.au,02 49681740,2304,NSW,Mayfield,http://www.hunteraccounting.com.au
Virgo Street,Scott Sharp,AU,scottsharp79@gmail.com,0407906978,2287,NSW,Elermore Vale,
Serenity Crescent,Precision Taxation Accounting & Management,AU,peter@ptam.com.au,1300007826,2287,NSW,Fletcher,
Arnott Street,A J Dorse Accounting,AU,ashley@ajdorseaccounting.com.au,(02) 4048 2175,2287,NSW,Edgeworth,http://www.ajdorseaccounting.com.au
Dungog Road,Catherine Forrester,AU,forrestertax@outlook.com,0427956256,2420,NSW,,
Dowling Street,Addison Partners Pty Ltd,AU,sberry@addisonpartners.com.au,02 49957300,2420,NSW,,http://www.addisonpartners.com.au
Dowling Street,Addison Partners Pty Ltd,AU,sberry@addisonpartners.com.au,02 49957300,2420,NSW,,http://www.addisonpartners.com.au
Dungog Road,Catherine Forrester,AU,forrestertax@outlook.com,0427956256,2420,NSW,,
Dungog Road,Catherine Forrester,AU,forrestertax@outlook.com,0427956256,2420,NSW,,
Dowling Street,Addison Partners Pty Ltd,AU,sberry@addisonpartners.com.au,02 49957300,2420,NSW,,http://www.addisonpartners.com.au
Dowling Street,Addison Partners Pty Ltd,AU,sberry@addisonpartners.com.au,02 49957300,2420,NSW,,http://www.addisonpartners.com.au
Dungog Road,Catherine Forrester,AU,forrestertax@outlook.com,0427956256,2420,NSW,,
Dungog Road,Catherine Forrester,AU,forrestertax@outlook.com,0427956256,2420,NSW,,
Dowling Street,Addison Partners Pty Ltd,AU,sberry@addisonpartners.com.au,02 49957300,2420,NSW,,http://www.addisonpartners.com.au
Dowling Street,Addison Partners Pty Ltd,AU,sberry@addisonpartners.com.au,02 49957300,2420,NSW,,http://www.addisonpartners.com.au
Dungog Road,Catherine Forrester,AU,forrestertax@outlook.com,0427956256,2420,NSW,,
Dungog Road,Catherine Forrester,AU,forrestertax@outlook.com,0427956256,2420,NSW,,
Dowling Street,Addison Partners Pty Ltd,AU,sberry@addisonpartners.com.au,02 49957300,2420,NSW,,http://www.addisonpartners.com.au
Dungog Road,Catherine Forrester,AU,forrestertax@outlook.com,0427956256,2420,NSW,,
Dowling Street,Addison Partners Pty Ltd,AU,sberry@addisonpartners.com.au,02 49957300,2420,NSW,,http://www.addisonpartners.com.au
Dowling Street,Addison Partners Pty Ltd,AU,sberry@addisonpartners.com.au,02 49957300,2420,NSW,,http://www.addisonpartners.com.au
Dungog Road,Catherine Forrester,AU,forrestertax@outlook.com,0427956256,2420,NSW,,
Manning Street,Beaver Novello Moss,AU,info@bnm.com.au,02 65548311,2428,NSW,,http://www.bnm.com.au/
Wallis Street,Peer Wealth,AU,doug@peerwealth.com.au,02 8014 7608,2428,NSW,,http://www.peerwealth.com.au
Boona Street,Mid Coast Accountants,AU,chris@midcoastaccountants.com.au,0265549666,2428,NSW,,http://www.midcoastaccountants.com.au
Allen Avenue,Accountants and More Pty Ltd,AU,office@accountantsandmore.com.au,02 65556999,2428,NSW,,http://www.accountantsandmore.com.au
Vincent Close,2020 Business Accountants Pty Ltd,AU,2020@westnet.com.au,0427 522 277,2430,NSW,,
Victoria Street,Weeks Accounting,AU,luke@weeksaccounting.com.au,0265513331,2430,NSW,Taree,
Waterman Street,Collison Accounting Pty Ltd,AU,collisonpn@bigpond.com,02 65533235,2430,NSW,,http://www.collinsaccounting.com.au
Vincent Close,2020 Business Accountants Pty Ltd,AU,2020@westnet.com.au,0427 522 277,2430,NSW,,
Victoria Street,Weeks Accounting,AU,luke@weeksaccounting.com.au,0265513331,2430,NSW,Taree,
Waterman Street,Collison Accounting Pty Ltd,AU,collisonpn@bigpond.com,02 65533235,2430,NSW,,http://www.collinsaccounting.com.au
Sturgeon Street,TJC Accounting Practice,AU,tony@tjcaccounting.com.au,02 4980 3000,2324,NSW,Raymond Terrace,http://tjcaccounting.com.au/
William Street,Bowling & Associates,AU,damien@djcooper.com.au,02 49831611,2324,NSW,Raymond Terrace,http://www.bowlinggroup.com.au
Donald Street,Buckley Richardson Partners,AU,mreid@brpartners.com.au,49849433,2315,NSW,,http://www.brpartners.com.au/
Donald Street,Buckley Richardson Partners,AU,mreid@brpartners.com.au,49849433,2315,NSW,,http://www.brpartners.com.au/
Donald Street,Buckley Richardson Partners,AU,mreid@brpartners.com.au,49849433,2315,NSW,,http://www.brpartners.com.au/
Donald Street,Buckley Richardson Partners,AU,mreid@brpartners.com.au,49849433,2315,NSW,,http://www.brpartners.com.au/
Donald Street,Buckley Richardson Partners,AU,mreid@brpartners.com.au,49849433,2315,NSW,,http://www.brpartners.com.au/
Sturgeon Street,TJC Accounting Practice,AU,tony@tjcaccounting.com.au,02 4980 3000,2324,NSW,Raymond Terrace,http://tjcaccounting.com.au/
William Street,Bowling & Associates,AU,damien@djcooper.com.au,02 49831611,2324,NSW,Raymond Terrace,http://www.bowlinggroup.com.au
Donald Street,Buckley Richardson Partners,AU,mreid@brpartners.com.au,49849433,2315,NSW,,http://www.brpartners.com.au/
Donald Street,Buckley Richardson Partners,AU,mreid@brpartners.com.au,49849433,2315,NSW,,http://www.brpartners.com.au/
Sturgeon Street,TJC Accounting Practice,AU,tony@tjcaccounting.com.au,02 4980 3000,2324,NSW,Raymond Terrace,http://tjcaccounting.com.au/
William Street,Bowling & Associates,AU,damien@djcooper.com.au,02 49831611,2324,NSW,Raymond Terrace,http://www.bowlinggroup.com.au
Donald Street,Buckley Richardson Partners,AU,mreid@brpartners.com.au,49849433,2315,NSW,,http://www.brpartners.com.au/
Donald Street,Buckley Richardson Partners,AU,mreid@brpartners.com.au,49849433,2315,NSW,,http://www.brpartners.com.au/
Donald Street,Buckley Richardson Partners,AU,mreid@brpartners.com.au,49849433,2315,NSW,,http://www.brpartners.com.au/
Donald Street,Buckley Richardson Partners,AU,mreid@brpartners.com.au,49849433,2315,NSW,,http://www.brpartners.com.au/
Sturgeon Street,TJC Accounting Practice,AU,tony@tjcaccounting.com.au,02 4980 3000,2324,NSW,Raymond Terrace,http://tjcaccounting.com.au/
William Street,Bowling & Associates,AU,damien@djcooper.com.au,02 49831611,2324,NSW,Raymond Terrace,http://www.bowlinggroup.com.au
Donald Street,Buckley Richardson Partners,AU,mreid@brpartners.com.au,49849433,2315,NSW,,http://www.brpartners.com.au/
Sturgeon Street,TJC Accounting Practice,AU,tony@tjcaccounting.com.au,02 4980 3000,2324,NSW,Raymond Terrace,http://tjcaccounting.com.au/
William Street,Bowling & Associates,AU,damien@djcooper.com.au,02 49831611,2324,NSW,Raymond Terrace,http://www.bowlinggroup.com.au
Sturgeon Street,TJC Accounting Practice,AU,tony@tjcaccounting.com.au,02 4980 3000,2324,NSW,Raymond Terrace,http://tjcaccounting.com.au/
William Street,Bowling & Associates,AU,damien@djcooper.com.au,02 49831611,2324,NSW,Raymond Terrace,http://www.bowlinggroup.com.au
Sturgeon Street,TJC Accounting Practice,AU,tony@tjcaccounting.com.au,02 4980 3000,2324,NSW,Raymond Terrace,http://tjcaccounting.com.au/
William Street,Bowling & Associates,AU,damien@djcooper.com.au,02 49831611,2324,NSW,Raymond Terrace,http://www.bowlinggroup.com.au
Maitland Road,Hunter Accounting Services Pty Ltd,AU,marco@hunteraccounting.com.au,02 49681740,2304,NSW,Mayfield,http://www.hunteraccounting.com.au
Maitland Road,Miles Investments Pty Ltd,AU,adrian@ajwmilesandson.com.au,02 49672699,2304,NSW,Mayfield,
Angophora Drive,iPacific Accountant Pty Ltd,AU,,,2304,NSW,Warabrook,
Sturgeon Street,TJC Accounting Practice,AU,tony@tjcaccounting.com.au,02 4980 3000,2324,NSW,Raymond Terrace,http://tjcaccounting.com.au/
William Street,Bowling & Associates,AU,damien@djcooper.com.au,02 49831611,2324,NSW,Raymond Terrace,http://www.bowlinggroup.com.au
Sturgeon Street,TJC Accounting Practice,AU,tony@tjcaccounting.com.au,02 4980 3000,2324,NSW,Raymond Terrace,http://tjcaccounting.com.au/
William Street,Bowling & Associates,AU,damien@djcooper.com.au,02 49831611,2324,NSW,Raymond Terrace,http://www.bowlinggroup.com.au
Sturgeon Street,TJC Accounting Practice,AU,tony@tjcaccounting.com.au,02 4980 3000,2324,NSW,Raymond Terrace,http://tjcaccounting.com.au/
William Street,Bowling & Associates,AU,damien@djcooper.com.au,02 49831611,2324,NSW,Raymond Terrace,http://www.bowlinggroup.com.au
Sturgeon Street,TJC Accounting Practice,AU,tony@tjcaccounting.com.au,02 4980 3000,2324,NSW,Raymond Terrace,http://tjcaccounting.com.au/
William Street,Bowling & Associates,AU,damien@djcooper.com.au,02 49831611,2324,NSW,Raymond Terrace,http://www.bowlinggroup.com.au
Maitland Road,Miles Investments Pty Ltd,AU,adrian@ajwmilesandson.com.au,02 49672699,2304,NSW,Mayfield,
Maitland Road,Hunter Accounting Services Pty Ltd,AU,marco@hunteraccounting.com.au,02 49681740,2304,NSW,Mayfield,http://www.hunteraccounting.com.au
Angophora Drive,iPacific Accountant Pty Ltd,AU,,,2304,NSW,Warabrook,
Forsythe Parade,P A Clulow,AU,phil.clulow@revtax.com.au,02 49665982,2322,NSW,Black Hill,
Donald Street,Buckley Richardson Partners,AU,mreid@brpartners.com.au,49849433,2315,NSW,,http://www.brpartners.com.au/
Sturgeon Street,TJC Accounting Practice,AU,tony@tjcaccounting.com.au,02 4980 3000,2324,NSW,Raymond Terrace,http://tjcaccounting.com.au/
William Street,Bowling & Associates,AU,damien@djcooper.com.au,02 49831611,2324,NSW,Raymond Terrace,http://www.bowlinggroup.com.au
Sturgeon Street,TJC Accounting Practice,AU,tony@tjcaccounting.com.au,02 4980 3000,2324,NSW,Raymond Terrace,http://tjcaccounting.com.au/
William Street,Bowling & Associates,AU,damien@djcooper.com.au,02 49831611,2324,NSW,Raymond Terrace,http://www.bowlinggroup.com.au
Sturgeon Street,TJC Accounting Practice,AU,tony@tjcaccounting.com.au,02 4980 3000,2324,NSW,Raymond Terrace,http://tjcaccounting.com.au/
William Street,Bowling & Associates,AU,damien@djcooper.com.au,02 49831611,2324,NSW,Raymond Terrace,http://www.bowlinggroup.com.au
High Street,Pearson Smart,AU,alasdair@pearsonsmart.com.au,02 49336966,2320,NSW,,http://www.pearsonsmart.com.au
New England Highway,Brophy Duncan Pty Ltd,AU,kristi@brophyduncan.com.au,02 49307329,2321,NSW,Lochinvar,
High Street,Pearson Smart,AU,alasdair@pearsonsmart.com.au,02 49336966,2320,NSW,,http://www.pearsonsmart.com.au
High Street,Pearson Smart,AU,alasdair@pearsonsmart.com.au,02 49336966,2320,NSW,,http://www.pearsonsmart.com.au
High Street,Pearson Smart,AU,alasdair@pearsonsmart.com.au,02 49336966,2320,NSW,,http://www.pearsonsmart.com.au
High Street,Pearson Smart,AU,alasdair@pearsonsmart.com.au,02 49336966,2320,NSW,,http://www.pearsonsmart.com.au
High Street,Pearson Smart,AU,alasdair@pearsonsmart.com.au,02 49336966,2320,NSW,,http://www.pearsonsmart.com.au
High Street,Pearson Smart,AU,alasdair@pearsonsmart.com.au,02 49336966,2320,NSW,,http://www.pearsonsmart.com.au
High Street,Pearson Smart,AU,alasdair@pearsonsmart.com.au,02 49336966,2320,NSW,,http://www.pearsonsmart.com.au
High Street,Pearson Smart,AU,alasdair@pearsonsmart.com.au,02 49336966,2320,NSW,,http://www.pearsonsmart.com.au
High Street,Pearson Smart,AU,alasdair@pearsonsmart.com.au,02 49336966,2320,NSW,,http://www.pearsonsmart.com.au
Melbourne Street,C. Merrick & Co. Pty Ltd & Lawes Street Accounting & Taxation Services Pty Ltd,AU,colmerrick@bigpond.com,02 49330393,2323,NSW,East Maitland,
Lawes Street,Bottrell Business Consultants Group Pty ltd,AU,andrew@bottrellaccounting.com.au,02 49336888,2323,NSW,East Maitland,https://www.bottrellaccounting.com.au/
Myra Street,Lawes Street Accounting & Taxation Services Pty Limited,AU,kerrin.moore@lawestreetaccounting.com.au,(02) 4933 0393,2323,NSW,East Maitland,http://www.lawesstreetaccounting.com.au
Maize Street,KLR Accounting,AU,kristie@klraccounting.com.au,02 4933 3434,2323,NSW,,http://www.klraccounting.com.au
Mitchell Drive,Excel Financial Advisors Pty Ltd,AU,admin@exceladvisors.com.au,02 49348844,2323,NSW,East Maitland,http://www.exceladvisors.com.au
High Street,Pearson Smart,AU,alasdair@pearsonsmart.com.au,02 49336966,2320,NSW,,http://www.pearsonsmart.com.au
High Street,Pearson Smart,AU,alasdair@pearsonsmart.com.au,02 49336966,2320,NSW,,http://www.pearsonsmart.com.au
New England Highway,Brophy Duncan Pty Ltd,AU,kristi@brophyduncan.com.au,02 49307329,2321,NSW,Lochinvar,
High Street,Pearson Smart,AU,alasdair@pearsonsmart.com.au,02 49336966,2320,NSW,,http://www.pearsonsmart.com.au
Melbourne Street,C. Merrick & Co. Pty Ltd & Lawes Street Accounting & Taxation Services Pty Ltd,AU,colmerrick@bigpond.com,02 49330393,2323,NSW,East Maitland,
Lawes Street,Bottrell Business Consultants Group Pty ltd,AU,andrew@bottrellaccounting.com.au,02 49336888,2323,NSW,East Maitland,https://www.bottrellaccounting.com.au/
Myra Street,Lawes Street Accounting & Taxation Services Pty Limited,AU,kerrin.moore@lawestreetaccounting.com.au,(02) 4933 0393,2323,NSW,East Maitland,http://www.lawesstreetaccounting.com.au
Maize Street,KLR Accounting,AU,kristie@klraccounting.com.au,02 4933 3434,2323,NSW,,http://www.klraccounting.com.au
Mitchell Drive,Excel Financial Advisors Pty Ltd,AU,admin@exceladvisors.com.au,02 49348844,2323,NSW,East Maitland,http://www.exceladvisors.com.au
Melbourne Street,C. Merrick & Co. Pty Ltd & Lawes Street Accounting & Taxation Services Pty Ltd,AU,colmerrick@bigpond.com,02 49330393,2323,NSW,East Maitland,
High Street,Pearson Smart,AU,alasdair@pearsonsmart.com.au,02 49336966,2320,NSW,,http://www.pearsonsmart.com.au
Lawes Street,Bottrell Business Consultants Group Pty ltd,AU,andrew@bottrellaccounting.com.au,02 49336888,2323,NSW,East Maitland,https://www.bottrellaccounting.com.au/
Myra Street,Lawes Street Accounting & Taxation Services Pty Limited,AU,kerrin.moore@lawestreetaccounting.com.au,(02) 4933 0393,2323,NSW,East Maitland,http://www.lawesstreetaccounting.com.au
Mitchell Drive,Excel Financial Advisors Pty Ltd,AU,admin@exceladvisors.com.au,02 49348844,2323,NSW,East Maitland,http://www.exceladvisors.com.au
Maize Street,KLR Accounting,AU,kristie@klraccounting.com.au,02 4933 3434,2323,NSW,,http://www.klraccounting.com.au
High Street,Pearson Smart,AU,alasdair@pearsonsmart.com.au,02 49336966,2320,NSW,,http://www.pearsonsmart.com.au
Melbourne Street,C. Merrick & Co. Pty Ltd & Lawes Street Accounting & Taxation Services Pty Ltd,AU,colmerrick@bigpond.com,02 49330393,2323,NSW,East Maitland,
Lawes Street,Bottrell Business Consultants Group Pty ltd,AU,andrew@bottrellaccounting.com.au,02 49336888,2323,NSW,East Maitland,https://www.bottrellaccounting.com.au/
Myra Street,Lawes Street Accounting & Taxation Services Pty Limited,AU,kerrin.moore@lawestreetaccounting.com.au,(02) 4933 0393,2323,NSW,East Maitland,http://www.lawesstreetaccounting.com.au
Mitchell Drive,Excel Financial Advisors Pty Ltd,AU,admin@exceladvisors.com.au,02 49348844,2323,NSW,East Maitland,http://www.exceladvisors.com.au
Maize Street,KLR Accounting,AU,kristie@klraccounting.com.au,02 4933 3434,2323,NSW,,http://www.klraccounting.com.au
High Street,Pearson Smart,AU,alasdair@pearsonsmart.com.au,02 49336966,2320,NSW,,http://www.pearsonsmart.com.au
High Street,Pearson Smart,AU,alasdair@pearsonsmart.com.au,02 49336966,2320,NSW,,http://www.pearsonsmart.com.au
High Street,Pearson Smart,AU,alasdair@pearsonsmart.com.au,02 49336966,2320,NSW,,http://www.pearsonsmart.com.au
High Street,Pearson Smart,AU,alasdair@pearsonsmart.com.au,02 49336966,2320,NSW,,http://www.pearsonsmart.com.au
New England Highway,Brophy Duncan Pty Ltd,AU,kristi@brophyduncan.com.au,02 49307329,2321,NSW,Lochinvar,
High Street,Pearson Smart,AU,alasdair@pearsonsmart.com.au,02 49336966,2320,NSW,,http://www.pearsonsmart.com.au
High Street,Pearson Smart,AU,alasdair@pearsonsmart.com.au,02 49336966,2320,NSW,,http://www.pearsonsmart.com.au
High Street,Pearson Smart,AU,alasdair@pearsonsmart.com.au,02 49336966,2320,NSW,,http://www.pearsonsmart.com.au
High Street,Pearson Smart,AU,alasdair@pearsonsmart.com.au,02 49336966,2320,NSW,,http://www.pearsonsmart.com.au
High Street,Pearson Smart,AU,alasdair@pearsonsmart.com.au,02 49336966,2320,NSW,,http://www.pearsonsmart.com.au
Chapman Street,RHK Equities Pty Ltd,AU,info@rhkequities.com.au,02 49919119,2325,NSW,Cessnock,http://www.rhkequities.com.au
Sandy Creek Road,David J Doberer,AU,david.doberer@bigpond.com,02 49986011,2325,NSW,Cessnock,
High Street,Pearson Smart,AU,alasdair@pearsonsmart.com.au,02 49336966,2320,NSW,,http://www.pearsonsmart.com.au
,Ryan Accounting Taxation & Business Services,AU,mail@ryanaccounting.com.au,02 4990 2673,2325,England,Temple,http://www.ryanaccounting.com.au/
High Street,Pearson Smart,AU,alasdair@pearsonsmart.com.au,02 49336966,2320,NSW,,http://www.pearsonsmart.com.au
Melbourne Street,C. Merrick & Co. Pty Ltd & Lawes Street Accounting & Taxation Services Pty Ltd,AU,colmerrick@bigpond.com,02 49330393,2323,NSW,East Maitland,
High Street,Pearson Smart,AU,alasdair@pearsonsmart.com.au,02 49336966,2320,NSW,,http://www.pearsonsmart.com.au
Lawes Street,Bottrell Business Consultants Group Pty ltd,AU,andrew@bottrellaccounting.com.au,02 49336888,2323,NSW,East Maitland,https://www.bottrellaccounting.com.au/
Myra Street,Lawes Street Accounting & Taxation Services Pty Limited,AU,kerrin.moore@lawestreetaccounting.com.au,(02) 4933 0393,2323,NSW,East Maitland,http://www.lawesstreetaccounting.com.au
Mitchell Drive,Excel Financial Advisors Pty Ltd,AU,admin@exceladvisors.com.au,02 49348844,2323,NSW,East Maitland,http://www.exceladvisors.com.au
Maize Street,KLR Accounting,AU,kristie@klraccounting.com.au,02 4933 3434,2323,NSW,,http://www.klraccounting.com.au
High Street,Pearson Smart,AU,alasdair@pearsonsmart.com.au,02 49336966,2320,NSW,,http://www.pearsonsmart.com.au
High Street,Pearson Smart,AU,alasdair@pearsonsmart.com.au,02 49336966,2320,NSW,,http://www.pearsonsmart.com.au
New England Highway,Brophy Duncan Pty Ltd,AU,kristi@brophyduncan.com.au,02 49307329,2321,NSW,Lochinvar,
High Street,Pearson Smart,AU,alasdair@pearsonsmart.com.au,02 49336966,2320,NSW,,http://www.pearsonsmart.com.au
Forsythe Parade,P A Clulow,AU,phil.clulow@revtax.com.au,02 49665982,2322,NSW,Black Hill,
New England Highway,Brophy Duncan Pty Ltd,AU,kristi@brophyduncan.com.au,02 49307329,2321,NSW,Lochinvar,
New England Highway,Brophy Duncan Pty Ltd,AU,kristi@brophyduncan.com.au,02 49307329,2321,NSW,Lochinvar,
New England Highway,Brophy Duncan Pty Ltd,AU,kristi@brophyduncan.com.au,02 49307329,2321,NSW,Lochinvar,
New England Highway,Brophy Duncan Pty Ltd,AU,kristi@brophyduncan.com.au,02 49307329,2321,NSW,Lochinvar,
William Street,Bowling & Associates,AU,damien@djcooper.com.au,02 49831611,2324,NSW,Raymond Terrace,http://www.bowlinggroup.com.au
Sturgeon Street,TJC Accounting Practice,AU,tony@tjcaccounting.com.au,02 4980 3000,2324,NSW,Raymond Terrace,http://tjcaccounting.com.au/
New England Highway,Brophy Duncan Pty Ltd,AU,kristi@brophyduncan.com.au,02 49307329,2321,NSW,Lochinvar,
New England Highway,Brophy Duncan Pty Ltd,AU,kristi@brophyduncan.com.au,02 49307329,2321,NSW,Lochinvar,
High Street,Pearson Smart,AU,alasdair@pearsonsmart.com.au,02 49336966,2320,NSW,,http://www.pearsonsmart.com.au
New England Highway,Brophy Duncan Pty Ltd,AU,kristi@brophyduncan.com.au,02 49307329,2321,NSW,Lochinvar,
New England Highway,Brophy Duncan Pty Ltd,AU,kristi@brophyduncan.com.au,02 49307329,2321,NSW,Lochinvar,
New England Highway,Brophy Duncan Pty Ltd,AU,kristi@brophyduncan.com.au,02 49307329,2321,NSW,Lochinvar,
New England Highway,Brophy Duncan Pty Ltd,AU,kristi@brophyduncan.com.au,02 49307329,2321,NSW,Lochinvar,
Hunter Expressway,A.S.K Ange,AU,askange@live.com.au,(042) 905-0274,2326,NSW,,
High Street,Pearson Smart,AU,alasdair@pearsonsmart.com.au,02 49336966,2320,NSW,,http://www.pearsonsmart.com.au
Chapman Street,RHK Equities Pty Ltd,AU,info@rhkequities.com.au,02 49919119,2325,NSW,Cessnock,http://www.rhkequities.com.au
Sandy Creek Road,David J Doberer,AU,david.doberer@bigpond.com,02 49986011,2325,NSW,Cessnock,
,Ryan Accounting Taxation & Business Services,AU,mail@ryanaccounting.com.au,02 4990 2673,2325,England,Temple,http://www.ryanaccounting.com.au/
Hunter Expressway,A.S.K Ange,AU,askange@live.com.au,(042) 905-0274,2326,NSW,,
Melbourne Street,C. Merrick & Co. Pty Ltd & Lawes Street Accounting & Taxation Services Pty Ltd,AU,colmerrick@bigpond.com,02 49330393,2323,NSW,East Maitland,
Mitchell Drive,Excel Financial Advisors Pty Ltd,AU,admin@exceladvisors.com.au,02 49348844,2323,NSW,East Maitland,http://www.exceladvisors.com.au
High Street,Pearson Smart,AU,alasdair@pearsonsmart.com.au,02 49336966,2320,NSW,,http://www.pearsonsmart.com.au
Lawes Street,Bottrell Business Consultants Group Pty ltd,AU,andrew@bottrellaccounting.com.au,02 49336888,2323,NSW,East Maitland,https://www.bottrellaccounting.com.au/
Myra Street,Lawes Street Accounting & Taxation Services Pty Limited,AU,kerrin.moore@lawestreetaccounting.com.au,(02) 4933 0393,2323,NSW,East Maitland,http://www.lawesstreetaccounting.com.au
Maize Street,KLR Accounting,AU,kristie@klraccounting.com.au,02 4933 3434,2323,NSW,,http://www.klraccounting.com.au
Forsythe Parade,P A Clulow,AU,phil.clulow@revtax.com.au,02 49665982,2322,NSW,Black Hill,
New England Highway,Brophy Duncan Pty Ltd,AU,kristi@brophyduncan.com.au,02 49307329,2321,NSW,Lochinvar,
Chapman Street,RHK Equities Pty Ltd,AU,info@rhkequities.com.au,02 49919119,2325,NSW,Cessnock,http://www.rhkequities.com.au
Serenity Crescent,Precision Taxation Accounting & Management,AU,peter@ptam.com.au,1300007826,2287,NSW,Fletcher,
Arnott Street,Summit Accounting & Taxation,AU,trina@summitacc.com.au,02 40131222,2285,NSW,Edgeworth,http://www.summitacc.com.au
Arnott Street,A J Dorse Accounting,AU,ashley@ajdorseaccounting.com.au,(02) 4048 2175,2287,NSW,Edgeworth,http://www.ajdorseaccounting.com.au
Sandy Creek Road,David J Doberer,AU,david.doberer@bigpond.com,02 49986011,2325,NSW,Cessnock,
Virgo Street,Scott Sharp,AU,scottsharp79@gmail.com,0407906978,2287,NSW,Elermore Vale,
Douglas Street,GC Accountants,AU,garyc@gcaccountants.com.au,02 4956 1640,2287,NSW,Wallsend,http://www.gcaccountants.com.au
Kirby Street,CNS Accounting Pty Ltd,AU,scott@cnsaccounting.com.au,0407 906 978,2285,NSW,Cardiff,http://www.cnsaccounting.com.au
,Ryan Accounting Taxation & Business Services,AU,mail@ryanaccounting.com.au,02 4990 2673,2325,England,Temple,http://www.ryanaccounting.com.au/
High Street,Pearson Smart,AU,alasdair@pearsonsmart.com.au,02 49336966,2320,NSW,,http://www.pearsonsmart.com.au
New England Highway,Brophy Duncan Pty Ltd,AU,kristi@brophyduncan.com.au,02 49307329,2321,NSW,Lochinvar,
New England Highway,Brophy Duncan Pty Ltd,AU,kristi@brophyduncan.com.au,02 49307329,2321,NSW,Lochinvar,
High Street,Pearson Smart,AU,alasdair@pearsonsmart.com.au,02 49336966,2320,NSW,,http://www.pearsonsmart.com.au
New England Highway,Brophy Duncan Pty Ltd,AU,kristi@brophyduncan.com.au,02 49307329,2321,NSW,Lochinvar,
Maize Street,KLR Accounting,AU,kristie@klraccounting.com.au,02 4933 3434,2323,NSW,,http://www.klraccounting.com.au
Myra Street,Lawes Street Accounting & Taxation Services Pty Limited,AU,kerrin.moore@lawestreetaccounting.com.au,(02) 4933 0393,2323,NSW,East Maitland,http://www.lawesstreetaccounting.com.au
Lawes Street,Bottrell Business Consultants Group Pty ltd,AU,andrew@bottrellaccounting.com.au,02 49336888,2323,NSW,East Maitland,https://www.bottrellaccounting.com.au/
Mitchell Drive,Excel Financial Advisors Pty Ltd,AU,admin@exceladvisors.com.au,02 49348844,2323,NSW,East Maitland,http://www.exceladvisors.com.au
Melbourne Street,C. Merrick & Co. Pty Ltd & Lawes Street Accounting & Taxation Services Pty Ltd,AU,colmerrick@bigpond.com,02 49330393,2323,NSW,East Maitland,
New England Highway,Brophy Duncan Pty Ltd,AU,kristi@brophyduncan.com.au,02 49307329,2321,NSW,Lochinvar,
New England Highway,Brophy Duncan Pty Ltd,AU,kristi@brophyduncan.com.au,02 49307329,2321,NSW,Lochinvar,
High Street,Pearson Smart,AU,alasdair@pearsonsmart.com.au,02 49336966,2320,NSW,,http://www.pearsonsmart.com.au
High Street,Pearson Smart,AU,alasdair@pearsonsmart.com.au,02 49336966,2320,NSW,,http://www.pearsonsmart.com.au
New England Highway,Brophy Duncan Pty Ltd,AU,kristi@brophyduncan.com.au,02 49307329,2321,NSW,Lochinvar,
Maize Street,KLR Accounting,AU,kristie@klraccounting.com.au,02 4933 3434,2323,NSW,,http://www.klraccounting.com.au
Myra Street,Lawes Street Accounting & Taxation Services Pty Limited,AU,kerrin.moore@lawestreetaccounting.com.au,(02) 4933 0393,2323,NSW,East Maitland,http://www.lawesstreetaccounting.com.au
Lawes Street,Bottrell Business Consultants Group Pty ltd,AU,andrew@bottrellaccounting.com.au,02 49336888,2323,NSW,East Maitland,https://www.bottrellaccounting.com.au/
Melbourne Street,C. Merrick & Co. Pty Ltd & Lawes Street Accounting & Taxation Services Pty Ltd,AU,colmerrick@bigpond.com,02 49330393,2323,NSW,East Maitland,
Mitchell Drive,Excel Financial Advisors Pty Ltd,AU,admin@exceladvisors.com.au,02 49348844,2323,NSW,East Maitland,http://www.exceladvisors.com.au
New England Highway,Brophy Duncan Pty Ltd,AU,kristi@brophyduncan.com.au,02 49307329,2321,NSW,Lochinvar,
High Street,Pearson Smart,AU,alasdair@pearsonsmart.com.au,02 49336966,2320,NSW,,http://www.pearsonsmart.com.au
New England Highway,Brophy Duncan Pty Ltd,AU,kristi@brophyduncan.com.au,02 49307329,2321,NSW,Lochinvar,
Forsythe Parade,P A Clulow,AU,phil.clulow@revtax.com.au,02 49665982,2322,NSW,Black Hill,
Mitchell Drive,Excel Financial Advisors Pty Ltd,AU,admin@exceladvisors.com.au,02 49348844,2323,NSW,East Maitland,http://www.exceladvisors.com.au
Myra Street,Lawes Street Accounting & Taxation Services Pty Limited,AU,kerrin.moore@lawestreetaccounting.com.au,(02) 4933 0393,2323,NSW,East Maitland,http://www.lawesstreetaccounting.com.au
Lawes Street,Bottrell Business Consultants Group Pty ltd,AU,andrew@bottrellaccounting.com.au,02 49336888,2323,NSW,East Maitland,https://www.bottrellaccounting.com.au/
Melbourne Street,C. Merrick & Co. Pty Ltd & Lawes Street Accounting & Taxation Services Pty Ltd,AU,colmerrick@bigpond.com,02 49330393,2323,NSW,East Maitland,
Maize Street,KLR Accounting,AU,kristie@klraccounting.com.au,02 4933 3434,2323,NSW,,http://www.klraccounting.com.au
Forsythe Parade,P A Clulow,AU,phil.clulow@revtax.com.au,02 49665982,2322,NSW,Black Hill,
Forsythe Parade,P A Clulow,AU,phil.clulow@revtax.com.au,02 49665982,2322,NSW,Black Hill,
Serenity Crescent,Precision Taxation Accounting & Management,AU,peter@ptam.com.au,1300007826,2287,NSW,Fletcher,
Douglas Street,GC Accountants,AU,garyc@gcaccountants.com.au,02 4956 1640,2287,NSW,Wallsend,http://www.gcaccountants.com.au
Virgo Street,Scott Sharp,AU,scottsharp79@gmail.com,0407906978,2287,NSW,Elermore Vale,
Arnott Street,A J Dorse Accounting,AU,ashley@ajdorseaccounting.com.au,(02) 4048 2175,2287,NSW,Edgeworth,http://www.ajdorseaccounting.com.au
Serenity Crescent,Precision Taxation Accounting & Management,AU,peter@ptam.com.au,1300007826,2287,NSW,Fletcher,
Forsythe Parade,P A Clulow,AU,phil.clulow@revtax.com.au,02 49665982,2322,NSW,Black Hill,
Arnott Street,A J Dorse Accounting,AU,ashley@ajdorseaccounting.com.au,(02) 4048 2175,2287,NSW,Edgeworth,http://www.ajdorseaccounting.com.au
Virgo Street,Scott Sharp,AU,scottsharp79@gmail.com,0407906978,2287,NSW,Elermore Vale,
Douglas Street,GC Accountants,AU,garyc@gcaccountants.com.au,02 4956 1640,2287,NSW,Wallsend,http://www.gcaccountants.com.au
Forsythe Parade,P A Clulow,AU,phil.clulow@revtax.com.au,02 49665982,2322,NSW,Black Hill,
Mitchell Drive,Excel Financial Advisors Pty Ltd,AU,admin@exceladvisors.com.au,02 49348844,2323,NSW,East Maitland,http://www.exceladvisors.com.au
Maize Street,KLR Accounting,AU,kristie@klraccounting.com.au,02 4933 3434,2323,NSW,,http://www.klraccounting.com.au
Myra Street,Lawes Street Accounting & Taxation Services Pty Limited,AU,kerrin.moore@lawestreetaccounting.com.au,(02) 4933 0393,2323,NSW,East Maitland,http://www.lawesstreetaccounting.com.au
Lawes Street,Bottrell Business Consultants Group Pty ltd,AU,andrew@bottrellaccounting.com.au,02 49336888,2323,NSW,East Maitland,https://www.bottrellaccounting.com.au/
Forsythe Parade,P A Clulow,AU,phil.clulow@revtax.com.au,02 49665982,2322,NSW,Black Hill,
Melbourne Street,C. Merrick & Co. Pty Ltd & Lawes Street Accounting & Taxation Services Pty Ltd,AU,colmerrick@bigpond.com,02 49330393,2323,NSW,East Maitland,
Forsythe Parade,P A Clulow,AU,phil.clulow@revtax.com.au,02 49665982,2322,NSW,Black Hill,
Forsythe Parade,P A Clulow,AU,phil.clulow@revtax.com.au,02 49665982,2322,NSW,Black Hill,
Mitchell Drive,Excel Financial Advisors Pty Ltd,AU,admin@exceladvisors.com.au,02 49348844,2323,NSW,East Maitland,http://www.exceladvisors.com.au
Myra Street,Lawes Street Accounting & Taxation Services Pty Limited,AU,kerrin.moore@lawestreetaccounting.com.au,(02) 4933 0393,2323,NSW,East Maitland,http://www.lawesstreetaccounting.com.au
Lawes Street,Bottrell Business Consultants Group Pty ltd,AU,andrew@bottrellaccounting.com.au,02 49336888,2323,NSW,East Maitland,https://www.bottrellaccounting.com.au/
Maize Street,KLR Accounting,AU,kristie@klraccounting.com.au,02 4933 3434,2323,NSW,,http://www.klraccounting.com.au
Melbourne Street,C. Merrick & Co. Pty Ltd & Lawes Street Accounting & Taxation Services Pty Ltd,AU,colmerrick@bigpond.com,02 49330393,2323,NSW,East Maitland,
Mitchell Drive,Excel Financial Advisors Pty Ltd,AU,admin@exceladvisors.com.au,02 49348844,2323,NSW,East Maitland,http://www.exceladvisors.com.au
Melbourne Street,C. Merrick & Co. Pty Ltd & Lawes Street Accounting & Taxation Services Pty Ltd,AU,colmerrick@bigpond.com,02 49330393,2323,NSW,East Maitland,
Myra Street,Lawes Street Accounting & Taxation Services Pty Limited,AU,kerrin.moore@lawestreetaccounting.com.au,(02) 4933 0393,2323,NSW,East Maitland,http://www.lawesstreetaccounting.com.au
Lawes Street,Bottrell Business Consultants Group Pty ltd,AU,andrew@bottrellaccounting.com.au,02 49336888,2323,NSW,East Maitland,https://www.bottrellaccounting.com.au/
Maize Street,KLR Accounting,AU,kristie@klraccounting.com.au,02 4933 3434,2323,NSW,,http://www.klraccounting.com.au
Mitchell Drive,Excel Financial Advisors Pty Ltd,AU,admin@exceladvisors.com.au,02 49348844,2323,NSW,East Maitland,http://www.exceladvisors.com.au
Melbourne Street,C. Merrick & Co. Pty Ltd & Lawes Street Accounting & Taxation Services Pty Ltd,AU,colmerrick@bigpond.com,02 49330393,2323,NSW,East Maitland,
Myra Street,Lawes Street Accounting & Taxation Services Pty Limited,AU,kerrin.moore@lawestreetaccounting.com.au,(02) 4933 0393,2323,NSW,East Maitland,http://www.lawesstreetaccounting.com.au
Lawes Street,Bottrell Business Consultants Group Pty ltd,AU,andrew@bottrellaccounting.com.au,02 49336888,2323,NSW,East Maitland,https://www.bottrellaccounting.com.au/
Maize Street,KLR Accounting,AU,kristie@klraccounting.com.au,02 4933 3434,2323,NSW,,http://www.klraccounting.com.au
Mitchell Drive,Excel Financial Advisors Pty Ltd,AU,admin@exceladvisors.com.au,02 49348844,2323,NSW,East Maitland,http://www.exceladvisors.com.au
Melbourne Street,C. Merrick & Co. Pty Ltd & Lawes Street Accounting & Taxation Services Pty Ltd,AU,colmerrick@bigpond.com,02 49330393,2323,NSW,East Maitland,
Myra Street,Lawes Street Accounting & Taxation Services Pty Limited,AU,kerrin.moore@lawestreetaccounting.com.au,(02) 4933 0393,2323,NSW,East Maitland,http://www.lawesstreetaccounting.com.au
Lawes Street,Bottrell Business Consultants Group Pty ltd,AU,andrew@bottrellaccounting.com.au,02 49336888,2323,NSW,East Maitland,https://www.bottrellaccounting.com.au/
Maize Street,KLR Accounting,AU,kristie@klraccounting.com.au,02 4933 3434,2323,NSW,,http://www.klraccounting.com.au
Myra Street,Lawes Street Accounting & Taxation Services Pty Limited,AU,kerrin.moore@lawestreetaccounting.com.au,(02) 4933 0393,2323,NSW,East Maitland,http://www.lawesstreetaccounting.com.au
Lawes Street,Bottrell Business Consultants Group Pty ltd,AU,andrew@bottrellaccounting.com.au,02 49336888,2323,NSW,East Maitland,https://www.bottrellaccounting.com.au/
Mitchell Drive,Excel Financial Advisors Pty Ltd,AU,admin@exceladvisors.com.au,02 49348844,2323,NSW,East Maitland,http://www.exceladvisors.com.au
Melbourne Street,C. Merrick & Co. Pty Ltd & Lawes Street Accounting & Taxation Services Pty Ltd,AU,colmerrick@bigpond.com,02 49330393,2323,NSW,East Maitland,
Maize Street,KLR Accounting,AU,kristie@klraccounting.com.au,02 4933 3434,2323,NSW,,http://www.klraccounting.com.au
High Street,Pearson Smart,AU,alasdair@pearsonsmart.com.au,02 49336966,2320,NSW,,http://www.pearsonsmart.com.au
Mitchell Drive,Excel Financial Advisors Pty Ltd,AU,admin@exceladvisors.com.au,02 49348844,2323,NSW,East Maitland,http://www.exceladvisors.com.au
Melbourne Street,C. Merrick & Co. Pty Ltd & Lawes Street Accounting & Taxation Services Pty Ltd,AU,colmerrick@bigpond.com,02 49330393,2323,NSW,East Maitland,
Myra Street,Lawes Street Accounting & Taxation Services Pty Limited,AU,kerrin.moore@lawestreetaccounting.com.au,(02) 4933 0393,2323,NSW,East Maitland,http://www.lawesstreetaccounting.com.au
Lawes Street,Bottrell Business Consultants Group Pty ltd,AU,andrew@bottrellaccounting.com.au,02 49336888,2323,NSW,East Maitland,https://www.bottrellaccounting.com.au/
Maize Street,KLR Accounting,AU,kristie@klraccounting.com.au,02 4933 3434,2323,NSW,,http://www.klraccounting.com.au
Bradley Street,Cross Country Taxation,AU,mail@cctax.com.au,02 67792550,2365,NSW,,
Mitchell Drive,Excel Financial Advisors Pty Ltd,AU,admin@exceladvisors.com.au,02 49348844,2323,NSW,East Maitland,http://www.exceladvisors.com.au
Myra Street,Lawes Street Accounting & Taxation Services Pty Limited,AU,kerrin.moore@lawestreetaccounting.com.au,(02) 4933 0393,2323,NSW,East Maitland,http://www.lawesstreetaccounting.com.au
Lawes Street,Bottrell Business Consultants Group Pty ltd,AU,andrew@bottrellaccounting.com.au,02 49336888,2323,NSW,East Maitland,https://www.bottrellaccounting.com.au/
Maize Street,KLR Accounting,AU,kristie@klraccounting.com.au,02 4933 3434,2323,NSW,,http://www.klraccounting.com.au
Melbourne Street,C. Merrick & Co. Pty Ltd & Lawes Street Accounting & Taxation Services Pty Ltd,AU,colmerrick@bigpond.com,02 49330393,2323,NSW,East Maitland,
Forsythe Parade,P A Clulow,AU,phil.clulow@revtax.com.au,02 49665982,2322,NSW,Black Hill,
Mitchell Drive,Excel Financial Advisors Pty Ltd,AU,admin@exceladvisors.com.au,02 49348844,2323,NSW,East Maitland,http://www.exceladvisors.com.au
Melbourne Street,C. Merrick & Co. Pty Ltd & Lawes Street Accounting & Taxation Services Pty Ltd,AU,colmerrick@bigpond.com,02 49330393,2323,NSW,East Maitland,
Myra Street,Lawes Street Accounting & Taxation Services Pty Limited,AU,kerrin.moore@lawestreetaccounting.com.au,(02) 4933 0393,2323,NSW,East Maitland,http://www.lawesstreetaccounting.com.au
Lawes Street,Bottrell Business Consultants Group Pty ltd,AU,andrew@bottrellaccounting.com.au,02 49336888,2323,NSW,East Maitland,https://www.bottrellaccounting.com.au/
Maize Street,KLR Accounting,AU,kristie@klraccounting.com.au,02 4933 3434,2323,NSW,,http://www.klraccounting.com.au
Mitchell Drive,Excel Financial Advisors Pty Ltd,AU,admin@exceladvisors.com.au,02 49348844,2323,NSW,East Maitland,http://www.exceladvisors.com.au
Melbourne Street,C. Merrick & Co. Pty Ltd & Lawes Street Accounting & Taxation Services Pty Ltd,AU,colmerrick@bigpond.com,02 49330393,2323,NSW,East Maitland,
Myra Street,Lawes Street Accounting & Taxation Services Pty Limited,AU,kerrin.moore@lawestreetaccounting.com.au,(02) 4933 0393,2323,NSW,East Maitland,http://www.lawesstreetaccounting.com.au
Lawes Street,Bottrell Business Consultants Group Pty ltd,AU,andrew@bottrellaccounting.com.au,02 49336888,2323,NSW,East Maitland,https://www.bottrellaccounting.com.au/
Maize Street,KLR Accounting,AU,kristie@klraccounting.com.au,02 4933 3434,2323,NSW,,http://www.klraccounting.com.au
Maize Street,KLR Accounting,AU,kristie@klraccounting.com.au,02 4933 3434,2323,NSW,,http://www.klraccounting.com.au
Lawes Street,Bottrell Business Consultants Group Pty ltd,AU,andrew@bottrellaccounting.com.au,02 49336888,2323,NSW,East Maitland,https://www.bottrellaccounting.com.au/
Myra Street,Lawes Street Accounting & Taxation Services Pty Limited,AU,kerrin.moore@lawestreetaccounting.com.au,(02) 4933 0393,2323,NSW,East Maitland,http://www.lawesstreetaccounting.com.au
Melbourne Street,C. Merrick & Co. Pty Ltd & Lawes Street Accounting & Taxation Services Pty Ltd,AU,colmerrick@bigpond.com,02 49330393,2323,NSW,East Maitland,
High Street,Pearson Smart,AU,alasdair@pearsonsmart.com.au,02 49336966,2320,NSW,,http://www.pearsonsmart.com.au
Mitchell Drive,Excel Financial Advisors Pty Ltd,AU,admin@exceladvisors.com.au,02 49348844,2323,NSW,East Maitland,http://www.exceladvisors.com.au
New England Highway,Brophy Duncan Pty Ltd,AU,kristi@brophyduncan.com.au,02 49307329,2321,NSW,Lochinvar,
Mitchell Drive,Excel Financial Advisors Pty Ltd,AU,admin@exceladvisors.com.au,02 49348844,2323,NSW,East Maitland,http://www.exceladvisors.com.au
Melbourne Street,C. Merrick & Co. Pty Ltd & Lawes Street Accounting & Taxation Services Pty Ltd,AU,colmerrick@bigpond.com,02 49330393,2323,NSW,East Maitland,
Lawes Street,Bottrell Business Consultants Group Pty ltd,AU,andrew@bottrellaccounting.com.au,02 49336888,2323,NSW,East Maitland,https://www.bottrellaccounting.com.au/
Myra Street,Lawes Street Accounting & Taxation Services Pty Limited,AU,kerrin.moore@lawestreetaccounting.com.au,(02) 4933 0393,2323,NSW,East Maitland,http://www.lawesstreetaccounting.com.au
Maize Street,KLR Accounting,AU,kristie@klraccounting.com.au,02 4933 3434,2323,NSW,,http://www.klraccounting.com.au
Maize Street,KLR Accounting,AU,kristie@klraccounting.com.au,02 4933 3434,2323,NSW,,http://www.klraccounting.com.au
Myra Street,Lawes Street Accounting & Taxation Services Pty Limited,AU,kerrin.moore@lawestreetaccounting.com.au,(02) 4933 0393,2323,NSW,East Maitland,http://www.lawesstreetaccounting.com.au
Lawes Street,Bottrell Business Consultants Group Pty ltd,AU,andrew@bottrellaccounting.com.au,02 49336888,2323,NSW,East Maitland,https://www.bottrellaccounting.com.au/
Mitchell Drive,Excel Financial Advisors Pty Ltd,AU,admin@exceladvisors.com.au,02 49348844,2323,NSW,East Maitland,http://www.exceladvisors.com.au
Melbourne Street,C. Merrick & Co. Pty Ltd & Lawes Street Accounting & Taxation Services Pty Ltd,AU,colmerrick@bigpond.com,02 49330393,2323,NSW,East Maitland,
New England Highway,Brophy Duncan Pty Ltd,AU,kristi@brophyduncan.com.au,02 49307329,2321,NSW,Lochinvar,
William Street,Bowling & Associates,AU,damien@djcooper.com.au,02 49831611,2324,NSW,Raymond Terrace,http://www.bowlinggroup.com.au
Sturgeon Street,TJC Accounting Practice,AU,tony@tjcaccounting.com.au,02 4980 3000,2324,NSW,Raymond Terrace,http://tjcaccounting.com.au/
William Street,Bowling & Associates,AU,damien@djcooper.com.au,02 49831611,2324,NSW,Raymond Terrace,http://www.bowlinggroup.com.au
Sturgeon Street,TJC Accounting Practice,AU,tony@tjcaccounting.com.au,02 4980 3000,2324,NSW,Raymond Terrace,http://tjcaccounting.com.au/
William Street,Bowling & Associates,AU,damien@djcooper.com.au,02 49831611,2324,NSW,Raymond Terrace,http://www.bowlinggroup.com.au
Sturgeon Street,TJC Accounting Practice,AU,tony@tjcaccounting.com.au,02 4980 3000,2324,NSW,Raymond Terrace,http://tjcaccounting.com.au/
William Street,Bowling & Associates,AU,damien@djcooper.com.au,02 49831611,2324,NSW,Raymond Terrace,http://www.bowlinggroup.com.au
Sturgeon Street,TJC Accounting Practice,AU,tony@tjcaccounting.com.au,02 4980 3000,2324,NSW,Raymond Terrace,http://tjcaccounting.com.au/
William Street,Bowling & Associates,AU,damien@djcooper.com.au,02 49831611,2324,NSW,Raymond Terrace,http://www.bowlinggroup.com.au
Sturgeon Street,TJC Accounting Practice,AU,tony@tjcaccounting.com.au,02 4980 3000,2324,NSW,Raymond Terrace,http://tjcaccounting.com.au/
William Street,Bowling & Associates,AU,damien@djcooper.com.au,02 49831611,2324,NSW,Raymond Terrace,http://www.bowlinggroup.com.au
Sturgeon Street,TJC Accounting Practice,AU,tony@tjcaccounting.com.au,02 4980 3000,2324,NSW,Raymond Terrace,http://tjcaccounting.com.au/
Donald Street,Buckley Richardson Partners,AU,mreid@brpartners.com.au,49849433,2315,NSW,,http://www.brpartners.com.au/
Sturgeon Street,TJC Accounting Practice,AU,tony@tjcaccounting.com.au,02 4980 3000,2324,NSW,Raymond Terrace,http://tjcaccounting.com.au/
William Street,Bowling & Associates,AU,damien@djcooper.com.au,02 49831611,2324,NSW,Raymond Terrace,http://www.bowlinggroup.com.au
Sturgeon Street,TJC Accounting Practice,AU,tony@tjcaccounting.com.au,02 4980 3000,2324,NSW,Raymond Terrace,http://tjcaccounting.com.au/
William Street,Bowling & Associates,AU,damien@djcooper.com.au,02 49831611,2324,NSW,Raymond Terrace,http://www.bowlinggroup.com.au
William Street,Bowling & Associates,AU,damien@djcooper.com.au,02 49831611,2324,NSW,Raymond Terrace,http://www.bowlinggroup.com.au
Sturgeon Street,TJC Accounting Practice,AU,tony@tjcaccounting.com.au,02 4980 3000,2324,NSW,Raymond Terrace,http://tjcaccounting.com.au/
William Street,Bowling & Associates,AU,damien@djcooper.com.au,02 49831611,2324,NSW,Raymond Terrace,http://www.bowlinggroup.com.au
Sturgeon Street,TJC Accounting Practice,AU,tony@tjcaccounting.com.au,02 4980 3000,2324,NSW,Raymond Terrace,http://tjcaccounting.com.au/
William Street,Bowling & Associates,AU,damien@djcooper.com.au,02 49831611,2324,NSW,Raymond Terrace,http://www.bowlinggroup.com.au
Sturgeon Street,TJC Accounting Practice,AU,tony@tjcaccounting.com.au,02 4980 3000,2324,NSW,Raymond Terrace,http://tjcaccounting.com.au/
William Street,Bowling & Associates,AU,damien@djcooper.com.au,02 49831611,2324,NSW,Raymond Terrace,http://www.bowlinggroup.com.au
Sturgeon Street,TJC Accounting Practice,AU,tony@tjcaccounting.com.au,02 4980 3000,2324,NSW,Raymond Terrace,http://tjcaccounting.com.au/
William Street,Bowling & Associates,AU,damien@djcooper.com.au,02 49831611,2324,NSW,Raymond Terrace,http://www.bowlinggroup.com.au
Sturgeon Street,TJC Accounting Practice,AU,tony@tjcaccounting.com.au,02 4980 3000,2324,NSW,Raymond Terrace,http://tjcaccounting.com.au/
William Street,Bowling & Associates,AU,damien@djcooper.com.au,02 49831611,2324,NSW,Raymond Terrace,http://www.bowlinggroup.com.au
Sturgeon Street,TJC Accounting Practice,AU,tony@tjcaccounting.com.au,02 4980 3000,2324,NSW,Raymond Terrace,http://tjcaccounting.com.au/
New England Highway,Brophy Duncan Pty Ltd,AU,kristi@brophyduncan.com.au,02 49307329,2321,NSW,Lochinvar,
Sturgeon Street,TJC Accounting Practice,AU,tony@tjcaccounting.com.au,02 4980 3000,2324,NSW,Raymond Terrace,http://tjcaccounting.com.au/
William Street,Bowling & Associates,AU,damien@djcooper.com.au,02 49831611,2324,NSW,Raymond Terrace,http://www.bowlinggroup.com.au
Sturgeon Street,TJC Accounting Practice,AU,tony@tjcaccounting.com.au,02 4980 3000,2324,NSW,Raymond Terrace,http://tjcaccounting.com.au/
William Street,Bowling & Associates,AU,damien@djcooper.com.au,02 49831611,2324,NSW,Raymond Terrace,http://www.bowlinggroup.com.au
Sturgeon Street,TJC Accounting Practice,AU,tony@tjcaccounting.com.au,02 4980 3000,2324,NSW,Raymond Terrace,http://tjcaccounting.com.au/
William Street,Bowling & Associates,AU,damien@djcooper.com.au,02 49831611,2324,NSW,Raymond Terrace,http://www.bowlinggroup.com.au
William Street,Bowling & Associates,AU,damien@djcooper.com.au,02 49831611,2324,NSW,Raymond Terrace,http://www.bowlinggroup.com.au
Sturgeon Street,TJC Accounting Practice,AU,tony@tjcaccounting.com.au,02 4980 3000,2324,NSW,Raymond Terrace,http://tjcaccounting.com.au/
Sturgeon Street,TJC Accounting Practice,AU,tony@tjcaccounting.com.au,02 4980 3000,2324,NSW,Raymond Terrace,http://tjcaccounting.com.au/
William Street,Bowling & Associates,AU,damien@djcooper.com.au,02 49831611,2324,NSW,Raymond Terrace,http://www.bowlinggroup.com.au
William Street,Bowling & Associates,AU,damien@djcooper.com.au,02 49831611,2324,NSW,Raymond Terrace,http://www.bowlinggroup.com.au
Sturgeon Street,TJC Accounting Practice,AU,tony@tjcaccounting.com.au,02 4980 3000,2324,NSW,Raymond Terrace,http://tjcaccounting.com.au/
Sturgeon Street,TJC Accounting Practice,AU,tony@tjcaccounting.com.au,02 4980 3000,2324,NSW,Raymond Terrace,http://tjcaccounting.com.au/
William Street,Bowling & Associates,AU,damien@djcooper.com.au,02 49831611,2324,NSW,Raymond Terrace,http://www.bowlinggroup.com.au
William Street,Bowling & Associates,AU,damien@djcooper.com.au,02 49831611,2324,NSW,Raymond Terrace,http://www.bowlinggroup.com.au
Sturgeon Street,TJC Accounting Practice,AU,tony@tjcaccounting.com.au,02 4980 3000,2324,NSW,Raymond Terrace,http://tjcaccounting.com.au/
Chapman Street,RHK Equities Pty Ltd,AU,info@rhkequities.com.au,02 49919119,2325,NSW,Cessnock,http://www.rhkequities.com.au
Sandy Creek Road,David J Doberer,AU,david.doberer@bigpond.com,02 49986011,2325,NSW,Cessnock,
,Ryan Accounting Taxation & Business Services,AU,mail@ryanaccounting.com.au,02 4990 2673,2325,England,Temple,http://www.ryanaccounting.com.au/
Sandy Creek Road,David J Doberer,AU,david.doberer@bigpond.com,02 49986011,2325,NSW,Cessnock,
Chapman Street,RHK Equities Pty Ltd,AU,info@rhkequities.com.au,02 49919119,2325,NSW,Cessnock,http://www.rhkequities.com.au
,Ryan Accounting Taxation & Business Services,AU,mail@ryanaccounting.com.au,02 4990 2673,2325,England,Temple,http://www.ryanaccounting.com.au/
Chapman Street,RHK Equities Pty Ltd,AU,info@rhkequities.com.au,02 49919119,2325,NSW,Cessnock,http://www.rhkequities.com.au
Sandy Creek Road,David J Doberer,AU,david.doberer@bigpond.com,02 49986011,2325,NSW,Cessnock,
,Ryan Accounting Taxation & Business Services,AU,mail@ryanaccounting.com.au,02 4990 2673,2325,England,Temple,http://www.ryanaccounting.com.au/
Chapman Street,RHK Equities Pty Ltd,AU,info@rhkequities.com.au,02 49919119,2325,NSW,Cessnock,http://www.rhkequities.com.au
Sandy Creek Road,David J Doberer,AU,david.doberer@bigpond.com,02 49986011,2325,NSW,Cessnock,
,Ryan Accounting Taxation & Business Services,AU,mail@ryanaccounting.com.au,02 4990 2673,2325,England,Temple,http://www.ryanaccounting.com.au/
Sandy Creek Road,David J Doberer,AU,david.doberer@bigpond.com,02 49986011,2325,NSW,Cessnock,
Chapman Street,RHK Equities Pty Ltd,AU,info@rhkequities.com.au,02 49919119,2325,NSW,Cessnock,http://www.rhkequities.com.au
,Ryan Accounting Taxation & Business Services,AU,mail@ryanaccounting.com.au,02 4990 2673,2325,England,Temple,http://www.ryanaccounting.com.au/
Chapman Street,RHK Equities Pty Ltd,AU,info@rhkequities.com.au,02 49919119,2325,NSW,Cessnock,http://www.rhkequities.com.au
Sandy Creek Road,David J Doberer,AU,david.doberer@bigpond.com,02 49986011,2325,NSW,Cessnock,
,Ryan Accounting Taxation & Business Services,AU,mail@ryanaccounting.com.au,02 4990 2673,2325,England,Temple,http://www.ryanaccounting.com.au/
Chapman Street,RHK Equities Pty Ltd,AU,info@rhkequities.com.au,02 49919119,2325,NSW,Cessnock,http://www.rhkequities.com.au
Sandy Creek Road,David J Doberer,AU,david.doberer@bigpond.com,02 49986011,2325,NSW,Cessnock,
,Ryan Accounting Taxation & Business Services,AU,mail@ryanaccounting.com.au,02 4990 2673,2325,England,Temple,http://www.ryanaccounting.com.au/
Chapman Street,RHK Equities Pty Ltd,AU,info@rhkequities.com.au,02 49919119,2325,NSW,Cessnock,http://www.rhkequities.com.au
Sandy Creek Road,David J Doberer,AU,david.doberer@bigpond.com,02 49986011,2325,NSW,Cessnock,
,Ryan Accounting Taxation & Business Services,AU,mail@ryanaccounting.com.au,02 4990 2673,2325,England,Temple,http://www.ryanaccounting.com.au/
Sandy Creek Road,David J Doberer,AU,david.doberer@bigpond.com,02 49986011,2325,NSW,Cessnock,
Chapman Street,RHK Equities Pty Ltd,AU,info@rhkequities.com.au,02 49919119,2325,NSW,Cessnock,http://www.rhkequities.com.au
,Ryan Accounting Taxation & Business Services,AU,mail@ryanaccounting.com.au,02 4990 2673,2325,England,Temple,http://www.ryanaccounting.com.au/
Sandy Creek Road,David J Doberer,AU,david.doberer@bigpond.com,02 49986011,2325,NSW,Cessnock,
Chapman Street,RHK Equities Pty Ltd,AU,info@rhkequities.com.au,02 49919119,2325,NSW,Cessnock,http://www.rhkequities.com.au
,Ryan Accounting Taxation & Business Services,AU,mail@ryanaccounting.com.au,02 4990 2673,2325,England,Temple,http://www.ryanaccounting.com.au/
