address,company_name,country,email,phone,postcode,state,suburb,website
Channel Highway,RJ Newton & Associates,AU,admin@newtoncpa.com.au,03 6229 4344,7050,Tasmania,Kingston Beach,
Channel Highway,RJ Newton & Associates,AU,admin@newtoncpa.com.au,03 6229 4344,7050,Tasmania,Kingston Beach,
Channel Highway,RJ Newton & Associates,AU,admin@newtoncpa.com.au,03 6229 4344,7050,Tasmania,Kingston Beach,
Huon Road,Howie S Oh,AU,hsoh@bigpond.net.au,03 62231702,7004,Tasmania,Fern Tree,
New Town Road,Winsie Sin,AU,yourtaxclear@gmail.com,0415762560,7008,Tasmania,New Town,
Jasanda Drive,Kim Rosinski T/a Agility Accounting and Tax Solutions,AU,kim@agilitytax.com.au,0419571221,7010,Tasmania,Rosetta,http://www.agilitytax.com.au
Main Road,John Harrison Accountants,AU,john.harrison@johnharrisonaccountants.com,03 62713003,7010,Tasmania,Montrose,http://www.johnharrison.com.au
Regina Street,Woolley Owen & Coogan,AU,lwoolley@wocaccountants.com.au,+61 3 6272 2247,7010,Tasmania,Montrose,http://www.wocaccountants.com.au
Jasanda Drive,Kim Rosinski T/a Agility Accounting and Tax Solutions,AU,kim@agilitytax.com.au,0419571221,7010,Tasmania,Rosetta,http://www.agilitytax.com.au
Main Road,John Harrison Accountants,AU,john.harrison@johnharrisonaccountants.com,03 62713003,7010,Tasmania,Montrose,http://www.johnharrison.com.au
Regina Street,Woolley Owen & Coogan,AU,lwoolley@wocaccountants.com.au,+61 3 6272 2247,7010,Tasmania,Montrose,http://www.wocaccountants.com.au
Jasanda Drive,Kim Rosinski T/a Agility Accounting and Tax Solutions,AU,kim@agilitytax.com.au,0419571221,7010,Tasmania,Rosetta,http://www.agilitytax.com.au
Main Road,John Harrison Accountants,AU,john.harrison@johnharrisonaccountants.com,03 62713003,7010,Tasmania,Montrose,http://www.johnharrison.com.au
Regina Street,Woolley Owen & Coogan,AU,lwoolley@wocaccountants.com.au,+61 3 6272 2247,7010,Tasmania,Montrose,http://www.wocaccountants.com.au
Jasanda Drive,Kim Rosinski T/a Agility Accounting and Tax Solutions,AU,kim@agilitytax.com.au,0419571221,7010,Tasmania,Rosetta,http://www.agilitytax.com.au
Main Road,John Harrison Accountants,AU,john.harrison@johnharrisonaccountants.com,03 62713003,7010,Tasmania,Montrose,http://www.johnharrison.com.au
Regina Street,Woolley Owen & Coogan,AU,lwoolley@wocaccountants.com.au,+61 3 6272 2247,7010,Tasmania,Montrose,http://www.wocaccountants.com.au
Channel Highway,RJ Newton & Associates,AU,admin@newtoncpa.com.au,03 6229 4344,7050,Tasmania,Kingston Beach,
Channel Highway,RJ Newton & Associates,AU,admin@newtoncpa.com.au,03 6229 4344,7050,Tasmania,Kingston Beach,
Channel Highway,RJ Newton & Associates,AU,admin@newtoncpa.com.au,03 6229 4344,7050,Tasmania,Kingston Beach,
Channel Highway,RJ Newton & Associates,AU,admin@newtoncpa.com.au,03 6229 4344,7050,Tasmania,Kingston Beach,
Channel Highway,RJ Newton & Associates,AU,admin@newtoncpa.com.au,03 6229 4344,7050,Tasmania,Kingston Beach,
Channel Highway,RJ Newton & Associates,AU,admin@newtoncpa.com.au,03 6229 4344,7050,Tasmania,Kingston Beach,
Channel Highway,RJ Newton & Associates,AU,admin@newtoncpa.com.au,03 6229 4344,7050,Tasmania,Kingston Beach,
Emu Bay Road,Youd & Co,AU,youdaaron@gmail.com,0408508170,7304,Tasmania,,
Macquarie Street,John N Williams Pty Ltd,AU,sav@johnnwilliams.com.au,0362235777,7000,Tasmania,Hobart,http://www.johnnwilliams.com.au
Murray Street,Rooke Wray & Associates Pty Ltd,AU,darren@mwjaccountants.com.au,03 62344481,7000,Tasmania,Hobart,http://www.rwj.com.au/
Murray Street,4 Business & Community,AU,joss@4bus.com.au,1300428726,7000,Tasmania,Hobart,http://www.4bus.com.au
Murray Street,Collins SBA,AU,reception@collinssba.com.au,1300 265 722,7000,Tasmania,Hobart,http://collinssba.com.au
,Scanlon Richardson Accounting Pty Ltd,AU,sam@srfg.com.au,(03) 62313448,7000,Tasmania,Hobart,https://www.srfinancialgroup.com.au/
Commercial Lane,M C Watts,AU,wattscpa@bigpond.net.au,03 62347599,7000,Tasmania,North Hobart,
Huon Road,Howie S Oh,AU,hsoh@bigpond.net.au,03 62231702,7004,Tasmania,Fern Tree,
Bligh Street,Alomes Financial,AU,daniel@alomesfinancial.com.au,03 62445144,7018,Tasmania,Rosny Park,http://www.alomesfinancial.com.au/‎
Queen Street,Norton & Co,AU,mail@nortonaccountants.com,03 64313655,7320,Tasmania,Montello,
King Street,Active Accountants,AU,,03 6431 9435,7320,Tasmania,Montello,http://www.activeaccountants.com.au/
Mount Street,Elphinstone Stevens Pty Ltd,AU,david@elst.com.au,61364313933,7320,Tasmania,Upper Burnie,http://www.elst.com.au
Mount Street,Lovell & Morrison,AU,dean@lmtax.com.au,03 64315666,7320,Tasmania,Montello,http://www.lmtax.net.au/
Mount Street,Platinum Accounting & Investment Services Burnie Pty Ltd,AU,chivonne@platinumburnie.com,03 6432 1018,7320,Tasmania,Montello,http://www.platinumburnie.com/
Wilmot Street,Lawson Hyland Pty Ltd,AU,,03 64319998,7320,Tasmania,Montello,http://
Wilson Street,Six Star Accounting & Taxation,AU,garry@sixstar.com.au,03 64319880,7320,Tasmania,Montello,
Bligh Street,Alomes Financial,AU,daniel@alomesfinancial.com.au,03 62445144,7018,Tasmania,Rosny Park,http://www.alomesfinancial.com.au/‎
Tasman Highway,CTC Taxation & Accounting Services,AU,admin@ctcaccounting.com.au,03 62653558,7172,Tasmania,,http://www.ctcaccounting.com.au
Murray Street,4 Business & Community,AU,joss@4bus.com.au,1300428726,7000,Tasmania,Hobart,http://www.4bus.com.au
Murray Street,Collins SBA,AU,reception@collinssba.com.au,1300 265 722,7000,Tasmania,Hobart,http://collinssba.com.au
,Scanlon Richardson Accounting Pty Ltd,AU,sam@srfg.com.au,(03) 62313448,7000,Tasmania,Hobart,https://www.srfinancialgroup.com.au/
Murray Street,Rooke Wray & Associates Pty Ltd,AU,darren@mwjaccountants.com.au,03 62344481,7000,Tasmania,Hobart,http://www.rwj.com.au/
Macquarie Street,John N Williams Pty Ltd,AU,sav@johnnwilliams.com.au,0362235777,7000,Tasmania,Hobart,http://www.johnnwilliams.com.au
Commercial Lane,M C Watts,AU,wattscpa@bigpond.net.au,03 62347599,7000,Tasmania,North Hobart,
New Town Road,Winsie Sin,AU,yourtaxclear@gmail.com,0415762560,7008,Tasmania,New Town,
Huon Road,Howie S Oh,AU,hsoh@bigpond.net.au,03 62231702,7004,Tasmania,Fern Tree,
Regina Street,Woolley Owen & Coogan,AU,lwoolley@wocaccountants.com.au,+61 3 6272 2247,7010,Tasmania,Montrose,http://www.wocaccountants.com.au
Main Road,John Harrison Accountants,AU,john.harrison@johnharrisonaccountants.com,03 62713003,7010,Tasmania,Montrose,http://www.johnharrison.com.au
Jasanda Drive,Kim Rosinski T/a Agility Accounting and Tax Solutions,AU,kim@agilitytax.com.au,0419571221,7010,Tasmania,Rosetta,http://www.agilitytax.com.au
Bligh Street,Alomes Financial,AU,daniel@alomesfinancial.com.au,03 62445144,7018,Tasmania,Rosny Park,http://www.alomesfinancial.com.au/‎
Bligh Street,Alomes Financial,AU,daniel@alomesfinancial.com.au,03 62445144,7018,Tasmania,Rosny Park,http://www.alomesfinancial.com.au/‎
Bligh Street,Alomes Financial,AU,daniel@alomesfinancial.com.au,03 62445144,7018,Tasmania,Rosny Park,http://www.alomesfinancial.com.au/‎
Bligh Street,Alomes Financial,AU,daniel@alomesfinancial.com.au,03 62445144,7018,Tasmania,Rosny Park,http://www.alomesfinancial.com.au/‎
Tasman Highway,CTC Taxation & Accounting Services,AU,admin@ctcaccounting.com.au,03 62653558,7172,Tasmania,,http://www.ctcaccounting.com.au
Tasman Highway,CTC Taxation & Accounting Services,AU,admin@ctcaccounting.com.au,03 62653558,7172,Tasmania,,http://www.ctcaccounting.com.au
Tasman Highway,CTC Taxation & Accounting Services,AU,admin@ctcaccounting.com.au,03 62653558,7172,Tasmania,,http://www.ctcaccounting.com.au
Tasman Highway,CTC Taxation & Accounting Services,AU,admin@ctcaccounting.com.au,03 62653558,7172,Tasmania,,http://www.ctcaccounting.com.au
Tasman Highway,CTC Taxation & Accounting Services,AU,admin@ctcaccounting.com.au,03 62653558,7172,Tasmania,,http://www.ctcaccounting.com.au
Tasman Highway,CTC Taxation & Accounting Services,AU,admin@ctcaccounting.com.au,03 62653558,7172,Tasmania,,http://www.ctcaccounting.com.au
Tasman Highway,CTC Taxation & Accounting Services,AU,admin@ctcaccounting.com.au,03 62653558,7172,Tasmania,,http://www.ctcaccounting.com.au
Tasman Highway,CTC Taxation & Accounting Services,AU,admin@ctcaccounting.com.au,03 62653558,7172,Tasmania,,http://www.ctcaccounting.com.au
Tasman Highway,CTC Taxation & Accounting Services,AU,admin@ctcaccounting.com.au,03 62653558,7172,Tasmania,,http://www.ctcaccounting.com.au
Tasman Highway,CTC Taxation & Accounting Services,AU,admin@ctcaccounting.com.au,03 62653558,7172,Tasmania,,http://www.ctcaccounting.com.au
Tasman Highway,CTC Taxation & Accounting Services,AU,admin@ctcaccounting.com.au,03 62653558,7172,Tasmania,,http://www.ctcaccounting.com.au
Tasman Highway,CTC Taxation & Accounting Services,AU,admin@ctcaccounting.com.au,03 62653558,7172,Tasmania,,http://www.ctcaccounting.com.au
Tasman Highway,CTC Taxation & Accounting Services,AU,admin@ctcaccounting.com.au,03 62653558,7172,Tasmania,,http://www.ctcaccounting.com.au
Tasman Highway,CTC Taxation & Accounting Services,AU,admin@ctcaccounting.com.au,03 62653558,7172,Tasmania,,http://www.ctcaccounting.com.au
Tasman Highway,CTC Taxation & Accounting Services,AU,admin@ctcaccounting.com.au,03 62653558,7172,Tasmania,,http://www.ctcaccounting.com.au
Tasman Highway,CTC Taxation & Accounting Services,AU,admin@ctcaccounting.com.au,03 62653558,7172,Tasmania,,http://www.ctcaccounting.com.au
Tasman Highway,CTC Taxation & Accounting Services,AU,admin@ctcaccounting.com.au,03 62653558,7172,Tasmania,,http://www.ctcaccounting.com.au
Tasman Highway,CTC Taxation & Accounting Services,AU,admin@ctcaccounting.com.au,03 62653558,7172,Tasmania,,http://www.ctcaccounting.com.au
Hobart Road,145 Financial Pty Ltd,AU,office@145financial.com.au,03 63449424,7249,Tasmania,Kings Meadows,http://www.145financial.com.au
Frankland Street,Fresh Financial Group Pty Ltd,AU,jo.styles@freshfg.com.au,03 6334 1500,7250,Tasmania,Glen Dhu,
Abbott Street,FJB Accounting Solutions Pty Ltd,AU,,0458711365,7250,Tasmania,East Launceston,http://www.fjbas.com.au/
York Street,MDH Accounting Pty Ltd,AU,mharvey@mdhaccounting.com.au,03 63344496,7250,Tasmania,West Launceston,http://www.mghaccounting.com.au
York Street,Raymond J White & Co,AU,raywhite@rjwhite.com.au,03 63330440,7250,Tasmania,West Launceston,
Brisbane Street,Paul J Coates Pty Ltd,AU,info@pauljcoates.com.au,03 63345686,7250,Tasmania,East Launceston,http://pauljcoates.ypsitesmart.com.au/
Hobart Road,145 Financial Pty Ltd,AU,office@145financial.com.au,03 63449424,7249,Tasmania,Kings Meadows,http://www.145financial.com.au
Brisbane Street,Paul J Coates Pty Ltd,AU,info@pauljcoates.com.au,03 63345686,7250,Tasmania,East Launceston,http://pauljcoates.ypsitesmart.com.au/
York Street,MDH Accounting Pty Ltd,AU,mharvey@mdhaccounting.com.au,03 63344496,7250,Tasmania,West Launceston,http://www.mghaccounting.com.au
Abbott Street,FJB Accounting Solutions Pty Ltd,AU,,0458711365,7250,Tasmania,East Launceston,http://www.fjbas.com.au/
Frankland Street,Fresh Financial Group Pty Ltd,AU,jo.styles@freshfg.com.au,03 6334 1500,7250,Tasmania,Glen Dhu,
Franmaree Road,My Net Consultant Pty Ltd,AU,ast35426@tpg.com.au,0439522711,7248,Tasmania,Newnham,
Franmaree Road,My Net Consultant Pty Ltd,AU,ast35426@tpg.com.au,0439522711,7248,Tasmania,Newnham,
Brisbane Street,Paul J Coates Pty Ltd,AU,info@pauljcoates.com.au,03 63345686,7250,Tasmania,East Launceston,http://pauljcoates.ypsitesmart.com.au/
Franmaree Road,My Net Consultant Pty Ltd,AU,ast35426@tpg.com.au,0439522711,7248,Tasmania,Newnham,
York Street,MDH Accounting Pty Ltd,AU,mharvey@mdhaccounting.com.au,03 63344496,7250,Tasmania,West Launceston,http://www.mghaccounting.com.au
Abbott Street,FJB Accounting Solutions Pty Ltd,AU,,0458711365,7250,Tasmania,East Launceston,http://www.fjbas.com.au/
Frankland Street,Fresh Financial Group Pty Ltd,AU,jo.styles@freshfg.com.au,03 6334 1500,7250,Tasmania,Glen Dhu,
Franmaree Road,My Net Consultant Pty Ltd,AU,ast35426@tpg.com.au,0439522711,7248,Tasmania,Newnham,
Franmaree Road,My Net Consultant Pty Ltd,AU,ast35426@tpg.com.au,0439522711,7248,Tasmania,Newnham,
Hobart Road,145 Financial Pty Ltd,AU,office@145financial.com.au,03 63449424,7249,Tasmania,Kings Meadows,http://www.145financial.com.au
Frankland Street,Fresh Financial Group Pty Ltd,AU,jo.styles@freshfg.com.au,03 6334 1500,7250,Tasmania,Glen Dhu,
Abbott Street,FJB Accounting Solutions Pty Ltd,AU,,0458711365,7250,Tasmania,East Launceston,http://www.fjbas.com.au/
York Street,MDH Accounting Pty Ltd,AU,mharvey@mdhaccounting.com.au,03 63344496,7250,Tasmania,West Launceston,http://www.mghaccounting.com.au
Brisbane Street,Paul J Coates Pty Ltd,AU,info@pauljcoates.com.au,03 63345686,7250,Tasmania,East Launceston,http://pauljcoates.ypsitesmart.com.au/
Hobart Road,145 Financial Pty Ltd,AU,office@145financial.com.au,03 63449424,7249,Tasmania,Kings Meadows,http://www.145financial.com.au
Abbott Street,FJB Accounting Solutions Pty Ltd,AU,,0458711365,7250,Tasmania,East Launceston,http://www.fjbas.com.au/
Frankland Street,Fresh Financial Group Pty Ltd,AU,jo.styles@freshfg.com.au,03 6334 1500,7250,Tasmania,Glen Dhu,
York Street,MDH Accounting Pty Ltd,AU,mharvey@mdhaccounting.com.au,03 63344496,7250,Tasmania,West Launceston,http://www.mghaccounting.com.au
Brisbane Street,Paul J Coates Pty Ltd,AU,info@pauljcoates.com.au,03 63345686,7250,Tasmania,East Launceston,http://pauljcoates.ypsitesmart.com.au/
Frankland Street,Fresh Financial Group Pty Ltd,AU,jo.styles@freshfg.com.au,03 6334 1500,7250,Tasmania,Glen Dhu,
York Street,MDH Accounting Pty Ltd,AU,mharvey@mdhaccounting.com.au,03 63344496,7250,Tasmania,West Launceston,http://www.mghaccounting.com.au
Abbott Street,FJB Accounting Solutions Pty Ltd,AU,,0458711365,7250,Tasmania,East Launceston,http://www.fjbas.com.au/
Brisbane Street,Paul J Coates Pty Ltd,AU,info@pauljcoates.com.au,03 63345686,7250,Tasmania,East Launceston,http://pauljcoates.ypsitesmart.com.au/
Hobart Road,145 Financial Pty Ltd,AU,office@145financial.com.au,03 63449424,7249,Tasmania,Kings Meadows,http://www.145financial.com.au
Hobart Road,145 Financial Pty Ltd,AU,office@145financial.com.au,03 63449424,7249,Tasmania,Kings Meadows,http://www.145financial.com.au
Frankland Street,Fresh Financial Group Pty Ltd,AU,jo.styles@freshfg.com.au,03 6334 1500,7250,Tasmania,Glen Dhu,
Abbott Street,FJB Accounting Solutions Pty Ltd,AU,,0458711365,7250,Tasmania,East Launceston,http://www.fjbas.com.au/
York Street,MDH Accounting Pty Ltd,AU,mharvey@mdhaccounting.com.au,03 63344496,7250,Tasmania,West Launceston,http://www.mghaccounting.com.au
Brisbane Street,Paul J Coates Pty Ltd,AU,info@pauljcoates.com.au,03 63345686,7250,Tasmania,East Launceston,http://pauljcoates.ypsitesmart.com.au/
Frankland Street,Fresh Financial Group Pty Ltd,AU,jo.styles@freshfg.com.au,03 6334 1500,7250,Tasmania,Glen Dhu,
York Street,MDH Accounting Pty Ltd,AU,mharvey@mdhaccounting.com.au,03 63344496,7250,Tasmania,West Launceston,http://www.mghaccounting.com.au
Brisbane Street,Paul J Coates Pty Ltd,AU,info@pauljcoates.com.au,03 63345686,7250,Tasmania,East Launceston,http://pauljcoates.ypsitesmart.com.au/
Abbott Street,FJB Accounting Solutions Pty Ltd,AU,,0458711365,7250,Tasmania,East Launceston,http://www.fjbas.com.au/
Abbott Street,FJB Accounting Solutions Pty Ltd,AU,,0458711365,7250,Tasmania,East Launceston,http://www.fjbas.com.au/
Brisbane Street,Paul J Coates Pty Ltd,AU,info@pauljcoates.com.au,03 63345686,7250,Tasmania,East Launceston,http://pauljcoates.ypsitesmart.com.au/
York Street,MDH Accounting Pty Ltd,AU,mharvey@mdhaccounting.com.au,03 63344496,7250,Tasmania,West Launceston,http://www.mghaccounting.com.au
Frankland Street,Fresh Financial Group Pty Ltd,AU,jo.styles@freshfg.com.au,03 6334 1500,7250,Tasmania,Glen Dhu,
Hobart Road,145 Financial Pty Ltd,AU,office@145financial.com.au,03 63449424,7249,Tasmania,Kings Meadows,http://www.145financial.com.au
Franmaree Road,My Net Consultant Pty Ltd,AU,ast35426@tpg.com.au,0439522711,7248,Tasmania,Newnham,
York Street,MDH Accounting Pty Ltd,AU,mharvey@mdhaccounting.com.au,03 63344496,7250,Tasmania,West Launceston,http://www.mghaccounting.com.au
Frankland Street,Fresh Financial Group Pty Ltd,AU,jo.styles@freshfg.com.au,03 6334 1500,7250,Tasmania,Glen Dhu,
Brisbane Street,Paul J Coates Pty Ltd,AU,info@pauljcoates.com.au,03 63345686,7250,Tasmania,East Launceston,http://pauljcoates.ypsitesmart.com.au/
Abbott Street,FJB Accounting Solutions Pty Ltd,AU,,0458711365,7250,Tasmania,East Launceston,http://www.fjbas.com.au/
Hobart Road,145 Financial Pty Ltd,AU,office@145financial.com.au,03 63449424,7249,Tasmania,Kings Meadows,http://www.145financial.com.au
Franmaree Road,My Net Consultant Pty Ltd,AU,ast35426@tpg.com.au,0439522711,7248,Tasmania,Newnham,
Abbott Street,FJB Accounting Solutions Pty Ltd,AU,,0458711365,7250,Tasmania,East Launceston,http://www.fjbas.com.au/
Brisbane Street,Paul J Coates Pty Ltd,AU,info@pauljcoates.com.au,03 63345686,7250,Tasmania,East Launceston,http://pauljcoates.ypsitesmart.com.au/
York Street,MDH Accounting Pty Ltd,AU,mharvey@mdhaccounting.com.au,03 63344496,7250,Tasmania,West Launceston,http://www.mghaccounting.com.au
Frankland Street,Fresh Financial Group Pty Ltd,AU,jo.styles@freshfg.com.au,03 6334 1500,7250,Tasmania,Glen Dhu,
Hobart Road,145 Financial Pty Ltd,AU,office@145financial.com.au,03 63449424,7249,Tasmania,Kings Meadows,http://www.145financial.com.au
Hobart Road,145 Financial Pty Ltd,AU,office@145financial.com.au,03 63449424,7249,Tasmania,Kings Meadows,http://www.145financial.com.au
Abbott Street,FJB Accounting Solutions Pty Ltd,AU,,0458711365,7250,Tasmania,East Launceston,http://www.fjbas.com.au/
Frankland Street,Fresh Financial Group Pty Ltd,AU,jo.styles@freshfg.com.au,03 6334 1500,7250,Tasmania,Glen Dhu,
York Street,MDH Accounting Pty Ltd,AU,mharvey@mdhaccounting.com.au,03 63344496,7250,Tasmania,West Launceston,http://www.mghaccounting.com.au
Brisbane Street,Paul J Coates Pty Ltd,AU,info@pauljcoates.com.au,03 63345686,7250,Tasmania,East Launceston,http://pauljcoates.ypsitesmart.com.au/
Hobart Road,145 Financial Pty Ltd,AU,office@145financial.com.au,03 63449424,7249,Tasmania,Kings Meadows,http://www.145financial.com.au
Frankland Street,Fresh Financial Group Pty Ltd,AU,jo.styles@freshfg.com.au,03 6334 1500,7250,Tasmania,Glen Dhu,
York Street,MDH Accounting Pty Ltd,AU,mharvey@mdhaccounting.com.au,03 63344496,7250,Tasmania,West Launceston,http://www.mghaccounting.com.au
Abbott Street,FJB Accounting Solutions Pty Ltd,AU,,0458711365,7250,Tasmania,East Launceston,http://www.fjbas.com.au/
Brisbane Street,Paul J Coates Pty Ltd,AU,info@pauljcoates.com.au,03 63345686,7250,Tasmania,East Launceston,http://pauljcoates.ypsitesmart.com.au/
Frankland Street,Fresh Financial Group Pty Ltd,AU,jo.styles@freshfg.com.au,03 6334 1500,7250,Tasmania,Glen Dhu,
York Street,MDH Accounting Pty Ltd,AU,mharvey@mdhaccounting.com.au,03 63344496,7250,Tasmania,West Launceston,http://www.mghaccounting.com.au
Abbott Street,FJB Accounting Solutions Pty Ltd,AU,,0458711365,7250,Tasmania,East Launceston,http://www.fjbas.com.au/
Brisbane Street,Paul J Coates Pty Ltd,AU,info@pauljcoates.com.au,03 63345686,7250,Tasmania,East Launceston,http://pauljcoates.ypsitesmart.com.au/
Brisbane Street,Paul J Coates Pty Ltd,AU,info@pauljcoates.com.au,03 63345686,7250,Tasmania,East Launceston,http://pauljcoates.ypsitesmart.com.au/
Abbott Street,FJB Accounting Solutions Pty Ltd,AU,,0458711365,7250,Tasmania,East Launceston,http://www.fjbas.com.au/
York Street,MDH Accounting Pty Ltd,AU,mharvey@mdhaccounting.com.au,03 63344496,7250,Tasmania,West Launceston,http://www.mghaccounting.com.au
Frankland Street,Fresh Financial Group Pty Ltd,AU,jo.styles@freshfg.com.au,03 6334 1500,7250,Tasmania,Glen Dhu,
Franmaree Road,My Net Consultant Pty Ltd,AU,ast35426@tpg.com.au,0439522711,7248,Tasmania,Newnham,
Franmaree Road,My Net Consultant Pty Ltd,AU,ast35426@tpg.com.au,0439522711,7248,Tasmania,Newnham,
Hobart Road,145 Financial Pty Ltd,AU,office@145financial.com.au,03 63449424,7249,Tasmania,Kings Meadows,http://www.145financial.com.au
Abbott Street,FJB Accounting Solutions Pty Ltd,AU,,0458711365,7250,Tasmania,East Launceston,http://www.fjbas.com.au/
Frankland Street,Fresh Financial Group Pty Ltd,AU,jo.styles@freshfg.com.au,03 6334 1500,7250,Tasmania,Glen Dhu,
Brisbane Street,Paul J Coates Pty Ltd,AU,info@pauljcoates.com.au,03 63345686,7250,Tasmania,East Launceston,http://pauljcoates.ypsitesmart.com.au/
York Street,MDH Accounting Pty Ltd,AU,mharvey@mdhaccounting.com.au,03 63344496,7250,Tasmania,West Launceston,http://www.mghaccounting.com.au
Frankland Street,Fresh Financial Group Pty Ltd,AU,jo.styles@freshfg.com.au,03 6334 1500,7250,Tasmania,Glen Dhu,
York Street,MDH Accounting Pty Ltd,AU,mharvey@mdhaccounting.com.au,03 63344496,7250,Tasmania,West Launceston,http://www.mghaccounting.com.au
Hobart Road,145 Financial Pty Ltd,AU,office@145financial.com.au,03 63449424,7249,Tasmania,Kings Meadows,http://www.145financial.com.au
Abbott Street,FJB Accounting Solutions Pty Ltd,AU,,0458711365,7250,Tasmania,East Launceston,http://www.fjbas.com.au/
Brisbane Street,Paul J Coates Pty Ltd,AU,info@pauljcoates.com.au,03 63345686,7250,Tasmania,East Launceston,http://pauljcoates.ypsitesmart.com.au/
Frankland Street,Fresh Financial Group Pty Ltd,AU,jo.styles@freshfg.com.au,03 6334 1500,7250,Tasmania,Glen Dhu,
Hobart Road,145 Financial Pty Ltd,AU,office@145financial.com.au,03 63449424,7249,Tasmania,Kings Meadows,http://www.145financial.com.au
York Street,MDH Accounting Pty Ltd,AU,mharvey@mdhaccounting.com.au,03 63344496,7250,Tasmania,West Launceston,http://www.mghaccounting.com.au
Abbott Street,FJB Accounting Solutions Pty Ltd,AU,,0458711365,7250,Tasmania,East Launceston,http://www.fjbas.com.au/
Brisbane Street,Paul J Coates Pty Ltd,AU,info@pauljcoates.com.au,03 63345686,7250,Tasmania,East Launceston,http://pauljcoates.ypsitesmart.com.au/
Franmaree Road,My Net Consultant Pty Ltd,AU,ast35426@tpg.com.au,0439522711,7248,Tasmania,Newnham,
Tanner Drive,Elphin Accounting Pty Ltd,AU,gerry@elphinaccounting.com.au,03 63301213,7277,Tasmania,Legana,
York Street,MDH Accounting Pty Ltd,AU,mharvey@mdhaccounting.com.au,03 63344496,7250,Tasmania,West Launceston,http://www.mghaccounting.com.au
Brisbane Street,Paul J Coates Pty Ltd,AU,info@pauljcoates.com.au,03 63345686,7250,Tasmania,East Launceston,http://pauljcoates.ypsitesmart.com.au/
Frankland Street,Fresh Financial Group Pty Ltd,AU,jo.styles@freshfg.com.au,03 6334 1500,7250,Tasmania,Glen Dhu,
Abbott Street,FJB Accounting Solutions Pty Ltd,AU,,0458711365,7250,Tasmania,East Launceston,http://www.fjbas.com.au/
Franmaree Road,My Net Consultant Pty Ltd,AU,ast35426@tpg.com.au,0439522711,7248,Tasmania,Newnham,
Abbott Street,FJB Accounting Solutions Pty Ltd,AU,,0458711365,7250,Tasmania,East Launceston,http://www.fjbas.com.au/
Brisbane Street,Paul J Coates Pty Ltd,AU,info@pauljcoates.com.au,03 63345686,7250,Tasmania,East Launceston,http://pauljcoates.ypsitesmart.com.au/
York Street,MDH Accounting Pty Ltd,AU,mharvey@mdhaccounting.com.au,03 63344496,7250,Tasmania,West Launceston,http://www.mghaccounting.com.au
Frankland Street,Fresh Financial Group Pty Ltd,AU,jo.styles@freshfg.com.au,03 6334 1500,7250,Tasmania,Glen Dhu,
Frankland Street,Fresh Financial Group Pty Ltd,AU,jo.styles@freshfg.com.au,03 6334 1500,7250,Tasmania,Glen Dhu,
York Street,MDH Accounting Pty Ltd,AU,mharvey@mdhaccounting.com.au,03 63344496,7250,Tasmania,West Launceston,http://www.mghaccounting.com.au
Abbott Street,FJB Accounting Solutions Pty Ltd,AU,,0458711365,7250,Tasmania,East Launceston,http://www.fjbas.com.au/
Brisbane Street,Paul J Coates Pty Ltd,AU,info@pauljcoates.com.au,03 63345686,7250,Tasmania,East Launceston,http://pauljcoates.ypsitesmart.com.au/
Hobart Road,145 Financial Pty Ltd,AU,office@145financial.com.au,03 63449424,7249,Tasmania,Kings Meadows,http://www.145financial.com.au
Tanner Drive,Elphin Accounting Pty Ltd,AU,gerry@elphinaccounting.com.au,03 63301213,7277,Tasmania,Legana,
Franmaree Road,My Net Consultant Pty Ltd,AU,ast35426@tpg.com.au,0439522711,7248,Tasmania,Newnham,
Brisbane Street,Paul J Coates Pty Ltd,AU,info@pauljcoates.com.au,03 63345686,7250,Tasmania,East Launceston,http://pauljcoates.ypsitesmart.com.au/
York Street,MDH Accounting Pty Ltd,AU,mharvey@mdhaccounting.com.au,03 63344496,7250,Tasmania,West Launceston,http://www.mghaccounting.com.au
Abbott Street,FJB Accounting Solutions Pty Ltd,AU,,0458711365,7250,Tasmania,East Launceston,http://www.fjbas.com.au/
Frankland Street,Fresh Financial Group Pty Ltd,AU,jo.styles@freshfg.com.au,03 6334 1500,7250,Tasmania,Glen Dhu,
Tanner Drive,Elphin Accounting Pty Ltd,AU,gerry@elphinaccounting.com.au,03 63301213,7277,Tasmania,Legana,
Tanner Drive,Elphin Accounting Pty Ltd,AU,gerry@elphinaccounting.com.au,03 63301213,7277,Tasmania,Legana,
Ada Street,A & D Professional Accountants Pty Ltd,AU,beth@adprof.com.au,0363 666 006,7260,Tasmania,,
Ada Street,A & D Professional Accountants Pty Ltd,AU,beth@adprof.com.au,0363 666 006,7260,Tasmania,,
Ada Street,A & D Professional Accountants Pty Ltd,AU,beth@adprof.com.au,0363 666 006,7260,Tasmania,,
Ada Street,A & D Professional Accountants Pty Ltd,AU,beth@adprof.com.au,0363 666 006,7260,Tasmania,,
Hobart Road,145 Financial Pty Ltd,AU,office@145financial.com.au,03 63449424,7249,Tasmania,Kings Meadows,http://www.145financial.com.au
Frankland Street,Fresh Financial Group Pty Ltd,AU,jo.styles@freshfg.com.au,03 6334 1500,7250,Tasmania,Glen Dhu,
Abbott Street,FJB Accounting Solutions Pty Ltd,AU,,0458711365,7250,Tasmania,East Launceston,http://www.fjbas.com.au/
York Street,MDH Accounting Pty Ltd,AU,mharvey@mdhaccounting.com.au,03 63344496,7250,Tasmania,West Launceston,http://www.mghaccounting.com.au
York Street,Raymond J White & Co,AU,raywhite@rjwhite.com.au,03 63330440,7250,Tasmania,West Launceston,
Brisbane Street,Paul J Coates Pty Ltd,AU,info@pauljcoates.com.au,03 63345686,7250,Tasmania,East Launceston,http://pauljcoates.ypsitesmart.com.au/
Hobart Road,145 Financial Pty Ltd,AU,office@145financial.com.au,03 63449424,7249,Tasmania,Kings Meadows,http://www.145financial.com.au
Abbott Street,FJB Accounting Solutions Pty Ltd,AU,,0458711365,7250,Tasmania,East Launceston,http://www.fjbas.com.au/
Frankland Street,Fresh Financial Group Pty Ltd,AU,jo.styles@freshfg.com.au,03 6334 1500,7250,Tasmania,Glen Dhu,
York Street,MDH Accounting Pty Ltd,AU,mharvey@mdhaccounting.com.au,03 63344496,7250,Tasmania,West Launceston,http://www.mghaccounting.com.au
Brisbane Street,Paul J Coates Pty Ltd,AU,info@pauljcoates.com.au,03 63345686,7250,Tasmania,East Launceston,http://pauljcoates.ypsitesmart.com.au/
Abbott Street,FJB Accounting Solutions Pty Ltd,AU,,0458711365,7250,Tasmania,East Launceston,http://www.fjbas.com.au/
Frankland Street,Fresh Financial Group Pty Ltd,AU,jo.styles@freshfg.com.au,03 6334 1500,7250,Tasmania,Glen Dhu,
York Street,MDH Accounting Pty Ltd,AU,mharvey@mdhaccounting.com.au,03 63344496,7250,Tasmania,West Launceston,http://www.mghaccounting.com.au
Brisbane Street,Paul J Coates Pty Ltd,AU,info@pauljcoates.com.au,03 63345686,7250,Tasmania,East Launceston,http://pauljcoates.ypsitesmart.com.au/
Ada Street,A & D Professional Accountants Pty Ltd,AU,beth@adprof.com.au,0363 666 006,7260,Tasmania,,
Abbott Street,FJB Accounting Solutions Pty Ltd,AU,,0458711365,7250,Tasmania,East Launceston,http://www.fjbas.com.au/
Brisbane Street,Paul J Coates Pty Ltd,AU,info@pauljcoates.com.au,03 63345686,7250,Tasmania,East Launceston,http://pauljcoates.ypsitesmart.com.au/
York Street,MDH Accounting Pty Ltd,AU,mharvey@mdhaccounting.com.au,03 63344496,7250,Tasmania,West Launceston,http://www.mghaccounting.com.au
Frankland Street,Fresh Financial Group Pty Ltd,AU,jo.styles@freshfg.com.au,03 6334 1500,7250,Tasmania,Glen Dhu,
Ada Street,A & D Professional Accountants Pty Ltd,AU,beth@adprof.com.au,0363 666 006,7260,Tasmania,,
Ada Street,A & D Professional Accountants Pty Ltd,AU,beth@adprof.com.au,0363 666 006,7260,Tasmania,,
Ada Street,A & D Professional Accountants Pty Ltd,AU,beth@adprof.com.au,0363 666 006,7260,Tasmania,,
Ada Street,A & D Professional Accountants Pty Ltd,AU,beth@adprof.com.au,0363 666 006,7260,Tasmania,,
Ada Street,A & D Professional Accountants Pty Ltd,AU,beth@adprof.com.au,0363 666 006,7260,Tasmania,,
Ada Street,A & D Professional Accountants Pty Ltd,AU,beth@adprof.com.au,0363 666 006,7260,Tasmania,,
Ada Street,A & D Professional Accountants Pty Ltd,AU,beth@adprof.com.au,0363 666 006,7260,Tasmania,,
Ada Street,A & D Professional Accountants Pty Ltd,AU,beth@adprof.com.au,0363 666 006,7260,Tasmania,,
Ada Street,A & D Professional Accountants Pty Ltd,AU,beth@adprof.com.au,0363 666 006,7260,Tasmania,,
Ada Street,A & D Professional Accountants Pty Ltd,AU,beth@adprof.com.au,0363 666 006,7260,Tasmania,,
Ada Street,A & D Professional Accountants Pty Ltd,AU,beth@adprof.com.au,0363 666 006,7260,Tasmania,,
Ada Street,A & D Professional Accountants Pty Ltd,AU,beth@adprof.com.au,0363 666 006,7260,Tasmania,,
Ada Street,A & D Professional Accountants Pty Ltd,AU,beth@adprof.com.au,0363 666 006,7260,Tasmania,,
Ada Street,A & D Professional Accountants Pty Ltd,AU,beth@adprof.com.au,0363 666 006,7260,Tasmania,,
Ada Street,A & D Professional Accountants Pty Ltd,AU,beth@adprof.com.au,0363 666 006,7260,Tasmania,,
Ada Street,A & D Professional Accountants Pty Ltd,AU,beth@adprof.com.au,0363 666 006,7260,Tasmania,,
Ada Street,A & D Professional Accountants Pty Ltd,AU,beth@adprof.com.au,0363 666 006,7260,Tasmania,,
Ada Street,A & D Professional Accountants Pty Ltd,AU,beth@adprof.com.au,0363 666 006,7260,Tasmania,,
Ada Street,A & D Professional Accountants Pty Ltd,AU,beth@adprof.com.au,0363 666 006,7260,Tasmania,,
Ada Street,A & D Professional Accountants Pty Ltd,AU,beth@adprof.com.au,0363 666 006,7260,Tasmania,,
Ada Street,A & D Professional Accountants Pty Ltd,AU,beth@adprof.com.au,0363 666 006,7260,Tasmania,,
Ada Street,A & D Professional Accountants Pty Ltd,AU,beth@adprof.com.au,0363 666 006,7260,Tasmania,,
Ada Street,A & D Professional Accountants Pty Ltd,AU,beth@adprof.com.au,0363 666 006,7260,Tasmania,,
Ada Street,A & D Professional Accountants Pty Ltd,AU,beth@adprof.com.au,0363 666 006,7260,Tasmania,,
Ada Street,A & D Professional Accountants Pty Ltd,AU,beth@adprof.com.au,0363 666 006,7260,Tasmania,,
Ada Street,A & D Professional Accountants Pty Ltd,AU,beth@adprof.com.au,0363 666 006,7260,Tasmania,,
Ada Street,A & D Professional Accountants Pty Ltd,AU,beth@adprof.com.au,0363 666 006,7260,Tasmania,,
Ada Street,A & D Professional Accountants Pty Ltd,AU,beth@adprof.com.au,0363 666 006,7260,Tasmania,,
Ada Street,A & D Professional Accountants Pty Ltd,AU,beth@adprof.com.au,0363 666 006,7260,Tasmania,,
Franmaree Road,My Net Consultant Pty Ltd,AU,ast35426@tpg.com.au,0439522711,7248,Tasmania,Newnham,
Ada Street,A & D Professional Accountants Pty Ltd,AU,beth@adprof.com.au,0363 666 006,7260,Tasmania,,
Franmaree Road,My Net Consultant Pty Ltd,AU,ast35426@tpg.com.au,0439522711,7248,Tasmania,Newnham,
Ada Street,A & D Professional Accountants Pty Ltd,AU,beth@adprof.com.au,0363 666 006,7260,Tasmania,,
Franmaree Road,My Net Consultant Pty Ltd,AU,ast35426@tpg.com.au,0439522711,7248,Tasmania,Newnham,
Ada Street,A & D Professional Accountants Pty Ltd,AU,beth@adprof.com.au,0363 666 006,7260,Tasmania,,
Ada Street,A & D Professional Accountants Pty Ltd,AU,beth@adprof.com.au,0363 666 006,7260,Tasmania,,
Franmaree Road,My Net Consultant Pty Ltd,AU,ast35426@tpg.com.au,0439522711,7248,Tasmania,Newnham,
Tanner Drive,Elphin Accounting Pty Ltd,AU,gerry@elphinaccounting.com.au,03 63301213,7277,Tasmania,Legana,
Tanner Drive,Elphin Accounting Pty Ltd,AU,gerry@elphinaccounting.com.au,03 63301213,7277,Tasmania,Legana,
Tanner Drive,Elphin Accounting Pty Ltd,AU,gerry@elphinaccounting.com.au,03 63301213,7277,Tasmania,Legana,
Tanner Drive,Elphin Accounting Pty Ltd,AU,gerry@elphinaccounting.com.au,03 63301213,7277,Tasmania,Legana,
Emu Bay Road,Youd & Co,AU,youdaaron@gmail.com,0408508170,7304,Tasmania,,
Tanner Drive,Elphin Accounting Pty Ltd,AU,gerry@elphinaccounting.com.au,03 63301213,7277,Tasmania,Legana,
Tanner Drive,Elphin Accounting Pty Ltd,AU,gerry@elphinaccounting.com.au,03 63301213,7277,Tasmania,Legana,
Tanner Drive,Elphin Accounting Pty Ltd,AU,gerry@elphinaccounting.com.au,03 63301213,7277,Tasmania,Legana,
Tanner Drive,Elphin Accounting Pty Ltd,AU,gerry@elphinaccounting.com.au,03 63301213,7277,Tasmania,Legana,
Tanner Drive,Elphin Accounting Pty Ltd,AU,gerry@elphinaccounting.com.au,03 63301213,7277,Tasmania,Legana,
Tanner Drive,Elphin Accounting Pty Ltd,AU,gerry@elphinaccounting.com.au,03 63301213,7277,Tasmania,Legana,
Tanner Drive,Elphin Accounting Pty Ltd,AU,gerry@elphinaccounting.com.au,03 63301213,7277,Tasmania,Legana,
Tanner Drive,Elphin Accounting Pty Ltd,AU,gerry@elphinaccounting.com.au,03 63301213,7277,Tasmania,Legana,
Tanner Drive,Elphin Accounting Pty Ltd,AU,gerry@elphinaccounting.com.au,03 63301213,7277,Tasmania,Legana,
Tanner Drive,Elphin Accounting Pty Ltd,AU,gerry@elphinaccounting.com.au,03 63301213,7277,Tasmania,Legana,
Tanner Drive,Elphin Accounting Pty Ltd,AU,gerry@elphinaccounting.com.au,03 63301213,7277,Tasmania,Legana,
Tanner Drive,Elphin Accounting Pty Ltd,AU,gerry@elphinaccounting.com.au,03 63301213,7277,Tasmania,Legana,
Frankland Street,Fresh Financial Group Pty Ltd,AU,jo.styles@freshfg.com.au,03 6334 1500,7250,Tasmania,Glen Dhu,
Hobart Road,145 Financial Pty Ltd,AU,office@145financial.com.au,03 63449424,7249,Tasmania,Kings Meadows,http://www.145financial.com.au
York Street,MDH Accounting Pty Ltd,AU,mharvey@mdhaccounting.com.au,03 63344496,7250,Tasmania,West Launceston,http://www.mghaccounting.com.au
Abbott Street,FJB Accounting Solutions Pty Ltd,AU,,0458711365,7250,Tasmania,East Launceston,http://www.fjbas.com.au/
Brisbane Street,Paul J Coates Pty Ltd,AU,info@pauljcoates.com.au,03 63345686,7250,Tasmania,East Launceston,http://pauljcoates.ypsitesmart.com.au/
Franmaree Road,My Net Consultant Pty Ltd,AU,ast35426@tpg.com.au,0439522711,7248,Tasmania,Newnham,
Tanner Drive,Elphin Accounting Pty Ltd,AU,gerry@elphinaccounting.com.au,03 63301213,7277,Tasmania,Legana,
Frankland Street,Fresh Financial Group Pty Ltd,AU,jo.styles@freshfg.com.au,03 6334 1500,7250,Tasmania,Glen Dhu,
York Street,MDH Accounting Pty Ltd,AU,mharvey@mdhaccounting.com.au,03 63344496,7250,Tasmania,West Launceston,http://www.mghaccounting.com.au
Abbott Street,FJB Accounting Solutions Pty Ltd,AU,,0458711365,7250,Tasmania,East Launceston,http://www.fjbas.com.au/
Brisbane Street,Paul J Coates Pty Ltd,AU,info@pauljcoates.com.au,03 63345686,7250,Tasmania,East Launceston,http://pauljcoates.ypsitesmart.com.au/
Louisa Street,Atom Business Accounting,AU,sholman@atomacc.com.au,03 6397 3625,7302,Tasmania,,http://www.atomacc.com.au
Emu Bay Road,Youd & Co,AU,youdaaron@gmail.com,0408508170,7304,Tasmania,,
Tanner Drive,Elphin Accounting Pty Ltd,AU,gerry@elphinaccounting.com.au,03 63301213,7277,Tasmania,Legana,
Tanner Drive,Elphin Accounting Pty Ltd,AU,gerry@elphinaccounting.com.au,03 63301213,7277,Tasmania,Legana,
Tanner Drive,Elphin Accounting Pty Ltd,AU,gerry@elphinaccounting.com.au,03 63301213,7277,Tasmania,Legana,
Emu Bay Road,Youd & Co,AU,youdaaron@gmail.com,0408508170,7304,Tasmania,,
Frankland Street,Fresh Financial Group Pty Ltd,AU,jo.styles@freshfg.com.au,03 6334 1500,7250,Tasmania,Glen Dhu,
York Street,MDH Accounting Pty Ltd,AU,mharvey@mdhaccounting.com.au,03 63344496,7250,Tasmania,West Launceston,http://www.mghaccounting.com.au
Brisbane Street,Paul J Coates Pty Ltd,AU,info@pauljcoates.com.au,03 63345686,7250,Tasmania,East Launceston,http://pauljcoates.ypsitesmart.com.au/
Abbott Street,FJB Accounting Solutions Pty Ltd,AU,,0458711365,7250,Tasmania,East Launceston,http://www.fjbas.com.au/
Frankland Street,Fresh Financial Group Pty Ltd,AU,jo.styles@freshfg.com.au,03 6334 1500,7250,Tasmania,Glen Dhu,
York Street,MDH Accounting Pty Ltd,AU,mharvey@mdhaccounting.com.au,03 63344496,7250,Tasmania,West Launceston,http://www.mghaccounting.com.au
Brisbane Street,Paul J Coates Pty Ltd,AU,info@pauljcoates.com.au,03 63345686,7250,Tasmania,East Launceston,http://pauljcoates.ypsitesmart.com.au/
Abbott Street,FJB Accounting Solutions Pty Ltd,AU,,0458711365,7250,Tasmania,East Launceston,http://www.fjbas.com.au/
Hobart Road,145 Financial Pty Ltd,AU,office@145financial.com.au,03 63449424,7249,Tasmania,Kings Meadows,http://www.145financial.com.au
Frankland Street,Fresh Financial Group Pty Ltd,AU,jo.styles@freshfg.com.au,03 6334 1500,7250,Tasmania,Glen Dhu,
Abbott Street,FJB Accounting Solutions Pty Ltd,AU,,0458711365,7250,Tasmania,East Launceston,http://www.fjbas.com.au/
York Street,MDH Accounting Pty Ltd,AU,mharvey@mdhaccounting.com.au,03 63344496,7250,Tasmania,West Launceston,http://www.mghaccounting.com.au
Brisbane Street,Paul J Coates Pty Ltd,AU,info@pauljcoates.com.au,03 63345686,7250,Tasmania,East Launceston,http://pauljcoates.ypsitesmart.com.au/
Hobart Road,145 Financial Pty Ltd,AU,office@145financial.com.au,03 63449424,7249,Tasmania,Kings Meadows,http://www.145financial.com.au
Frankland Street,Fresh Financial Group Pty Ltd,AU,jo.styles@freshfg.com.au,03 6334 1500,7250,Tasmania,Glen Dhu,
Abbott Street,FJB Accounting Solutions Pty Ltd,AU,,0458711365,7250,Tasmania,East Launceston,http://www.fjbas.com.au/
York Street,MDH Accounting Pty Ltd,AU,mharvey@mdhaccounting.com.au,03 63344496,7250,Tasmania,West Launceston,http://www.mghaccounting.com.au
Brisbane Street,Paul J Coates Pty Ltd,AU,info@pauljcoates.com.au,03 63345686,7250,Tasmania,East Launceston,http://pauljcoates.ypsitesmart.com.au/
Louisa Street,Atom Business Accounting,AU,sholman@atomacc.com.au,03 6397 3625,7302,Tasmania,,http://www.atomacc.com.au
Louisa Street,Atom Business Accounting,AU,sholman@atomacc.com.au,03 6397 3625,7302,Tasmania,,http://www.atomacc.com.au
Louisa Street,Atom Business Accounting,AU,sholman@atomacc.com.au,03 6397 3625,7302,Tasmania,,http://www.atomacc.com.au
Frankland Street,Fresh Financial Group Pty Ltd,AU,jo.styles@freshfg.com.au,03 6334 1500,7250,Tasmania,Glen Dhu,
Abbott Street,FJB Accounting Solutions Pty Ltd,AU,,0458711365,7250,Tasmania,East Launceston,http://www.fjbas.com.au/
York Street,MDH Accounting Pty Ltd,AU,mharvey@mdhaccounting.com.au,03 63344496,7250,Tasmania,West Launceston,http://www.mghaccounting.com.au
Brisbane Street,Paul J Coates Pty Ltd,AU,info@pauljcoates.com.au,03 63345686,7250,Tasmania,East Launceston,http://pauljcoates.ypsitesmart.com.au/
Louisa Street,Atom Business Accounting,AU,sholman@atomacc.com.au,03 6397 3625,7302,Tasmania,,http://www.atomacc.com.au
Louisa Street,Atom Business Accounting,AU,sholman@atomacc.com.au,03 6397 3625,7302,Tasmania,,http://www.atomacc.com.au
Louisa Street,Atom Business Accounting,AU,sholman@atomacc.com.au,03 6397 3625,7302,Tasmania,,http://www.atomacc.com.au
Louisa Street,Atom Business Accounting,AU,sholman@atomacc.com.au,03 6397 3625,7302,Tasmania,,http://www.atomacc.com.au
Tanner Drive,Elphin Accounting Pty Ltd,AU,gerry@elphinaccounting.com.au,03 63301213,7277,Tasmania,Legana,
Emu Bay Road,Youd & Co,AU,youdaaron@gmail.com,0408508170,7304,Tasmania,,
Louisa Street,Atom Business Accounting,AU,sholman@atomacc.com.au,03 6397 3625,7302,Tasmania,,http://www.atomacc.com.au
Emu Bay Road,Youd & Co,AU,youdaaron@gmail.com,0408508170,7304,Tasmania,,
Louisa Street,Atom Business Accounting,AU,sholman@atomacc.com.au,03 6397 3625,7302,Tasmania,,http://www.atomacc.com.au
Emu Bay Road,Youd & Co,AU,youdaaron@gmail.com,0408508170,7304,Tasmania,,
Emu Bay Road,Youd & Co,AU,youdaaron@gmail.com,0408508170,7304,Tasmania,,
Louisa Street,Atom Business Accounting,AU,sholman@atomacc.com.au,03 6397 3625,7302,Tasmania,,http://www.atomacc.com.au
Emu Bay Road,Youd & Co,AU,youdaaron@gmail.com,0408508170,7304,Tasmania,,
Emu Bay Road,Youd & Co,AU,youdaaron@gmail.com,0408508170,7304,Tasmania,,
Emu Bay Road,Youd & Co,AU,youdaaron@gmail.com,0408508170,7304,Tasmania,,
Emu Bay Road,Youd & Co,AU,youdaaron@gmail.com,0408508170,7304,Tasmania,,
Emu Bay Road,Youd & Co,AU,youdaaron@gmail.com,0408508170,7304,Tasmania,,
Emu Bay Road,Youd & Co,AU,youdaaron@gmail.com,0408508170,7304,Tasmania,,
Emu Bay Road,Youd & Co,AU,youdaaron@gmail.com,0408508170,7304,Tasmania,,
Emu Bay Road,Youd & Co,AU,youdaaron@gmail.com,0408508170,7304,Tasmania,,
Emu Bay Road,Youd & Co,AU,youdaaron@gmail.com,0408508170,7304,Tasmania,,
Emu Bay Road,Youd & Co,AU,youdaaron@gmail.com,0408508170,7304,Tasmania,,
Emu Bay Road,Youd & Co,AU,youdaaron@gmail.com,0408508170,7304,Tasmania,,
Emu Bay Road,Youd & Co,AU,youdaaron@gmail.com,0408508170,7304,Tasmania,,
Emu Bay Road,Youd & Co,AU,youdaaron@gmail.com,0408508170,7304,Tasmania,,
Emu Bay Road,Youd & Co,AU,youdaaron@gmail.com,0408508170,7304,Tasmania,,
Emu Bay Road,Youd & Co,AU,youdaaron@gmail.com,0408508170,7304,Tasmania,,
Emu Bay Road,Youd & Co,AU,youdaaron@gmail.com,0408508170,7304,Tasmania,,
Emu Bay Road,Youd & Co,AU,youdaaron@gmail.com,0408508170,7304,Tasmania,,
Emu Bay Road,Youd & Co,AU,youdaaron@gmail.com,0408508170,7304,Tasmania,,
Emu Bay Road,Youd & Co,AU,youdaaron@gmail.com,0408508170,7304,Tasmania,,
Emu Bay Road,Youd & Co,AU,youdaaron@gmail.com,0408508170,7304,Tasmania,,
Emu Bay Road,Youd & Co,AU,youdaaron@gmail.com,0408508170,7304,Tasmania,,
Emu Bay Road,Youd & Co,AU,youdaaron@gmail.com,0408508170,7304,Tasmania,,
Emu Bay Road,Youd & Co,AU,youdaaron@gmail.com,0408508170,7304,Tasmania,,
Emu Bay Road,Youd & Co,AU,youdaaron@gmail.com,0408508170,7304,Tasmania,,
Emu Bay Road,Youd & Co,AU,youdaaron@gmail.com,0408508170,7304,Tasmania,,
Emu Bay Road,Youd & Co,AU,youdaaron@gmail.com,0408508170,7304,Tasmania,,
Emu Bay Road,Youd & Co,AU,youdaaron@gmail.com,0408508170,7304,Tasmania,,
Emu Bay Road,Youd & Co,AU,youdaaron@gmail.com,0408508170,7304,Tasmania,,
Emu Bay Road,Youd & Co,AU,youdaaron@gmail.com,0408508170,7304,Tasmania,,
Spring Street,Paragon BDS,AU,karen@paragonbds.com.au,(130) 036-1346,7306,Tasmania,,www.paragonbds.com.au
Emu Bay Road,Youd & Co,AU,youdaaron@gmail.com,0408508170,7304,Tasmania,,
Cradle Mountain Road,,AU,kwl.love@yahoo.com,,7306,Tasmania,Cradle Valley,
Spring Street,Paragon BDS,AU,karen@paragonbds.com.au,(130) 036-1346,7306,Tasmania,,www.paragonbds.com.au
Cradle Mountain Road,,AU,kwl.love@yahoo.com,,7306,Tasmania,Cradle Valley,
Spring Street,Paragon BDS,AU,karen@paragonbds.com.au,(130) 036-1346,7306,Tasmania,,www.paragonbds.com.au
Emu Bay Road,Youd & Co,AU,youdaaron@gmail.com,0408508170,7304,Tasmania,,
Cradle Mountain Road,,AU,kwl.love@yahoo.com,,7306,Tasmania,Cradle Valley,
Spring Street,Paragon BDS,AU,karen@paragonbds.com.au,(130) 036-1346,7306,Tasmania,,www.paragonbds.com.au
Cradle Mountain Road,,AU,kwl.love@yahoo.com,,7306,Tasmania,Cradle Valley,
Spring Street,Paragon BDS,AU,karen@paragonbds.com.au,(130) 036-1346,7306,Tasmania,,www.paragonbds.com.au
Cradle Mountain Road,,AU,kwl.love@yahoo.com,,7306,Tasmania,Cradle Valley,
Spring Street,Paragon BDS,AU,karen@paragonbds.com.au,(130) 036-1346,7306,Tasmania,,www.paragonbds.com.au
Cradle Mountain Road,,AU,kwl.love@yahoo.com,,7306,Tasmania,Cradle Valley,
Spring Street,Paragon BDS,AU,karen@paragonbds.com.au,(130) 036-1346,7306,Tasmania,,www.paragonbds.com.au
Cradle Mountain Road,,AU,kwl.love@yahoo.com,,7306,Tasmania,Cradle Valley,
Spring Street,Paragon BDS,AU,karen@paragonbds.com.au,(130) 036-1346,7306,Tasmania,,www.paragonbds.com.au
Cradle Mountain Road,,AU,kwl.love@yahoo.com,,7306,Tasmania,Cradle Valley,
Cradle Mountain Road,,AU,kwl.love@yahoo.com,,7306,Tasmania,Cradle Valley,
Spring Street,Paragon BDS,AU,karen@paragonbds.com.au,(130) 036-1346,7306,Tasmania,,www.paragonbds.com.au
Spring Street,Paragon BDS,AU,karen@paragonbds.com.au,(130) 036-1346,7306,Tasmania,,www.paragonbds.com.au
Cradle Mountain Road,,AU,kwl.love@yahoo.com,,7306,Tasmania,Cradle Valley,
Cradle Mountain Road,,AU,kwl.love@yahoo.com,,7306,Tasmania,Cradle Valley,
Spring Street,Paragon BDS,AU,karen@paragonbds.com.au,(130) 036-1346,7306,Tasmania,,www.paragonbds.com.au
Spring Street,Paragon BDS,AU,karen@paragonbds.com.au,(130) 036-1346,7306,Tasmania,,www.paragonbds.com.au
Cradle Mountain Road,,AU,kwl.love@yahoo.com,,7306,Tasmania,Cradle Valley,
Spring Street,Paragon BDS,AU,karen@paragonbds.com.au,(130) 036-1346,7306,Tasmania,,www.paragonbds.com.au
Cradle Mountain Road,,AU,kwl.love@yahoo.com,,7306,Tasmania,Cradle Valley,
Cradle Mountain Road,,AU,kwl.love@yahoo.com,,7306,Tasmania,Cradle Valley,
Spring Street,Paragon BDS,AU,karen@paragonbds.com.au,(130) 036-1346,7306,Tasmania,,www.paragonbds.com.au
Spring Street,Paragon BDS,AU,karen@paragonbds.com.au,(130) 036-1346,7306,Tasmania,,www.paragonbds.com.au
Cradle Mountain Road,,AU,kwl.love@yahoo.com,,7306,Tasmania,Cradle Valley,
Spring Street,Paragon BDS,AU,karen@paragonbds.com.au,(130) 036-1346,7306,Tasmania,,www.paragonbds.com.au
Cradle Mountain Road,,AU,kwl.love@yahoo.com,,7306,Tasmania,Cradle Valley,
Spring Street,Paragon BDS,AU,karen@paragonbds.com.au,(130) 036-1346,7306,Tasmania,,www.paragonbds.com.au
Cradle Mountain Road,,AU,kwl.love@yahoo.com,,7306,Tasmania,Cradle Valley,
Spring Street,Paragon BDS,AU,karen@paragonbds.com.au,(130) 036-1346,7306,Tasmania,,www.paragonbds.com.au
Cradle Mountain Road,,AU,kwl.love@yahoo.com,,7306,Tasmania,Cradle Valley,
Spring Street,Paragon BDS,AU,karen@paragonbds.com.au,(130) 036-1346,7306,Tasmania,,www.paragonbds.com.au
Cradle Mountain Road,,AU,kwl.love@yahoo.com,,7306,Tasmania,Cradle Valley,
Spring Street,Paragon BDS,AU,karen@paragonbds.com.au,(130) 036-1346,7306,Tasmania,,www.paragonbds.com.au
Cradle Mountain Road,,AU,kwl.love@yahoo.com,,7306,Tasmania,Cradle Valley,
Spring Street,Paragon BDS,AU,karen@paragonbds.com.au,(130) 036-1346,7306,Tasmania,,www.paragonbds.com.au
Cradle Mountain Road,,AU,kwl.love@yahoo.com,,7306,Tasmania,Cradle Valley,
Spring Street,Paragon BDS,AU,karen@paragonbds.com.au,(130) 036-1346,7306,Tasmania,,www.paragonbds.com.au
Cradle Mountain Road,,AU,kwl.love@yahoo.com,,7306,Tasmania,Cradle Valley,
Spring Street,Paragon BDS,AU,karen@paragonbds.com.au,(130) 036-1346,7306,Tasmania,,www.paragonbds.com.au
Cradle Mountain Road,,AU,kwl.love@yahoo.com,,7306,Tasmania,Cradle Valley,
Edward Street,Willing Associates Pty Ltd,AU,willingd@bigpond.net.au,+61364231027,7310,Tasmania,East Devonport,http://www.willingassociates.com.au
Edward Street,Willing Associates Pty Ltd,AU,willingd@bigpond.net.au,+61364231027,7310,Tasmania,East Devonport,http://www.willingassociates.com.au
Edward Street,Willing Associates Pty Ltd,AU,willingd@bigpond.net.au,+61364231027,7310,Tasmania,East Devonport,http://www.willingassociates.com.au
Edward Street,Willing Associates Pty Ltd,AU,willingd@bigpond.net.au,+61364231027,7310,Tasmania,East Devonport,http://www.willingassociates.com.au
Edward Street,Willing Associates Pty Ltd,AU,willingd@bigpond.net.au,+61364231027,7310,Tasmania,East Devonport,http://www.willingassociates.com.au
Edward Street,Willing Associates Pty Ltd,AU,willingd@bigpond.net.au,+61364231027,7310,Tasmania,East Devonport,http://www.willingassociates.com.au
Edward Street,Willing Associates Pty Ltd,AU,willingd@bigpond.net.au,+61364231027,7310,Tasmania,East Devonport,http://www.willingassociates.com.au
Edward Street,Willing Associates Pty Ltd,AU,willingd@bigpond.net.au,+61364231027,7310,Tasmania,East Devonport,http://www.willingassociates.com.au
Edward Street,Willing Associates Pty Ltd,AU,willingd@bigpond.net.au,+61364231027,7310,Tasmania,East Devonport,http://www.willingassociates.com.au
Edward Street,Willing Associates Pty Ltd,AU,willingd@bigpond.net.au,+61364231027,7310,Tasmania,East Devonport,http://www.willingassociates.com.au
Edward Street,Willing Associates Pty Ltd,AU,willingd@bigpond.net.au,+61364231027,7310,Tasmania,East Devonport,http://www.willingassociates.com.au
Edward Street,Willing Associates Pty Ltd,AU,willingd@bigpond.net.au,+61364231027,7310,Tasmania,East Devonport,http://www.willingassociates.com.au
Edward Street,Willing Associates Pty Ltd,AU,willingd@bigpond.net.au,+61364231027,7310,Tasmania,East Devonport,http://www.willingassociates.com.au
Edward Street,Willing Associates Pty Ltd,AU,willingd@bigpond.net.au,+61364231027,7310,Tasmania,East Devonport,http://www.willingassociates.com.au
Edward Street,Willing Associates Pty Ltd,AU,willingd@bigpond.net.au,+61364231027,7310,Tasmania,East Devonport,http://www.willingassociates.com.au
Edward Street,Willing Associates Pty Ltd,AU,willingd@bigpond.net.au,+61364231027,7310,Tasmania,East Devonport,http://www.willingassociates.com.au
Edward Street,Willing Associates Pty Ltd,AU,willingd@bigpond.net.au,+61364231027,7310,Tasmania,East Devonport,http://www.willingassociates.com.au
Edward Street,Willing Associates Pty Ltd,AU,willingd@bigpond.net.au,+61364231027,7310,Tasmania,East Devonport,http://www.willingassociates.com.au
Bass Highway,Fusion Business Services,AU,fleur@fbservices.com.au,0400 012 681,7315,Tasmania,West Ulverstone,http://www.fbservices.com.au/
Victoria Street,Paragon Advisors & Accountants Pty Ltd,AU,karen@paragonbds.com.au,1300361346,7315,Tasmania,West Ulverstone,http://www.paragonbds.com.au
Hobbs Parade,Kent Accounting & Tax,AU,robyn@kentaccounting.com.au,03 64251067,7315,Tasmania,West Ulverstone,
Edward Street,Willing Associates Pty Ltd,AU,willingd@bigpond.net.au,+61364231027,7310,Tasmania,East Devonport,http://www.willingassociates.com.au
Edward Street,Willing Associates Pty Ltd,AU,willingd@bigpond.net.au,+61364231027,7310,Tasmania,East Devonport,http://www.willingassociates.com.au
Edward Street,Willing Associates Pty Ltd,AU,willingd@bigpond.net.au,+61364231027,7310,Tasmania,East Devonport,http://www.willingassociates.com.au
Edward Street,Willing Associates Pty Ltd,AU,willingd@bigpond.net.au,+61364231027,7310,Tasmania,East Devonport,http://www.willingassociates.com.au
Bass Highway,Fusion Business Services,AU,fleur@fbservices.com.au,0400 012 681,7315,Tasmania,West Ulverstone,http://www.fbservices.com.au/
Victoria Street,Paragon Advisors & Accountants Pty Ltd,AU,karen@paragonbds.com.au,1300361346,7315,Tasmania,West Ulverstone,http://www.paragonbds.com.au
Hobbs Parade,Kent Accounting & Tax,AU,robyn@kentaccounting.com.au,03 64251067,7315,Tasmania,West Ulverstone,
Edward Street,Willing Associates Pty Ltd,AU,willingd@bigpond.net.au,+61364231027,7310,Tasmania,East Devonport,http://www.willingassociates.com.au
Edward Street,Willing Associates Pty Ltd,AU,willingd@bigpond.net.au,+61364231027,7310,Tasmania,East Devonport,http://www.willingassociates.com.au
Edward Street,Willing Associates Pty Ltd,AU,willingd@bigpond.net.au,+61364231027,7310,Tasmania,East Devonport,http://www.willingassociates.com.au
Cradle Mountain Road,,AU,kwl.love@yahoo.com,,7306,Tasmania,Cradle Valley,
Spring Street,Paragon BDS,AU,karen@paragonbds.com.au,(130) 036-1346,7306,Tasmania,,www.paragonbds.com.au
Bass Highway,Fusion Business Services,AU,fleur@fbservices.com.au,0400 012 681,7315,Tasmania,West Ulverstone,http://www.fbservices.com.au/
Victoria Street,Paragon Advisors & Accountants Pty Ltd,AU,karen@paragonbds.com.au,1300361346,7315,Tasmania,West Ulverstone,http://www.paragonbds.com.au
Hobbs Parade,Kent Accounting & Tax,AU,robyn@kentaccounting.com.au,03 64251067,7315,Tasmania,West Ulverstone,
Edward Street,Willing Associates Pty Ltd,AU,willingd@bigpond.net.au,+61364231027,7310,Tasmania,East Devonport,http://www.willingassociates.com.au
Edward Street,Willing Associates Pty Ltd,AU,willingd@bigpond.net.au,+61364231027,7310,Tasmania,East Devonport,http://www.willingassociates.com.au
Edward Street,Willing Associates Pty Ltd,AU,willingd@bigpond.net.au,+61364231027,7310,Tasmania,East Devonport,http://www.willingassociates.com.au
Edward Street,Willing Associates Pty Ltd,AU,willingd@bigpond.net.au,+61364231027,7310,Tasmania,East Devonport,http://www.willingassociates.com.au
Edward Street,Willing Associates Pty Ltd,AU,willingd@bigpond.net.au,+61364231027,7310,Tasmania,East Devonport,http://www.willingassociates.com.au
Edward Street,Willing Associates Pty Ltd,AU,willingd@bigpond.net.au,+61364231027,7310,Tasmania,East Devonport,http://www.willingassociates.com.au
Edward Street,Willing Associates Pty Ltd,AU,willingd@bigpond.net.au,+61364231027,7310,Tasmania,East Devonport,http://www.willingassociates.com.au
Edward Street,Willing Associates Pty Ltd,AU,willingd@bigpond.net.au,+61364231027,7310,Tasmania,East Devonport,http://www.willingassociates.com.au
Edward Street,Willing Associates Pty Ltd,AU,willingd@bigpond.net.au,+61364231027,7310,Tasmania,East Devonport,http://www.willingassociates.com.au
Edward Street,Willing Associates Pty Ltd,AU,willingd@bigpond.net.au,+61364231027,7310,Tasmania,East Devonport,http://www.willingassociates.com.au
Bass Highway,Fusion Business Services,AU,fleur@fbservices.com.au,0400 012 681,7315,Tasmania,West Ulverstone,http://www.fbservices.com.au/
Victoria Street,Paragon Advisors & Accountants Pty Ltd,AU,karen@paragonbds.com.au,1300361346,7315,Tasmania,West Ulverstone,http://www.paragonbds.com.au
Hobbs Parade,Kent Accounting & Tax,AU,robyn@kentaccounting.com.au,03 64251067,7315,Tasmania,West Ulverstone,
Bass Highway,Fusion Business Services,AU,fleur@fbservices.com.au,0400 012 681,7315,Tasmania,West Ulverstone,http://www.fbservices.com.au/
Victoria Street,Paragon Advisors & Accountants Pty Ltd,AU,karen@paragonbds.com.au,1300361346,7315,Tasmania,West Ulverstone,http://www.paragonbds.com.au
Hobbs Parade,Kent Accounting & Tax,AU,robyn@kentaccounting.com.au,03 64251067,7315,Tasmania,West Ulverstone,
Bass Highway,Fusion Business Services,AU,fleur@fbservices.com.au,0400 012 681,7315,Tasmania,West Ulverstone,http://www.fbservices.com.au/
Victoria Street,Paragon Advisors & Accountants Pty Ltd,AU,karen@paragonbds.com.au,1300361346,7315,Tasmania,West Ulverstone,http://www.paragonbds.com.au
Hobbs Parade,Kent Accounting & Tax,AU,robyn@kentaccounting.com.au,03 64251067,7315,Tasmania,West Ulverstone,
Bass Highway,Fusion Business Services,AU,fleur@fbservices.com.au,0400 012 681,7315,Tasmania,West Ulverstone,http://www.fbservices.com.au/
Hobbs Parade,Kent Accounting & Tax,AU,robyn@kentaccounting.com.au,03 64251067,7315,Tasmania,West Ulverstone,
Victoria Street,Paragon Advisors & Accountants Pty Ltd,AU,karen@paragonbds.com.au,1300361346,7315,Tasmania,West Ulverstone,http://www.paragonbds.com.au
Bass Highway,Fusion Business Services,AU,fleur@fbservices.com.au,0400 012 681,7315,Tasmania,West Ulverstone,http://www.fbservices.com.au/
Victoria Street,Paragon Advisors & Accountants Pty Ltd,AU,karen@paragonbds.com.au,1300361346,7315,Tasmania,West Ulverstone,http://www.paragonbds.com.au
Hobbs Parade,Kent Accounting & Tax,AU,robyn@kentaccounting.com.au,03 64251067,7315,Tasmania,West Ulverstone,
Bass Highway,Fusion Business Services,AU,fleur@fbservices.com.au,0400 012 681,7315,Tasmania,West Ulverstone,http://www.fbservices.com.au/
Victoria Street,Paragon Advisors & Accountants Pty Ltd,AU,karen@paragonbds.com.au,1300361346,7315,Tasmania,West Ulverstone,http://www.paragonbds.com.au
Hobbs Parade,Kent Accounting & Tax,AU,robyn@kentaccounting.com.au,03 64251067,7315,Tasmania,West Ulverstone,
Bass Highway,Fusion Business Services,AU,fleur@fbservices.com.au,0400 012 681,7315,Tasmania,West Ulverstone,http://www.fbservices.com.au/
Victoria Street,Paragon Advisors & Accountants Pty Ltd,AU,karen@paragonbds.com.au,1300361346,7315,Tasmania,West Ulverstone,http://www.paragonbds.com.au
Hobbs Parade,Kent Accounting & Tax,AU,robyn@kentaccounting.com.au,03 64251067,7315,Tasmania,West Ulverstone,
Hobbs Parade,Kent Accounting & Tax,AU,robyn@kentaccounting.com.au,03 64251067,7315,Tasmania,West Ulverstone,
Victoria Street,Paragon Advisors & Accountants Pty Ltd,AU,karen@paragonbds.com.au,1300361346,7315,Tasmania,West Ulverstone,http://www.paragonbds.com.au
Bass Highway,Fusion Business Services,AU,fleur@fbservices.com.au,0400 012 681,7315,Tasmania,West Ulverstone,http://www.fbservices.com.au/
Bass Highway,Fusion Business Services,AU,fleur@fbservices.com.au,0400 012 681,7315,Tasmania,West Ulverstone,http://www.fbservices.com.au/
Victoria Street,Paragon Advisors & Accountants Pty Ltd,AU,karen@paragonbds.com.au,1300361346,7315,Tasmania,West Ulverstone,http://www.paragonbds.com.au
Hobbs Parade,Kent Accounting & Tax,AU,robyn@kentaccounting.com.au,03 64251067,7315,Tasmania,West Ulverstone,
Bass Highway,Fusion Business Services,AU,fleur@fbservices.com.au,0400 012 681,7315,Tasmania,West Ulverstone,http://www.fbservices.com.au/
Victoria Street,Paragon Advisors & Accountants Pty Ltd,AU,karen@paragonbds.com.au,1300361346,7315,Tasmania,West Ulverstone,http://www.paragonbds.com.au
Hobbs Parade,Kent Accounting & Tax,AU,robyn@kentaccounting.com.au,03 64251067,7315,Tasmania,West Ulverstone,
Edward Street,Willing Associates Pty Ltd,AU,willingd@bigpond.net.au,+61364231027,7310,Tasmania,East Devonport,http://www.willingassociates.com.au
Bass Highway,Fusion Business Services,AU,fleur@fbservices.com.au,0400 012 681,7315,Tasmania,West Ulverstone,http://www.fbservices.com.au/
Victoria Street,Paragon Advisors & Accountants Pty Ltd,AU,karen@paragonbds.com.au,1300361346,7315,Tasmania,West Ulverstone,http://www.paragonbds.com.au
Hobbs Parade,Kent Accounting & Tax,AU,robyn@kentaccounting.com.au,03 64251067,7315,Tasmania,West Ulverstone,
Bass Highway,Fusion Business Services,AU,fleur@fbservices.com.au,0400 012 681,7315,Tasmania,West Ulverstone,http://www.fbservices.com.au/
Victoria Street,Paragon Advisors & Accountants Pty Ltd,AU,karen@paragonbds.com.au,1300361346,7315,Tasmania,West Ulverstone,http://www.paragonbds.com.au
Hobbs Parade,Kent Accounting & Tax,AU,robyn@kentaccounting.com.au,03 64251067,7315,Tasmania,West Ulverstone,
Bass Highway,Fusion Business Services,AU,fleur@fbservices.com.au,0400 012 681,7315,Tasmania,West Ulverstone,http://www.fbservices.com.au/
Victoria Street,Paragon Advisors & Accountants Pty Ltd,AU,karen@paragonbds.com.au,1300361346,7315,Tasmania,West Ulverstone,http://www.paragonbds.com.au
Hobbs Parade,Kent Accounting & Tax,AU,robyn@kentaccounting.com.au,03 64251067,7315,Tasmania,West Ulverstone,
Bass Highway,Fusion Business Services,AU,fleur@fbservices.com.au,0400 012 681,7315,Tasmania,West Ulverstone,http://www.fbservices.com.au/
Victoria Street,Paragon Advisors & Accountants Pty Ltd,AU,karen@paragonbds.com.au,1300361346,7315,Tasmania,West Ulverstone,http://www.paragonbds.com.au
Hobbs Parade,Kent Accounting & Tax,AU,robyn@kentaccounting.com.au,03 64251067,7315,Tasmania,West Ulverstone,
Victoria Street,Paragon Advisors & Accountants Pty Ltd,AU,karen@paragonbds.com.au,1300361346,7315,Tasmania,West Ulverstone,http://www.paragonbds.com.au
Hobbs Parade,Kent Accounting & Tax,AU,robyn@kentaccounting.com.au,03 64251067,7315,Tasmania,West Ulverstone,
Bass Highway,Fusion Business Services,AU,fleur@fbservices.com.au,0400 012 681,7315,Tasmania,West Ulverstone,http://www.fbservices.com.au/
Bass Highway,Fusion Business Services,AU,fleur@fbservices.com.au,0400 012 681,7315,Tasmania,West Ulverstone,http://www.fbservices.com.au/
Victoria Street,Paragon Advisors & Accountants Pty Ltd,AU,karen@paragonbds.com.au,1300361346,7315,Tasmania,West Ulverstone,http://www.paragonbds.com.au
Hobbs Parade,Kent Accounting & Tax,AU,robyn@kentaccounting.com.au,03 64251067,7315,Tasmania,West Ulverstone,
Hobbs Parade,Kent Accounting & Tax,AU,robyn@kentaccounting.com.au,03 64251067,7315,Tasmania,West Ulverstone,
Victoria Street,Paragon Advisors & Accountants Pty Ltd,AU,karen@paragonbds.com.au,1300361346,7315,Tasmania,West Ulverstone,http://www.paragonbds.com.au
Bass Highway,Fusion Business Services,AU,fleur@fbservices.com.au,0400 012 681,7315,Tasmania,West Ulverstone,http://www.fbservices.com.au/
Mount Street,Elphinstone Stevens Pty Ltd,AU,david@elst.com.au,61364313933,7320,Tasmania,Upper Burnie,http://www.elst.com.au
Mount Street,Lovell & Morrison,AU,dean@lmtax.com.au,03 64315666,7320,Tasmania,Montello,http://www.lmtax.net.au/
Mount Street,Platinum Accounting & Investment Services Burnie Pty Ltd,AU,chivonne@platinumburnie.com,03 6432 1018,7320,Tasmania,Montello,http://www.platinumburnie.com/
Wilson Street,Six Star Accounting & Taxation,AU,garry@sixstar.com.au,03 64319880,7320,Tasmania,Montello,
Wilmot Street,Lawson Hyland Pty Ltd,AU,,03 64319998,7320,Tasmania,Montello,http://
King Street,Active Accountants,AU,,03 6431 9435,7320,Tasmania,Montello,http://www.activeaccountants.com.au/
Queen Street,Norton & Co,AU,mail@nortonaccountants.com,03 64313655,7320,Tasmania,Montello,
Hobbs Parade,Kent Accounting & Tax,AU,robyn@kentaccounting.com.au,03 64251067,7315,Tasmania,West Ulverstone,
Victoria Street,Paragon Advisors & Accountants Pty Ltd,AU,karen@paragonbds.com.au,1300361346,7315,Tasmania,West Ulverstone,http://www.paragonbds.com.au
Bass Highway,Fusion Business Services,AU,fleur@fbservices.com.au,0400 012 681,7315,Tasmania,West Ulverstone,http://www.fbservices.com.au/
Mount Street,Elphinstone Stevens Pty Ltd,AU,david@elst.com.au,61364313933,7320,Tasmania,Upper Burnie,http://www.elst.com.au
Mount Street,Lovell & Morrison,AU,dean@lmtax.com.au,03 64315666,7320,Tasmania,Montello,http://www.lmtax.net.au/
Mount Street,Platinum Accounting & Investment Services Burnie Pty Ltd,AU,chivonne@platinumburnie.com,03 6432 1018,7320,Tasmania,Montello,http://www.platinumburnie.com/
Wilson Street,Six Star Accounting & Taxation,AU,garry@sixstar.com.au,03 64319880,7320,Tasmania,Montello,
Wilmot Street,Lawson Hyland Pty Ltd,AU,,03 64319998,7320,Tasmania,Montello,http://
King Street,Active Accountants,AU,,03 6431 9435,7320,Tasmania,Montello,http://www.activeaccountants.com.au/
Queen Street,Norton & Co,AU,mail@nortonaccountants.com,03 64313655,7320,Tasmania,Montello,
Mount Street,Elphinstone Stevens Pty Ltd,AU,david@elst.com.au,61364313933,7320,Tasmania,Upper Burnie,http://www.elst.com.au
Wilson Street,Six Star Accounting & Taxation,AU,garry@sixstar.com.au,03 64319880,7320,Tasmania,Montello,
Mount Street,Lovell & Morrison,AU,dean@lmtax.com.au,03 64315666,7320,Tasmania,Montello,http://www.lmtax.net.au/
Mount Street,Platinum Accounting & Investment Services Burnie Pty Ltd,AU,chivonne@platinumburnie.com,03 6432 1018,7320,Tasmania,Montello,http://www.platinumburnie.com/
Wilmot Street,Lawson Hyland Pty Ltd,AU,,03 64319998,7320,Tasmania,Montello,http://
King Street,Active Accountants,AU,,03 6431 9435,7320,Tasmania,Montello,http://www.activeaccountants.com.au/
Queen Street,Norton & Co,AU,mail@nortonaccountants.com,03 64313655,7320,Tasmania,Montello,
Mount Street,Elphinstone Stevens Pty Ltd,AU,david@elst.com.au,61364313933,7320,Tasmania,Upper Burnie,http://www.elst.com.au
Wilson Street,Six Star Accounting & Taxation,AU,garry@sixstar.com.au,03 64319880,7320,Tasmania,Montello,
Mount Street,Lovell & Morrison,AU,dean@lmtax.com.au,03 64315666,7320,Tasmania,Montello,http://www.lmtax.net.au/
Mount Street,Platinum Accounting & Investment Services Burnie Pty Ltd,AU,chivonne@platinumburnie.com,03 6432 1018,7320,Tasmania,Montello,http://www.platinumburnie.com/
Wilmot Street,Lawson Hyland Pty Ltd,AU,,03 64319998,7320,Tasmania,Montello,http://
King Street,Active Accountants,AU,,03 6431 9435,7320,Tasmania,Montello,http://www.activeaccountants.com.au/
Queen Street,Norton & Co,AU,mail@nortonaccountants.com,03 64313655,7320,Tasmania,Montello,
Hobbs Parade,Kent Accounting & Tax,AU,robyn@kentaccounting.com.au,03 64251067,7315,Tasmania,West Ulverstone,
Victoria Street,Paragon Advisors & Accountants Pty Ltd,AU,karen@paragonbds.com.au,1300361346,7315,Tasmania,West Ulverstone,http://www.paragonbds.com.au
Bass Highway,Fusion Business Services,AU,fleur@fbservices.com.au,0400 012 681,7315,Tasmania,West Ulverstone,http://www.fbservices.com.au/
Hobbs Parade,Kent Accounting & Tax,AU,robyn@kentaccounting.com.au,03 64251067,7315,Tasmania,West Ulverstone,
Victoria Street,Paragon Advisors & Accountants Pty Ltd,AU,karen@paragonbds.com.au,1300361346,7315,Tasmania,West Ulverstone,http://www.paragonbds.com.au
Bass Highway,Fusion Business Services,AU,fleur@fbservices.com.au,0400 012 681,7315,Tasmania,West Ulverstone,http://www.fbservices.com.au/
Hobbs Parade,Kent Accounting & Tax,AU,robyn@kentaccounting.com.au,03 64251067,7315,Tasmania,West Ulverstone,
Victoria Street,Paragon Advisors & Accountants Pty Ltd,AU,karen@paragonbds.com.au,1300361346,7315,Tasmania,West Ulverstone,http://www.paragonbds.com.au
Bass Highway,Fusion Business Services,AU,fleur@fbservices.com.au,0400 012 681,7315,Tasmania,West Ulverstone,http://www.fbservices.com.au/
Hobbs Parade,Kent Accounting & Tax,AU,robyn@kentaccounting.com.au,03 64251067,7315,Tasmania,West Ulverstone,
Victoria Street,Paragon Advisors & Accountants Pty Ltd,AU,karen@paragonbds.com.au,1300361346,7315,Tasmania,West Ulverstone,http://www.paragonbds.com.au
Bass Highway,Fusion Business Services,AU,fleur@fbservices.com.au,0400 012 681,7315,Tasmania,West Ulverstone,http://www.fbservices.com.au/
Hobbs Parade,Kent Accounting & Tax,AU,robyn@kentaccounting.com.au,03 64251067,7315,Tasmania,West Ulverstone,
Victoria Street,Paragon Advisors & Accountants Pty Ltd,AU,karen@paragonbds.com.au,1300361346,7315,Tasmania,West Ulverstone,http://www.paragonbds.com.au
Bass Highway,Fusion Business Services,AU,fleur@fbservices.com.au,0400 012 681,7315,Tasmania,West Ulverstone,http://www.fbservices.com.au/
Mount Street,Elphinstone Stevens Pty Ltd,AU,david@elst.com.au,61364313933,7320,Tasmania,Upper Burnie,http://www.elst.com.au
Wilson Street,Six Star Accounting & Taxation,AU,garry@sixstar.com.au,03 64319880,7320,Tasmania,Montello,
Mount Street,Lovell & Morrison,AU,dean@lmtax.com.au,03 64315666,7320,Tasmania,Montello,http://www.lmtax.net.au/
Mount Street,Platinum Accounting & Investment Services Burnie Pty Ltd,AU,chivonne@platinumburnie.com,03 6432 1018,7320,Tasmania,Montello,http://www.platinumburnie.com/
Wilmot Street,Lawson Hyland Pty Ltd,AU,,03 64319998,7320,Tasmania,Montello,http://
King Street,Active Accountants,AU,,03 6431 9435,7320,Tasmania,Montello,http://www.activeaccountants.com.au/
Queen Street,Norton & Co,AU,mail@nortonaccountants.com,03 64313655,7320,Tasmania,Montello,
Mount Street,Elphinstone Stevens Pty Ltd,AU,david@elst.com.au,61364313933,7320,Tasmania,Upper Burnie,http://www.elst.com.au
Mount Street,Lovell & Morrison,AU,dean@lmtax.com.au,03 64315666,7320,Tasmania,Montello,http://www.lmtax.net.au/
Mount Street,Platinum Accounting & Investment Services Burnie Pty Ltd,AU,chivonne@platinumburnie.com,03 6432 1018,7320,Tasmania,Montello,http://www.platinumburnie.com/
Wilson Street,Six Star Accounting & Taxation,AU,garry@sixstar.com.au,03 64319880,7320,Tasmania,Montello,
Wilmot Street,Lawson Hyland Pty Ltd,AU,,03 64319998,7320,Tasmania,Montello,http://
King Street,Active Accountants,AU,,03 6431 9435,7320,Tasmania,Montello,http://www.activeaccountants.com.au/
Queen Street,Norton & Co,AU,mail@nortonaccountants.com,03 64313655,7320,Tasmania,Montello,
Hobbs Parade,Kent Accounting & Tax,AU,robyn@kentaccounting.com.au,03 64251067,7315,Tasmania,West Ulverstone,
Victoria Street,Paragon Advisors & Accountants Pty Ltd,AU,karen@paragonbds.com.au,1300361346,7315,Tasmania,West Ulverstone,http://www.paragonbds.com.au
Bass Highway,Fusion Business Services,AU,fleur@fbservices.com.au,0400 012 681,7315,Tasmania,West Ulverstone,http://www.fbservices.com.au/
Mount Street,Elphinstone Stevens Pty Ltd,AU,david@elst.com.au,61364313933,7320,Tasmania,Upper Burnie,http://www.elst.com.au
Mount Street,Lovell & Morrison,AU,dean@lmtax.com.au,03 64315666,7320,Tasmania,Montello,http://www.lmtax.net.au/
Mount Street,Platinum Accounting & Investment Services Burnie Pty Ltd,AU,chivonne@platinumburnie.com,03 6432 1018,7320,Tasmania,Montello,http://www.platinumburnie.com/
King Street,Active Accountants,AU,,03 6431 9435,7320,Tasmania,Montello,http://www.activeaccountants.com.au/
Wilmot Street,Lawson Hyland Pty Ltd,AU,,03 64319998,7320,Tasmania,Montello,http://
Queen Street,Norton & Co,AU,mail@nortonaccountants.com,03 64313655,7320,Tasmania,Montello,
Wilson Street,Six Star Accounting & Taxation,AU,garry@sixstar.com.au,03 64319880,7320,Tasmania,Montello,
Mount Street,Elphinstone Stevens Pty Ltd,AU,david@elst.com.au,61364313933,7320,Tasmania,Upper Burnie,http://www.elst.com.au
Mount Street,Lovell & Morrison,AU,dean@lmtax.com.au,03 64315666,7320,Tasmania,Montello,http://www.lmtax.net.au/
Mount Street,Platinum Accounting & Investment Services Burnie Pty Ltd,AU,chivonne@platinumburnie.com,03 6432 1018,7320,Tasmania,Montello,http://www.platinumburnie.com/
Wilson Street,Six Star Accounting & Taxation,AU,garry@sixstar.com.au,03 64319880,7320,Tasmania,Montello,
Wilmot Street,Lawson Hyland Pty Ltd,AU,,03 64319998,7320,Tasmania,Montello,http://
King Street,Active Accountants,AU,,03 6431 9435,7320,Tasmania,Montello,http://www.activeaccountants.com.au/
Queen Street,Norton & Co,AU,mail@nortonaccountants.com,03 64313655,7320,Tasmania,Montello,
Mount Street,Lovell & Morrison,AU,dean@lmtax.com.au,03 64315666,7320,Tasmania,Montello,http://www.lmtax.net.au/
Mount Street,Platinum Accounting & Investment Services Burnie Pty Ltd,AU,chivonne@platinumburnie.com,03 6432 1018,7320,Tasmania,Montello,http://www.platinumburnie.com/
Wilson Street,Six Star Accounting & Taxation,AU,garry@sixstar.com.au,03 64319880,7320,Tasmania,Montello,
Wilmot Street,Lawson Hyland Pty Ltd,AU,,03 64319998,7320,Tasmania,Montello,http://
King Street,Active Accountants,AU,,03 6431 9435,7320,Tasmania,Montello,http://www.activeaccountants.com.au/
Queen Street,Norton & Co,AU,mail@nortonaccountants.com,03 64313655,7320,Tasmania,Montello,
Mount Street,Elphinstone Stevens Pty Ltd,AU,david@elst.com.au,61364313933,7320,Tasmania,Upper Burnie,http://www.elst.com.au
Queen Street,Norton & Co,AU,mail@nortonaccountants.com,03 64313655,7320,Tasmania,Montello,
King Street,Active Accountants,AU,,03 6431 9435,7320,Tasmania,Montello,http://www.activeaccountants.com.au/
Wilmot Street,Lawson Hyland Pty Ltd,AU,,03 64319998,7320,Tasmania,Montello,http://
Mount Street,Lovell & Morrison,AU,dean@lmtax.com.au,03 64315666,7320,Tasmania,Montello,http://www.lmtax.net.au/
Mount Street,Platinum Accounting & Investment Services Burnie Pty Ltd,AU,chivonne@platinumburnie.com,03 6432 1018,7320,Tasmania,Montello,http://www.platinumburnie.com/
Wilson Street,Six Star Accounting & Taxation,AU,garry@sixstar.com.au,03 64319880,7320,Tasmania,Montello,
Mount Street,Elphinstone Stevens Pty Ltd,AU,david@elst.com.au,61364313933,7320,Tasmania,Upper Burnie,http://www.elst.com.au
Queen Street,Norton & Co,AU,mail@nortonaccountants.com,03 64313655,7320,Tasmania,Montello,
King Street,Active Accountants,AU,,03 6431 9435,7320,Tasmania,Montello,http://www.activeaccountants.com.au/
Wilmot Street,Lawson Hyland Pty Ltd,AU,,03 64319998,7320,Tasmania,Montello,http://
Mount Street,Lovell & Morrison,AU,dean@lmtax.com.au,03 64315666,7320,Tasmania,Montello,http://www.lmtax.net.au/
Mount Street,Platinum Accounting & Investment Services Burnie Pty Ltd,AU,chivonne@platinumburnie.com,03 6432 1018,7320,Tasmania,Montello,http://www.platinumburnie.com/
Wilson Street,Six Star Accounting & Taxation,AU,garry@sixstar.com.au,03 64319880,7320,Tasmania,Montello,
Mount Street,Elphinstone Stevens Pty Ltd,AU,david@elst.com.au,61364313933,7320,Tasmania,Upper Burnie,http://www.elst.com.au
Mount Street,Elphinstone Stevens Pty Ltd,AU,david@elst.com.au,61364313933,7320,Tasmania,Upper Burnie,http://www.elst.com.au
Mount Street,Lovell & Morrison,AU,dean@lmtax.com.au,03 64315666,7320,Tasmania,Montello,http://www.lmtax.net.au/
Mount Street,Platinum Accounting & Investment Services Burnie Pty Ltd,AU,chivonne@platinumburnie.com,03 6432 1018,7320,Tasmania,Montello,http://www.platinumburnie.com/
Wilmot Street,Lawson Hyland Pty Ltd,AU,,03 64319998,7320,Tasmania,Montello,http://
King Street,Active Accountants,AU,,03 6431 9435,7320,Tasmania,Montello,http://www.activeaccountants.com.au/
Wilson Street,Six Star Accounting & Taxation,AU,garry@sixstar.com.au,03 64319880,7320,Tasmania,Montello,
Queen Street,Norton & Co,AU,mail@nortonaccountants.com,03 64313655,7320,Tasmania,Montello,
Mount Street,Elphinstone Stevens Pty Ltd,AU,david@elst.com.au,61364313933,7320,Tasmania,Upper Burnie,http://www.elst.com.au
Mount Street,Lovell & Morrison,AU,dean@lmtax.com.au,03 64315666,7320,Tasmania,Montello,http://www.lmtax.net.au/
Mount Street,Platinum Accounting & Investment Services Burnie Pty Ltd,AU,chivonne@platinumburnie.com,03 6432 1018,7320,Tasmania,Montello,http://www.platinumburnie.com/
Wilson Street,Six Star Accounting & Taxation,AU,garry@sixstar.com.au,03 64319880,7320,Tasmania,Montello,
Wilmot Street,Lawson Hyland Pty Ltd,AU,,03 64319998,7320,Tasmania,Montello,http://
King Street,Active Accountants,AU,,03 6431 9435,7320,Tasmania,Montello,http://www.activeaccountants.com.au/
Queen Street,Norton & Co,AU,mail@nortonaccountants.com,03 64313655,7320,Tasmania,Montello,
Mount Street,Elphinstone Stevens Pty Ltd,AU,david@elst.com.au,61364313933,7320,Tasmania,Upper Burnie,http://www.elst.com.au
Mount Street,Lovell & Morrison,AU,dean@lmtax.com.au,03 64315666,7320,Tasmania,Montello,http://www.lmtax.net.au/
Mount Street,Platinum Accounting & Investment Services Burnie Pty Ltd,AU,chivonne@platinumburnie.com,03 6432 1018,7320,Tasmania,Montello,http://www.platinumburnie.com/
Wilson Street,Six Star Accounting & Taxation,AU,garry@sixstar.com.au,03 64319880,7320,Tasmania,Montello,
Wilmot Street,Lawson Hyland Pty Ltd,AU,,03 64319998,7320,Tasmania,Montello,http://
King Street,Active Accountants,AU,,03 6431 9435,7320,Tasmania,Montello,http://www.activeaccountants.com.au/
Queen Street,Norton & Co,AU,mail@nortonaccountants.com,03 64313655,7320,Tasmania,Montello,
Mount Street,Elphinstone Stevens Pty Ltd,AU,david@elst.com.au,61364313933,7320,Tasmania,Upper Burnie,http://www.elst.com.au
Mount Street,Lovell & Morrison,AU,dean@lmtax.com.au,03 64315666,7320,Tasmania,Montello,http://www.lmtax.net.au/
Mount Street,Platinum Accounting & Investment Services Burnie Pty Ltd,AU,chivonne@platinumburnie.com,03 6432 1018,7320,Tasmania,Montello,http://www.platinumburnie.com/
King Street,Active Accountants,AU,,03 6431 9435,7320,Tasmania,Montello,http://www.activeaccountants.com.au/
Wilmot Street,Lawson Hyland Pty Ltd,AU,,03 64319998,7320,Tasmania,Montello,http://
Queen Street,Norton & Co,AU,mail@nortonaccountants.com,03 64313655,7320,Tasmania,Montello,
Wilson Street,Six Star Accounting & Taxation,AU,garry@sixstar.com.au,03 64319880,7320,Tasmania,Montello,
Queen Street,Norton & Co,AU,mail@nortonaccountants.com,03 64313655,7320,Tasmania,Montello,
Mount Street,Lovell & Morrison,AU,dean@lmtax.com.au,03 64315666,7320,Tasmania,Montello,http://www.lmtax.net.au/
Mount Street,Platinum Accounting & Investment Services Burnie Pty Ltd,AU,chivonne@platinumburnie.com,03 6432 1018,7320,Tasmania,Montello,http://www.platinumburnie.com/
King Street,Active Accountants,AU,,03 6431 9435,7320,Tasmania,Montello,http://www.activeaccountants.com.au/
Wilmot Street,Lawson Hyland Pty Ltd,AU,,03 64319998,7320,Tasmania,Montello,http://
Wilson Street,Six Star Accounting & Taxation,AU,garry@sixstar.com.au,03 64319880,7320,Tasmania,Montello,
Mount Street,Elphinstone Stevens Pty Ltd,AU,david@elst.com.au,61364313933,7320,Tasmania,Upper Burnie,http://www.elst.com.au
Queen Street,Norton & Co,AU,mail@nortonaccountants.com,03 64313655,7320,Tasmania,Montello,
King Street,Active Accountants,AU,,03 6431 9435,7320,Tasmania,Montello,http://www.activeaccountants.com.au/
Wilmot Street,Lawson Hyland Pty Ltd,AU,,03 64319998,7320,Tasmania,Montello,http://
Mount Street,Lovell & Morrison,AU,dean@lmtax.com.au,03 64315666,7320,Tasmania,Montello,http://www.lmtax.net.au/
Mount Street,Platinum Accounting & Investment Services Burnie Pty Ltd,AU,chivonne@platinumburnie.com,03 6432 1018,7320,Tasmania,Montello,http://www.platinumburnie.com/
Wilson Street,Six Star Accounting & Taxation,AU,garry@sixstar.com.au,03 64319880,7320,Tasmania,Montello,
Mount Street,Elphinstone Stevens Pty Ltd,AU,david@elst.com.au,61364313933,7320,Tasmania,Upper Burnie,http://www.elst.com.au
Queen Street,Norton & Co,AU,mail@nortonaccountants.com,03 64313655,7320,Tasmania,Montello,
King Street,Active Accountants,AU,,03 6431 9435,7320,Tasmania,Montello,http://www.activeaccountants.com.au/
Mount Street,Lovell & Morrison,AU,dean@lmtax.com.au,03 64315666,7320,Tasmania,Montello,http://www.lmtax.net.au/
Mount Street,Platinum Accounting & Investment Services Burnie Pty Ltd,AU,chivonne@platinumburnie.com,03 6432 1018,7320,Tasmania,Montello,http://www.platinumburnie.com/
Wilmot Street,Lawson Hyland Pty Ltd,AU,,03 64319998,7320,Tasmania,Montello,http://
Wilson Street,Six Star Accounting & Taxation,AU,garry@sixstar.com.au,03 64319880,7320,Tasmania,Montello,
Mount Street,Elphinstone Stevens Pty Ltd,AU,david@elst.com.au,61364313933,7320,Tasmania,Upper Burnie,http://www.elst.com.au
Queen Street,Norton & Co,AU,mail@nortonaccountants.com,03 64313655,7320,Tasmania,Montello,
King Street,Active Accountants,AU,,03 6431 9435,7320,Tasmania,Montello,http://www.activeaccountants.com.au/
Wilmot Street,Lawson Hyland Pty Ltd,AU,,03 64319998,7320,Tasmania,Montello,http://
Mount Street,Lovell & Morrison,AU,dean@lmtax.com.au,03 64315666,7320,Tasmania,Montello,http://www.lmtax.net.au/
Mount Street,Platinum Accounting & Investment Services Burnie Pty Ltd,AU,chivonne@platinumburnie.com,03 6432 1018,7320,Tasmania,Montello,http://www.platinumburnie.com/
Wilson Street,Six Star Accounting & Taxation,AU,garry@sixstar.com.au,03 64319880,7320,Tasmania,Montello,
Mount Street,Elphinstone Stevens Pty Ltd,AU,david@elst.com.au,61364313933,7320,Tasmania,Upper Burnie,http://www.elst.com.au
Mount Street,Elphinstone Stevens Pty Ltd,AU,david@elst.com.au,61364313933,7320,Tasmania,Upper Burnie,http://www.elst.com.au
Mount Street,Lovell & Morrison,AU,dean@lmtax.com.au,03 64315666,7320,Tasmania,Montello,http://www.lmtax.net.au/
Mount Street,Platinum Accounting & Investment Services Burnie Pty Ltd,AU,chivonne@platinumburnie.com,03 6432 1018,7320,Tasmania,Montello,http://www.platinumburnie.com/
Wilmot Street,Lawson Hyland Pty Ltd,AU,,03 64319998,7320,Tasmania,Montello,http://
Wilson Street,Six Star Accounting & Taxation,AU,garry@sixstar.com.au,03 64319880,7320,Tasmania,Montello,
King Street,Active Accountants,AU,,03 6431 9435,7320,Tasmania,Montello,http://www.activeaccountants.com.au/
Queen Street,Norton & Co,AU,mail@nortonaccountants.com,03 64313655,7320,Tasmania,Montello,
Mount Street,Elphinstone Stevens Pty Ltd,AU,david@elst.com.au,61364313933,7320,Tasmania,Upper Burnie,http://www.elst.com.au
Mount Street,Lovell & Morrison,AU,dean@lmtax.com.au,03 64315666,7320,Tasmania,Montello,http://www.lmtax.net.au/
Mount Street,Platinum Accounting & Investment Services Burnie Pty Ltd,AU,chivonne@platinumburnie.com,03 6432 1018,7320,Tasmania,Montello,http://www.platinumburnie.com/
Wilson Street,Six Star Accounting & Taxation,AU,garry@sixstar.com.au,03 64319880,7320,Tasmania,Montello,
Wilmot Street,Lawson Hyland Pty Ltd,AU,,03 64319998,7320,Tasmania,Montello,http://
King Street,Active Accountants,AU,,03 6431 9435,7320,Tasmania,Montello,http://www.activeaccountants.com.au/
Queen Street,Norton & Co,AU,mail@nortonaccountants.com,03 64313655,7320,Tasmania,Montello,
Mount Street,Elphinstone Stevens Pty Ltd,AU,david@elst.com.au,61364313933,7320,Tasmania,Upper Burnie,http://www.elst.com.au
Mount Street,Lovell & Morrison,AU,dean@lmtax.com.au,03 64315666,7320,Tasmania,Montello,http://www.lmtax.net.au/
Mount Street,Platinum Accounting & Investment Services Burnie Pty Ltd,AU,chivonne@platinumburnie.com,03 6432 1018,7320,Tasmania,Montello,http://www.platinumburnie.com/
Queen Street,Norton & Co,AU,mail@nortonaccountants.com,03 64313655,7320,Tasmania,Montello,
King Street,Active Accountants,AU,,03 6431 9435,7320,Tasmania,Montello,http://www.activeaccountants.com.au/
Wilmot Street,Lawson Hyland Pty Ltd,AU,,03 64319998,7320,Tasmania,Montello,http://
Wilson Street,Six Star Accounting & Taxation,AU,garry@sixstar.com.au,03 64319880,7320,Tasmania,Montello,
Mount Street,Elphinstone Stevens Pty Ltd,AU,david@elst.com.au,61364313933,7320,Tasmania,Upper Burnie,http://www.elst.com.au
Mount Street,Lovell & Morrison,AU,dean@lmtax.com.au,03 64315666,7320,Tasmania,Montello,http://www.lmtax.net.au/
Mount Street,Platinum Accounting & Investment Services Burnie Pty Ltd,AU,chivonne@platinumburnie.com,03 6432 1018,7320,Tasmania,Montello,http://www.platinumburnie.com/
Wilson Street,Six Star Accounting & Taxation,AU,garry@sixstar.com.au,03 64319880,7320,Tasmania,Montello,
Wilmot Street,Lawson Hyland Pty Ltd,AU,,03 64319998,7320,Tasmania,Montello,http://
King Street,Active Accountants,AU,,03 6431 9435,7320,Tasmania,Montello,http://www.activeaccountants.com.au/
Queen Street,Norton & Co,AU,mail@nortonaccountants.com,03 64313655,7320,Tasmania,Montello,
Mount Street,Elphinstone Stevens Pty Ltd,AU,david@elst.com.au,61364313933,7320,Tasmania,Upper Burnie,http://www.elst.com.au
Mount Street,Lovell & Morrison,AU,dean@lmtax.com.au,03 64315666,7320,Tasmania,Montello,http://www.lmtax.net.au/
Mount Street,Platinum Accounting & Investment Services Burnie Pty Ltd,AU,chivonne@platinumburnie.com,03 6432 1018,7320,Tasmania,Montello,http://www.platinumburnie.com/
Wilmot Street,Lawson Hyland Pty Ltd,AU,,03 64319998,7320,Tasmania,Montello,http://
Wilson Street,Six Star Accounting & Taxation,AU,garry@sixstar.com.au,03 64319880,7320,Tasmania,Montello,
King Street,Active Accountants,AU,,03 6431 9435,7320,Tasmania,Montello,http://www.activeaccountants.com.au/
Queen Street,Norton & Co,AU,mail@nortonaccountants.com,03 64313655,7320,Tasmania,Montello,
Mount Street,Elphinstone Stevens Pty Ltd,AU,david@elst.com.au,61364313933,7320,Tasmania,Upper Burnie,http://www.elst.com.au
Mount Street,Lovell & Morrison,AU,dean@lmtax.com.au,03 64315666,7320,Tasmania,Montello,http://www.lmtax.net.au/
Mount Street,Platinum Accounting & Investment Services Burnie Pty Ltd,AU,chivonne@platinumburnie.com,03 6432 1018,7320,Tasmania,Montello,http://www.platinumburnie.com/
Wilson Street,Six Star Accounting & Taxation,AU,garry@sixstar.com.au,03 64319880,7320,Tasmania,Montello,
Wilmot Street,Lawson Hyland Pty Ltd,AU,,03 64319998,7320,Tasmania,Montello,http://
King Street,Active Accountants,AU,,03 6431 9435,7320,Tasmania,Montello,http://www.activeaccountants.com.au/
Queen Street,Norton & Co,AU,mail@nortonaccountants.com,03 64313655,7320,Tasmania,Montello,
Bass Highway,Atr Accountants,AU,office@atraccountants.com.au,03 6442 3772,7325,Tasmania,West Wynyard,http://www.atraccountants.com.au
Bass Highway,Atr Accountants,AU,office@atraccountants.com.au,03 6442 3772,7325,Tasmania,West Wynyard,http://www.atraccountants.com.au
Wilson Street,Six Star Accounting & Taxation,AU,garry@sixstar.com.au,03 64319880,7320,Tasmania,Montello,
Mount Street,Lovell & Morrison,AU,dean@lmtax.com.au,03 64315666,7320,Tasmania,Montello,http://www.lmtax.net.au/
Mount Street,Platinum Accounting & Investment Services Burnie Pty Ltd,AU,chivonne@platinumburnie.com,03 6432 1018,7320,Tasmania,Montello,http://www.platinumburnie.com/
Wilmot Street,Lawson Hyland Pty Ltd,AU,,03 64319998,7320,Tasmania,Montello,http://
Mount Street,Elphinstone Stevens Pty Ltd,AU,david@elst.com.au,61364313933,7320,Tasmania,Upper Burnie,http://www.elst.com.au
King Street,Active Accountants,AU,,03 6431 9435,7320,Tasmania,Montello,http://www.activeaccountants.com.au/
Queen Street,Norton & Co,AU,mail@nortonaccountants.com,03 64313655,7320,Tasmania,Montello,
Bass Highway,Atr Accountants,AU,office@atraccountants.com.au,03 6442 3772,7325,Tasmania,West Wynyard,http://www.atraccountants.com.au
Mount Street,Elphinstone Stevens Pty Ltd,AU,david@elst.com.au,61364313933,7320,Tasmania,Upper Burnie,http://www.elst.com.au
Queen Street,Norton & Co,AU,mail@nortonaccountants.com,03 64313655,7320,Tasmania,Montello,
King Street,Active Accountants,AU,,03 6431 9435,7320,Tasmania,Montello,http://www.activeaccountants.com.au/
Mount Street,Lovell & Morrison,AU,dean@lmtax.com.au,03 64315666,7320,Tasmania,Montello,http://www.lmtax.net.au/
Mount Street,Platinum Accounting & Investment Services Burnie Pty Ltd,AU,chivonne@platinumburnie.com,03 6432 1018,7320,Tasmania,Montello,http://www.platinumburnie.com/
Wilmot Street,Lawson Hyland Pty Ltd,AU,,03 64319998,7320,Tasmania,Montello,http://
Wilson Street,Six Star Accounting & Taxation,AU,garry@sixstar.com.au,03 64319880,7320,Tasmania,Montello,
Mount Street,Elphinstone Stevens Pty Ltd,AU,david@elst.com.au,61364313933,7320,Tasmania,Upper Burnie,http://www.elst.com.au
Mount Street,Lovell & Morrison,AU,dean@lmtax.com.au,03 64315666,7320,Tasmania,Montello,http://www.lmtax.net.au/
Mount Street,Platinum Accounting & Investment Services Burnie Pty Ltd,AU,chivonne@platinumburnie.com,03 6432 1018,7320,Tasmania,Montello,http://www.platinumburnie.com/
King Street,Active Accountants,AU,,03 6431 9435,7320,Tasmania,Montello,http://www.activeaccountants.com.au/
Wilmot Street,Lawson Hyland Pty Ltd,AU,,03 64319998,7320,Tasmania,Montello,http://
Queen Street,Norton & Co,AU,mail@nortonaccountants.com,03 64313655,7320,Tasmania,Montello,
Wilson Street,Six Star Accounting & Taxation,AU,garry@sixstar.com.au,03 64319880,7320,Tasmania,Montello,
Bass Highway,Atr Accountants,AU,office@atraccountants.com.au,03 6442 3772,7325,Tasmania,West Wynyard,http://www.atraccountants.com.au
Bass Highway,Atr Accountants,AU,office@atraccountants.com.au,03 6442 3772,7325,Tasmania,West Wynyard,http://www.atraccountants.com.au
Bass Highway,Atr Accountants,AU,office@atraccountants.com.au,03 6442 3772,7325,Tasmania,West Wynyard,http://www.atraccountants.com.au
Bass Highway,Atr Accountants,AU,office@atraccountants.com.au,03 6442 3772,7325,Tasmania,West Wynyard,http://www.atraccountants.com.au
Bass Highway,Atr Accountants,AU,office@atraccountants.com.au,03 6442 3772,7325,Tasmania,West Wynyard,http://www.atraccountants.com.au
Mount Street,Elphinstone Stevens Pty Ltd,AU,david@elst.com.au,61364313933,7320,Tasmania,Upper Burnie,http://www.elst.com.au
Mount Street,Lovell & Morrison,AU,dean@lmtax.com.au,03 64315666,7320,Tasmania,Montello,http://www.lmtax.net.au/
Mount Street,Platinum Accounting & Investment Services Burnie Pty Ltd,AU,chivonne@platinumburnie.com,03 6432 1018,7320,Tasmania,Montello,http://www.platinumburnie.com/
Queen Street,Norton & Co,AU,mail@nortonaccountants.com,03 64313655,7320,Tasmania,Montello,
King Street,Active Accountants,AU,,03 6431 9435,7320,Tasmania,Montello,http://www.activeaccountants.com.au/
Wilmot Street,Lawson Hyland Pty Ltd,AU,,03 64319998,7320,Tasmania,Montello,http://
Wilson Street,Six Star Accounting & Taxation,AU,garry@sixstar.com.au,03 64319880,7320,Tasmania,Montello,
Mount Street,Elphinstone Stevens Pty Ltd,AU,david@elst.com.au,61364313933,7320,Tasmania,Upper Burnie,http://www.elst.com.au
Mount Street,Lovell & Morrison,AU,dean@lmtax.com.au,03 64315666,7320,Tasmania,Montello,http://www.lmtax.net.au/
Mount Street,Platinum Accounting & Investment Services Burnie Pty Ltd,AU,chivonne@platinumburnie.com,03 6432 1018,7320,Tasmania,Montello,http://www.platinumburnie.com/
Wilson Street,Six Star Accounting & Taxation,AU,garry@sixstar.com.au,03 64319880,7320,Tasmania,Montello,
Wilmot Street,Lawson Hyland Pty Ltd,AU,,03 64319998,7320,Tasmania,Montello,http://
King Street,Active Accountants,AU,,03 6431 9435,7320,Tasmania,Montello,http://www.activeaccountants.com.au/
Queen Street,Norton & Co,AU,mail@nortonaccountants.com,03 64313655,7320,Tasmania,Montello,
Bass Highway,Atr Accountants,AU,office@atraccountants.com.au,03 6442 3772,7325,Tasmania,West Wynyard,http://www.atraccountants.com.au
Mount Street,Elphinstone Stevens Pty Ltd,AU,david@elst.com.au,61364313933,7320,Tasmania,Upper Burnie,http://www.elst.com.au
Mount Street,Lovell & Morrison,AU,dean@lmtax.com.au,03 64315666,7320,Tasmania,Montello,http://www.lmtax.net.au/
Mount Street,Platinum Accounting & Investment Services Burnie Pty Ltd,AU,chivonne@platinumburnie.com,03 6432 1018,7320,Tasmania,Montello,http://www.platinumburnie.com/
King Street,Active Accountants,AU,,03 6431 9435,7320,Tasmania,Montello,http://www.activeaccountants.com.au/
Queen Street,Norton & Co,AU,mail@nortonaccountants.com,03 64313655,7320,Tasmania,Montello,
Wilmot Street,Lawson Hyland Pty Ltd,AU,,03 64319998,7320,Tasmania,Montello,http://
Wilson Street,Six Star Accounting & Taxation,AU,garry@sixstar.com.au,03 64319880,7320,Tasmania,Montello,
Bass Highway,Atr Accountants,AU,office@atraccountants.com.au,03 6442 3772,7325,Tasmania,West Wynyard,http://www.atraccountants.com.au
Bass Highway,Atr Accountants,AU,office@atraccountants.com.au,03 6442 3772,7325,Tasmania,West Wynyard,http://www.atraccountants.com.au
Bass Highway,Atr Accountants,AU,office@atraccountants.com.au,03 6442 3772,7325,Tasmania,West Wynyard,http://www.atraccountants.com.au
Mount Street,Elphinstone Stevens Pty Ltd,AU,david@elst.com.au,61364313933,7320,Tasmania,Upper Burnie,http://www.elst.com.au
Mount Street,Lovell & Morrison,AU,dean@lmtax.com.au,03 64315666,7320,Tasmania,Montello,http://www.lmtax.net.au/
Mount Street,Platinum Accounting & Investment Services Burnie Pty Ltd,AU,chivonne@platinumburnie.com,03 6432 1018,7320,Tasmania,Montello,http://www.platinumburnie.com/
Wilson Street,Six Star Accounting & Taxation,AU,garry@sixstar.com.au,03 64319880,7320,Tasmania,Montello,
Wilmot Street,Lawson Hyland Pty Ltd,AU,,03 64319998,7320,Tasmania,Montello,http://
King Street,Active Accountants,AU,,03 6431 9435,7320,Tasmania,Montello,http://www.activeaccountants.com.au/
Queen Street,Norton & Co,AU,mail@nortonaccountants.com,03 64313655,7320,Tasmania,Montello,
Bass Highway,Atr Accountants,AU,office@atraccountants.com.au,03 6442 3772,7325,Tasmania,West Wynyard,http://www.atraccountants.com.au
Hobbs Parade,Kent Accounting & Tax,AU,robyn@kentaccounting.com.au,03 64251067,7315,Tasmania,West Ulverstone,
Victoria Street,Paragon Advisors & Accountants Pty Ltd,AU,karen@paragonbds.com.au,1300361346,7315,Tasmania,West Ulverstone,http://www.paragonbds.com.au
Bass Highway,Fusion Business Services,AU,fleur@fbservices.com.au,0400 012 681,7315,Tasmania,West Ulverstone,http://www.fbservices.com.au/
Mount Street,Elphinstone Stevens Pty Ltd,AU,david@elst.com.au,61364313933,7320,Tasmania,Upper Burnie,http://www.elst.com.au
Mount Street,Lovell & Morrison,AU,dean@lmtax.com.au,03 64315666,7320,Tasmania,Montello,http://www.lmtax.net.au/
Mount Street,Platinum Accounting & Investment Services Burnie Pty Ltd,AU,chivonne@platinumburnie.com,03 6432 1018,7320,Tasmania,Montello,http://www.platinumburnie.com/
Wilson Street,Six Star Accounting & Taxation,AU,garry@sixstar.com.au,03 64319880,7320,Tasmania,Montello,
Wilmot Street,Lawson Hyland Pty Ltd,AU,,03 64319998,7320,Tasmania,Montello,http://
King Street,Active Accountants,AU,,03 6431 9435,7320,Tasmania,Montello,http://www.activeaccountants.com.au/
Queen Street,Norton & Co,AU,mail@nortonaccountants.com,03 64313655,7320,Tasmania,Montello,
Bass Highway,Atr Accountants,AU,office@atraccountants.com.au,03 6442 3772,7325,Tasmania,West Wynyard,http://www.atraccountants.com.au
Mount Street,Elphinstone Stevens Pty Ltd,AU,david@elst.com.au,61364313933,7320,Tasmania,Upper Burnie,http://www.elst.com.au
Mount Street,Lovell & Morrison,AU,dean@lmtax.com.au,03 64315666,7320,Tasmania,Montello,http://www.lmtax.net.au/
Mount Street,Platinum Accounting & Investment Services Burnie Pty Ltd,AU,chivonne@platinumburnie.com,03 6432 1018,7320,Tasmania,Montello,http://www.platinumburnie.com/
Queen Street,Norton & Co,AU,mail@nortonaccountants.com,03 64313655,7320,Tasmania,Montello,
King Street,Active Accountants,AU,,03 6431 9435,7320,Tasmania,Montello,http://www.activeaccountants.com.au/
Wilmot Street,Lawson Hyland Pty Ltd,AU,,03 64319998,7320,Tasmania,Montello,http://
Wilson Street,Six Star Accounting & Taxation,AU,garry@sixstar.com.au,03 64319880,7320,Tasmania,Montello,
Bass Highway,Atr Accountants,AU,office@atraccountants.com.au,03 6442 3772,7325,Tasmania,West Wynyard,http://www.atraccountants.com.au
Bass Highway,Atr Accountants,AU,office@atraccountants.com.au,03 6442 3772,7325,Tasmania,West Wynyard,http://www.atraccountants.com.au
Queen Street,Norton & Co,AU,mail@nortonaccountants.com,03 64313655,7320,Tasmania,Montello,
King Street,Active Accountants,AU,,03 6431 9435,7320,Tasmania,Montello,http://www.activeaccountants.com.au/
Wilmot Street,Lawson Hyland Pty Ltd,AU,,03 64319998,7320,Tasmania,Montello,http://
Mount Street,Lovell & Morrison,AU,dean@lmtax.com.au,03 64315666,7320,Tasmania,Montello,http://www.lmtax.net.au/
Mount Street,Platinum Accounting & Investment Services Burnie Pty Ltd,AU,chivonne@platinumburnie.com,03 6432 1018,7320,Tasmania,Montello,http://www.platinumburnie.com/
Wilson Street,Six Star Accounting & Taxation,AU,garry@sixstar.com.au,03 64319880,7320,Tasmania,Montello,
Mount Street,Elphinstone Stevens Pty Ltd,AU,david@elst.com.au,61364313933,7320,Tasmania,Upper Burnie,http://www.elst.com.au
Bass Highway,Atr Accountants,AU,office@atraccountants.com.au,03 6442 3772,7325,Tasmania,West Wynyard,http://www.atraccountants.com.au
Bass Highway,Atr Accountants,AU,office@atraccountants.com.au,03 6442 3772,7325,Tasmania,West Wynyard,http://www.atraccountants.com.au
Bass Highway,Atr Accountants,AU,office@atraccountants.com.au,03 6442 3772,7325,Tasmania,West Wynyard,http://www.atraccountants.com.au
Bass Highway,Atr Accountants,AU,office@atraccountants.com.au,03 6442 3772,7325,Tasmania,West Wynyard,http://www.atraccountants.com.au
Bass Highway,Atr Accountants,AU,office@atraccountants.com.au,03 6442 3772,7325,Tasmania,West Wynyard,http://www.atraccountants.com.au
Bass Highway,Atr Accountants,AU,office@atraccountants.com.au,03 6442 3772,7325,Tasmania,West Wynyard,http://www.atraccountants.com.au
Bass Highway,Atr Accountants,AU,office@atraccountants.com.au,03 6442 3772,7325,Tasmania,West Wynyard,http://www.atraccountants.com.au
Bass Highway,Atr Accountants,AU,office@atraccountants.com.au,03 6442 3772,7325,Tasmania,West Wynyard,http://www.atraccountants.com.au
Bass Highway,Atr Accountants,AU,office@atraccountants.com.au,03 6442 3772,7325,Tasmania,West Wynyard,http://www.atraccountants.com.au
Bass Highway,Atr Accountants,AU,office@atraccountants.com.au,03 6442 3772,7325,Tasmania,West Wynyard,http://www.atraccountants.com.au
Queen Street,Norton & Co,AU,mail@nortonaccountants.com,03 64313655,7320,Tasmania,Montello,
King Street,Active Accountants,AU,,03 6431 9435,7320,Tasmania,Montello,http://www.activeaccountants.com.au/
Mount Street,Elphinstone Stevens Pty Ltd,AU,david@elst.com.au,61364313933,7320,Tasmania,Upper Burnie,http://www.elst.com.au
Wilmot Street,Lawson Hyland Pty Ltd,AU,,03 64319998,7320,Tasmania,Montello,http://
Mount Street,Lovell & Morrison,AU,dean@lmtax.com.au,03 64315666,7320,Tasmania,Montello,http://www.lmtax.net.au/
Mount Street,Platinum Accounting & Investment Services Burnie Pty Ltd,AU,chivonne@platinumburnie.com,03 6432 1018,7320,Tasmania,Montello,http://www.platinumburnie.com/
Wilson Street,Six Star Accounting & Taxation,AU,garry@sixstar.com.au,03 64319880,7320,Tasmania,Montello,
Bass Highway,Atr Accountants,AU,office@atraccountants.com.au,03 6442 3772,7325,Tasmania,West Wynyard,http://www.atraccountants.com.au
Bass Highway,Atr Accountants,AU,office@atraccountants.com.au,03 6442 3772,7325,Tasmania,West Wynyard,http://www.atraccountants.com.au
Bass Highway,Atr Accountants,AU,office@atraccountants.com.au,03 6442 3772,7325,Tasmania,West Wynyard,http://www.atraccountants.com.au
Bass Highway,Atr Accountants,AU,office@atraccountants.com.au,03 6442 3772,7325,Tasmania,West Wynyard,http://www.atraccountants.com.au
Bass Highway,Atr Accountants,AU,office@atraccountants.com.au,03 6442 3772,7325,Tasmania,West Wynyard,http://www.atraccountants.com.au
Bass Highway,Atr Accountants,AU,office@atraccountants.com.au,03 6442 3772,7325,Tasmania,West Wynyard,http://www.atraccountants.com.au
Bass Highway,Atr Accountants,AU,office@atraccountants.com.au,03 6442 3772,7325,Tasmania,West Wynyard,http://www.atraccountants.com.au
Bass Highway,Atr Accountants,AU,office@atraccountants.com.au,03 6442 3772,7325,Tasmania,West Wynyard,http://www.atraccountants.com.au
Bass Highway,Atr Accountants,AU,office@atraccountants.com.au,03 6442 3772,7325,Tasmania,West Wynyard,http://www.atraccountants.com.au
Bass Highway,Atr Accountants,AU,office@atraccountants.com.au,03 6442 3772,7325,Tasmania,West Wynyard,http://www.atraccountants.com.au
Hobart Road,145 Financial Pty Ltd,AU,office@145financial.com.au,03 63449424,7249,Tasmania,Kings Meadows,http://www.145financial.com.au
Frankland Street,Fresh Financial Group Pty Ltd,AU,jo.styles@freshfg.com.au,03 6334 1500,7250,Tasmania,Glen Dhu,
Abbott Street,FJB Accounting Solutions Pty Ltd,AU,,0458711365,7250,Tasmania,East Launceston,http://www.fjbas.com.au/
York Street,MDH Accounting Pty Ltd,AU,mharvey@mdhaccounting.com.au,03 63344496,7250,Tasmania,West Launceston,http://www.mghaccounting.com.au
York Street,Raymond J White & Co,AU,raywhite@rjwhite.com.au,03 63330440,7250,Tasmania,West Launceston,
Brisbane Street,Paul J Coates Pty Ltd,AU,info@pauljcoates.com.au,03 63345686,7250,Tasmania,East Launceston,http://pauljcoates.ypsitesmart.com.au/
Seacrest Avenue,BSC Accounting,AU,ben@bscaccounting.com.au,0429001027,3198,Victoria,Seaford,http://www.bscaccounting.com.au
Richardson Street,Gemetzis & Co Pty Ltd,AU,congem@iprimus.com.au,03 97769866,3198,Victoria,Seaford,http://www.gemetzis.com.au
Heversham Drive,Dunkley Accounting Service Pty Ltd,AU,daniel@dunkleyaccounting.com.au,03 97769355,3198,Victoria,Seaford,http://www.dunkleyaccounting.com.au
Heversham Drive,P. R. West & Associates Pty Ltd,AU,prwest77@gmail.com,03 97825556,3198,Victoria,Seaford,
Broughton Street,Ian D Watt & Associates,AU,ian@watti.com.au,03 97862266,3198,Victoria,Seaford,http://www.watti.com.au
Yazaki Way,First Choice Accounting Services,AU,reception@fcas.net.au,03 97082688,3201,Victoria,Carrum Downs,http://www.firstchoiceaccountingservices.com.au
Yazaki Way,Greg Broderick Accounting Solutions,AU,greg@broderick.com.au,03 97829277,3201,Victoria,Carrum Downs,
Western Avenue,PBA Financial Group,AU,carol@pbafinancial.com.au,03 51272171,3825,Victoria,Newborough,http://www.pbafinancial.com.au
Bell Street,Camtech & Slater Financial Group,AU,kate@camtechslater.com.au,0351265555,3825,Victoria,Moe,http://www.camtechslater.com.au/
Bell Street,Camtech Financial Services Pty Ltd,AU,richard@axiomconsulting.com.au,1300 855 744,3825,Victoria,Moe,http://www.camtechgroup.com.au
Seventh Avenue,Barker & Davern,AU,admin@barkerdavern.com.au,03 59861369,3939,Victoria,Rosebud,
Rosebud Parade,Cain & Co,AU,gary@cainco.com.au,03 59864322,3939,Victoria,Rosebud,
Point Nepean Road,Carroll Accounting Services,AU,james@carrollaccounting.com.au,03 5986 2189,3939,Victoria,Rosebud,http://www.carrollaccounting.com.au
Downard Crescent,N Thomas & Co Pty Ltd,AU,info@taxcareaustralia.com.au,0433 682 219,3175,Victoria,Dandenong North,
Gladstone Road,M1 Tax Accountants Pty Ltd,AU,info@m1tax.com.au,0397950935,3175,Victoria,Dandenong North,http://www.m1tax.com.au
Ramsden Close,F J Bamford CPA,AU,wedotax@fjbamford.com,03 97953796,3175,Victoria,Dandenong North,
Alexander Avenue,ACSS - Accounting Complexities- Simple Solutions,AU,rajpreeti_mishra@rediffmail.com,0397933821,3175,Victoria,Dandenong,
Herbert Street,INS ACCOUNTANTS,AU,Hussain.joya84@yahoo.com,0280682912,3175,Victoria,Dandenong,http://www.insaccountants.com.au
Herbert Street,SSK Accountants Pty Ltd,AU,msingh@sskaccountants.com.au,03 8759 0629,3175,Victoria,Dandenong,
Robinson Street,Bunnett & Bassal Pty Ltd,AU,mfbassal@bunnettbassal.com.au,61397920555,3175,Victoria,Dandenong,http://www.bunnettbassal.com.au
Robinson Street,Business & Tax Matters,AU,admin@btmatters.com.au,(039) 794-5557,3175,Victoria,Dandenong,http://www.btmatters.com.au
Princes Highway Service Road,Charlwoods,AU,mail@charlwoods.com.au,61397912177,3175,Victoria,Dandenong,http://www.charlwoods.com.au/
Robinson Street,R J Sanderson & Associates Pty Ltd,AU,roy@rjsanderson.com.au,03 97940010,3175,Victoria,Dandenong,http://www.rjsanderson.com.au
Clow Street,Leon Goldberg & Associates,AU,leon@leongoldberg.com,03 9791 8997,3175,Victoria,Dandenong,
Cashmore Lane,MJC Partners Pty Ltd,AU,matt.salmon@mjca.com.au,03 9794 8180,3175,Victoria,Dandenong,http://www.mjca.com.au
Dandenong Arcade,Nexus Accounting & Tax Solutions Pty Ltd,AU,raj@nexustaxaccountants.com.au,0397913618,3175,Victoria,Dandenong,http://www.nexustaxaccountants.com.au/
Cashmore Lane,Ashfords Superannuation Services Pty ltd,AU,info@ashfords.com.au,03 95512822,3175,Victoria,Dandenong,
Dickson Lane,TASC Consulting,AU,info@tascs.com.au,61397939813,3175,Victoria,Dandenong,http://www.tascs.com.au
Mason Street,De Silva Accounting Services,AU,sonny.desilva@desilvaaccounting.com.au,03 97060122,3175,Victoria,Dandenong,http://dsacc.com.au/
Thomas Street,HPS Tax Consulting Pty Ltd,AU,harish@hpsgroups.com.au,03 8774 7509,3175,Victoria,Dandenong,
Garnar Lane,RS Tax & Accounting Services Pty Ltd,AU,rstax@bigpond.com,03 97922600,3175,Victoria,Dandenong,
Heatherton Road,Serendib Financial Pty Ltd tr/as Serendib Accountants,AU,accounting@serendib.com.au,0395740500,3174,Victoria,Noble Park,http://www.serendibaccountants.com.au
Douglas Street,Noble Park Tax Agents,AU,Mary@NobleParkTax.com.au,03 95742744,3174,Victoria,Noble Park,
,Tax Knights Pty Ltd,AU,nick.kumar@live.com.au,03 95485187,3174,Victoria,Noble Park,
,ZJL Partners,AU,admin@zjl.com.au,61395475022,3174,Victoria,Noble Park,http://www.thebusinessexperts.com.au
Leonard Avenue,William G Green & Associates,AU,admin@williamgreenassociates.com.au,03 95476022,3174,Victoria,Noble Park,http://
Ardgower Road,Hello Virtual,AU,nataliem@hellovirtual.com.au,0402 401 000,3174,Victoria,Noble Park,http://www.hellovirtual.com.au
Ardgower Road,Books A Breeze Accounting Solutions,AU,info@booksabreeze.com,0402401000,3174,Victoria,Noble Park,http://www.booksabreeze.com
Murray Close,ACQ Accounting Pty Ltd,AU,aron_q@hotmail.com,03 95474459,3174,Victoria,Noble Park,
Lightwood Road,Hilary Wijeratne Pty Ltd,AU,hilary@hilarywijeratne.com.au,03 95481589,3174,Victoria,Springvale,
South Gippsland Highway,Ariana Accounting Group,AU,info@arianaaccountants.com.au,03 9554 3248,3175,Victoria,Dandenong South,http://www.arianaaccountants.com.au
South Gippsland Highway Service Road,InFocus Audits,AU,cherie@infocusaudits.com.au,90701105,3175,Victoria,Dandenong South,www.infocusaudits.com.au
Alexandra Parade,Melbourne Business Accountants P/L,AU,bobc@mba-group.com.au,1300 597 771,3065,Victoria,Fitzroy,http://www.mba-group.com.au
Johnston Street,Fitzroy Accountancy & Taxation Services Pty Ltd,AU,dwatson@fitzroyaccountancy.com.au,03 94172800,3065,Victoria,Fitzroy,
Hodgkinson Street,Imax Business Group Pty Ltd,AU,arthur@imaxbg.com.au,03 94816244,3068,Victoria,Fitzroy North,http://www.imaxbg.com.au
Nicholson Street,F Trotta & Co,AU,frank@trotta.com.au,03 93477250,3054,Victoria,Carlton North,http://www.trotta.com.au
Drummond Street,FPC Business Group Tas Frank Piccolo & Co,AU,office@fpco.com.au,03 96713177,3053,Victoria,Carlton,
Drummond Street,G S Andrews Advisory,AU,admin@gsandrews.com.au,03 9662 2666,3053,Victoria,Carlton,http://www.gsandrews.com.au/
Drummond Street,Gold Leaf Financial Services,AU,info@goldleaffinancial.com.au,0437 554 653,3053,Victoria,Carlton,http://www.goldleaffinancial.com.au
Drummond Street,In2Tax Accountants & Business Advisors ATF AS Gondal Family Trust T/a In2Tax Accountants & Business Advisors,AU,info@in2tax.com.au,0390187400,3053,Victoria,Carlton,http://www.in2tax.com.au/
Drummond Street,Miller Goldie and Associates (VIC) Pty Ltd ATF C & J Devereux Family Trust,AU,chris@millergoldie.com.au,03 9347 0844,3053,Victoria,Carlton,
Stanley Street,Norton Christodoulou Pty Ltd,AU,eliz@nortonchris.com.au,03 94161525,3066,Victoria,Collingwood,
Cochrane Place,HID Group,AU,mail@hidgroup.com.au,03 93417333,3053,Victoria,Carlton,http://www.hidgroup.com.au/
Queens Parade,Accountancy Group Pty Ltd,AU,cpa@accountancygroup.com.au,03 9481-1111,3068,Victoria,Clifton Hill,http://www.accountancygroup.com.au
Little Oxford Street,White Sky,AU,info@whitesky.com.au,61394826663,3066,Victoria,Collingwood,www.whitesky.com.au
Nicholson Street,Moran Chartered Accountants,AU,lily@moranaccountants.com.au,03 9482 1955,3054,Victoria,Fitzroy North,http://www.moranaccountants.com.au/
O'Connell Lane,PKD PARTNERS PTY LTD,AU,fpiccolo@pkdpartners.com.au,03 9662 4334,3053,Victoria,Carlton,http://www.pkdpartners.com.au/
Mark Street,TD Business Solutions,AU,myenquiry@tdbusiness.com.au,0412 472 166,3068,Victoria,Fitzroy North,http://www.tdbusiness.com.au
Cambridge Street,Costanzo Harris Pty Ltd,AU,vince@costanzoharris.com.au,03 94190322,3066,Victoria,Collingwood,
Rae Street,Bourne & Romeo Pty Ltd,AU,accountants@bourneromeo.com.au,03 94822855,3068,Victoria,Fitzroy North,http://www.bourneromeo.com.au/
Cardigan Street,Southern Accounting & Consulting Services Pty Ltd,AU,reception@saacs.com.au,03 9650 3888,3053,Victoria,Carlton,http://www.saacs.com.au
Wellington Street,Keramitsis & Co,AU,keramitsis@bigpond.com,03 94160922,3066,Victoria,Collingwood,http://www.keramitsisco.com.au
Argyle Place South,Premier Professional Partners,AU,admin@ppartner.com.au,03 9347 8033,3053,Victoria,Carlton,http://www.ppartner.com.au/
Argyle Place South,V P Cannizzaro & Co,AU,vitoc@vpcc.com.au,03 93470100,3053,Victoria,Carlton,http://www.vpcc.com.au
Nicholson Street,Jack Yacoub & Associates,AU,jack@jya.com.au,03 94818899,3068,Victoria,Brunswick East,
Drummond Street,First Priority Accounting & Taxation Pty Ltd,AU,david@firstpriority.com.au,03 86604788,3053,Victoria,Carlton,http://www.firstpriority.com.au/
Swanston Street,AD Partners,AU,admin@adpartners.com.au,03 93493499,3053,Victoria,Carlton,http://www.adpartners.com.au/
Hoddle Street,Wyatt Alexander & Hogan,AU,walex@bigpond.net.au,03 94191000,3067,Victoria,Abbotsford,
Lansdowne Place,Gold Leaf Financial Services Pty Ltd,AU,info@goldleaffinancial.com.au,0437554653,3053,Victoria,Carlton,http://www.goldleaffinancial.com.au
Lonsdale Street,ATS Accountants & Tax Consultants Pty Ltd,AU,ats@iprimus.com.au,03 96621286,3000,Victoria,Melbourne City,
Little Bourke Street,Tony Ng & Co,AU,info@skdpartner.com.au,03 9650 7672,3000,Victoria,East Melbourne,http://www.skdpartner.com.au/
Swanston Street,H & R Block,AU,fbrass@hrblock.com.au,03 9388 1611,3000,Victoria,Carlton,http://www.handrblock.com.au
Royal Parade,The Practice,AU,abliss@thepractice.com.au,+61 3 8888 4000,3052,Victoria,Parkville,http://www.thepractice.com.au
Lygon Street,Clarke Rocca Pty Ltd,AU,kevin@kctaxagent.com.au,03 9090 7600,3057,Victoria,Brunswick East,http://www.clarkerocca.com.au
Bourke Street,Wren Advisers Pty Ltd Tas Wren Advisers,AU,,03 96636602,3000,Victoria,Melbourne City,
Collins Street,NWH Accounting Professionals,AU,petertalevski@nwhcs.com.au,03 96546433,3000,Victoria,Melbourne City,http://www.nwhcs.com.au
Lygon Street,Mitch Karafili & Co,AU,goodlooking@mitchkarafili.com.au,03 9387 5411,3057,Victoria,Brunswick East,
Lygon Street,Deryan & Co Pty Ltd,AU,harry@deryan.com.au,03 93879888,3057,Victoria,Brunswick East,http://deryan.com.au/
,BR Wellington,AU,admin@brwellington.com.au,03 9606 9400,3001,Victoria,Melbourne City,www.brwellington.com.au
,Grant Thornton (Melbourne),AU,info.vic@au.gt.com,+61 3 8320 2222,3001,Victoria,Melbourne City,http://www.grantthornton.com.au/
,HSL Consulting,AU,paul@hslconsulting.com.au,0407586446,3001,Victoria,Melbourne City,http://www.hslconsulting.com.au
,KordaMentha,AU,bwebster@kordamentha.com,03 8623 3409,3001,Victoria,Melbourne City,http://www.kordamentha.com/
Lygon Street,M Prinzi & Co,AU,mprinzi@iprimus.com.au,03 93880654,3057,Victoria,Brunswick East,
Lygon Street,Tony Corbo & Associates,AU,tonycorbo@bigpond.com,03 93870333,3057,Victoria,Brunswick East,
Victoria Street,PETER WANG & ASSOCIATE,AU,info@swpptyltd.com.au,03 94288696,3067,Victoria,Abbotsford,
Elizabeth Street,Sudath Perera,AU,jgdunstan@aol.com,0394176144,3001,Victoria,Melbourne City,
Little Lonsdale Street,Donegan's Accountants,AU,philb@donegans.com.au,03 9670 5232,3000,Victoria,Melbourne City,http://www.donegans.com.au/
Timothy Lane,Daniel Man & Associates,AU,dman@acslink.aone.net.au,03 96700011,3000,Victoria,Melbourne City,http://
Elizabeth Street,HLB Mann Judd (VIC) Pty Ltd,AU,info@hlbvic.com.au,(03) 96063888,3001,Victoria,Melbourne City,http://www.hlbvic.com.au
Elizabeth Street,Shadforth Financial Group,AU,craig.raits@sfg.com.au,03 9649 2400,3001,Victoria,Melbourne City,http://www.sfg.com.au
Elizabeth Street,Wren Advisers,AU,info@wrenadvisers.com.au,03 9663 6602,3001,Victoria,Melbourne City,http://www.wrenadvisers.com.au
Flinders Street,Harrow Financial Pty Ltd,AU,anthony@harrowfinancial.com.au,03 9639 6100,3000,Victoria,Melbourne City,
Balcombe Place,,AU,grode@virtuestrategic.com.au,0452 530 246,3000,Victoria,Melbourne City,
Balcombe Place,,AU,Jackphoenix69@hotmail.com,,3000,Victoria,Melbourne City,
Balcombe Place,Accountx,AU,Sunil.Dixit@accountx.com.au,0438150998,3000,Victoria,Melbourne City,
Balcombe Place,AG Partners,AU,results@agpartners.com.au,03 90988699,3000,Victoria,Melbourne City,
Balcombe Place,Badge RT,AU,MICHAEL@BADGERT.COM.AU,+61 438 400 067,3000,Victoria,Melbourne City,http://www.badgert.com.au
Balcombe Place,Beyond Accountancy Pty Ltd,AU,info@beyondaccountancy.com.au,1300 823 011,3000,Victoria,Melbourne City,http://www.beyondaccountancy.com.au
Balcombe Place,Blue Rock (Vic),AU,grant.ralston@theblurrock.com.au,03 86821111,3000,Victoria,Melbourne City,http://www.thebluerock.com.au
Balcombe Place,Collins House Accountants,AU,dalafaci@collinshouse.com,03 9629 6922,3000,Victoria,Melbourne City,http://www.collinshouse.com
Balcombe Place,Collins House Private Wealth,AU,dalafaci@collinshouse.com,03 9629 6922,3000,Victoria,Melbourne City,https://collinshouse.com
Balcombe Place,Connect Advisors,AU,jason@connectadvisors.com.au,,3000,Victoria,Melbourne City,http://www.connectadvisors.com.au
Balcombe Place,Conquest Services,AU,conquest@conquestservices.com.au,(03) 96708000,3000,Victoria,Melbourne City,
Balcombe Place,Courtney Jones & Associates,AU,enquiries@courtneyjones.com.au,03 9602 2133,3000,Victoria,Melbourne City,http://www.courtneyjones.com.au/
Balcombe Place,Crowe Horwath Australasia Ltd,AU,,03 92586700,3000,Victoria,Melbourne City,http://www.crowehorwath.com.au/
Balcombe Place,Gallo & Associates Pty Ltd,AU,phillip@thefive.com.au,0433388237,3000,Victoria,Melbourne City,http://www.galloandassociates.com.au
Balcombe Place,JH Accountants & Advisors Pty Ltd,AU,janehu@jhaccountants.com.au,03 96713588,3000,Victoria,Melbourne City,
Balcombe Place,K.L. Finance and Business Service,AU,likesandy@hotmail.com,0430766883,3000,Victoria,Melbourne City,
Balcombe Place,King & Whittle Pty Ltd,AU,admin@kingandwhittle.com.au,03 9602 4466,3000,Victoria,Melbourne City,http://www.kingandwhittle.com.au/
Balcombe Place,Kongs Accounting & Taxation Pty Ltd,AU,info@kongsaccounting.com,0438 898 682,3000,Victoria,Melbourne City,
Balcombe Place,Moore Stephens (Vic) Pty Ltd,AU,,0393976888,3000,Victoria,Melbourne City,http://www.moorestephens.com.au/victoria
Balcombe Place,MYC Associates,AU,meng.hou@myca.net.au,0459467755,3000,Victoria,Melbourne City,http://www.myca.net.au
Balcombe Place,PKF Melbourne Pty Ltd T/a PKF Melbourne,AU,,03 9679 2222,3000,Victoria,Melbourne City,http://www.pkf.com.au/
Balcombe Place,RJ Plus,AU,info@rjplus.com,1300086690,3000,Victoria,Melbourne City,http://www.rjplus.com
Balcombe Place,S & K Accounting Solutions,AU,director@skaccountingsolutions.com.au,03 9670 1683,3000,Victoria,Melbourne City,http://www.skaccountingsolutions.com.au
Balcombe Place,S J Tax and Accounting,AU,tax@snjservice.com,0415075947,3000,Victoria,Melbourne City,http://www.melbtax.com.au
Balcombe Place,SAP Tax Accountants,AU,amit@saptax.com.au,0432120120,3000,Victoria,Melbourne City,http://www.saptax.com.au
Balcombe Place,Strategic Edge Financial Services Pty Ltd,AU,info@premieraccountants.com.au,03 86011137,3000,Victoria,Melbourne City,http://www.premieraccountants.com.au
Balcombe Place,Surbal Accounting and Tax Services,AU,nirmal@surbalgroup.com.au,(03) 96707711,3000,Victoria,Melbourne City,www.surbalgroup.com.au
Balcombe Place,Tax Way,AU,simon@taxway.com.au,03 9005 6266,3000,Victoria,Melbourne City,http://www.taxway.com.au
Balcombe Place,Universal Accountants Pty Ltd,AU,info@universalaccountants.com.au,03 9642 2266,3000,Victoria,Melbourne City,http://universalaccountants.com.au
Elizabeth Street,ANG & Associates Pty Ltd,AU,alex@anga.com.au,0399957261,3000,Victoria,Melbourne City,http://www.anga.com.au
Elizabeth Street,Gautham Vattikuti t/a Your Accounting,AU,info@youraccounting.net.au,0466961234,3000,Victoria,Melbourne City,
Queen Street,IRT Advisory,AU,contact@irtadvisory.com,03 9614 4850,3000,Victoria,Melbourne City,http://www.irtadvisory.com
Queen Street,Cambel Cass (Melbourne),AU,acass@camcassmel.com.au,03 9620356,3000,Victoria,Melbourne City,
Lonsdale Street,Boss Private Clients Pty Ltd,AU,business@bossprivateclients.com.au,03 86026100,3000,Victoria,Melbourne City,http://www.bossprivateclients.com.au
Bourke Street,Lifewealth Partners Pty Ltd,AU,paulm@lifewealth.com.au,03 96703434,3000,Victoria,Melbourne City,
Little Bourke Street,True Elite Business Services Pty Ltd,AU,info@trueelite.com.au,03 9606 0225,3000,Victoria,Docklands,http://www.trueelite.com.au
Little Bourke Street,KST Partners,AU,info@kstpartners.com,03 9600 0081,3000,Victoria,Docklands,http://www.kstpartners.com
Bourke Street,Wise Choice Group Pty Ltd T/a Wise Choice Accountants and Advisors,AU,vincent.wisechoice@gmail.com,0399731863,3000,Victoria,Melbourne City,
Collins Way,Cor Cordis Pty Ltd ATF the Ridar Unit Trust t/as Cor Cordis Chartered Accountants,AU,skaso@corcordis.com.au,61 3 8320 5600,3000,Victoria,Melbourne City,http://www.corcordis.com.au/
,Knightstone Partners,AU,,03 9600 1100,3000,Victoria,Melbourne City,http://knightstone.com.au/
Flinders Street,ITG Partners Pty Ltd,AU,itgpartners@myitg.com,1300 652484,3000,Victoria,Melbourne City,
Bourke Street,Belleville Smith & Co Pty Ltd,AU,tim@bellevillesmith.com.au,03 96707044,3000,Victoria,Melbourne City,http://www.bellevillesmith.com.au
Bourke Street,Essentia Accounting & Financial Group,AU,phillip@essentiaaccounting.com.au,03 96002844,3000,Victoria,Melbourne City,http://www.essentiaaccounting.com.au/
Bourke Street,Jack Gaddie & Associates,AU,accountants@gaddieassociates.com.au,03 96424141,3000,Victoria,Melbourne City,http://www.gaddieassociates.com.au
Brunton Avenue,Arizene Pty Ltd,AU,ravi@arizene.com.au,0396000065,3001,Victoria,East Melbourne,
Brunton Avenue,Servtac,AU,sarah@servtac.com.au,03 9600 1178,3001,Victoria,East Melbourne,http://www.servtac.com.au
Queen Street,With Accounting Pty Ltd,AU,calvin@withaccounting.com,0433689222,3000,Victoria,Melbourne City,http://www.withaccounting.com
Lonsdale Street,MWB Accountants Pty Ltd Chartered Accountants Tas MWB Accountants,AU,info@mwbaccountants.com.au,03 92522020,3000,Victoria,Melbourne City,
Eagle Alley,Eddy Partners Pty Ltd,AU,,03 96025177,3000,Victoria,Melbourne City,
William Street,Crowe Horwath Melbourne,AU,,03 9258 6700,3000,Victoria,Melbourne City,https://www.crowehorwath.com.au/
Collins Street,Strategem Private Clients,AU,info@strategempc.com.au,03 86218100,3000,Victoria,Melbourne City,http://www.strategempc.com.au
Flinders Lane,J + M Accountants & Business Advisors Pty Ltd,AU,janine.brumhead@jmadvisors.com.au,03 96220600,3000,Victoria,Melbourne City,
,JJY Taxation Financial Group,AU,jjy@jjytax.com.au,(03) 95443833,3000,Victoria,Melbourne City,http://www.jjytax.com.au
Queen Street,Accountancy Online Pty Ltd,AU,office@accountancyonline.com.au,9028 4446,3000,Victoria,Melbourne City,http://www.accountancyonline.com.au
Queen Street,Nexia Australia,AU,info@nexiamelbourne.com.au,03 86138888,3000,Victoria,Melbourne City,http://www.nexia.com.au
Flinders Lane,Kovac Advisory Pty Ltd,AU,pk@kovacadvisory.com.au,03 96297211,3000,Victoria,Melbourne City,http://kovacadvisory.com.au/
Little Collins Street,Auschina Accountant Services & Advisors,AU,lijuncpa@hotmail.com,03 86865761,3000,Victoria,Melbourne City,
Little Collins Street,Kevin Zhao The Company,AU,kevinzhao@hotmail.com,0402 877965,3000,Victoria,Melbourne City,
Little Collins Street,Warwick Accounting Pty Ltd Chartered Accountants,AU,martin@waracc.com.au,03 96212122,3000,Victoria,Melbourne City,http://www.waracc.com.au
William Street,Andrew Davey & Co,AU,andrew@andrewdavey.com.au,03 96497333,3000,Victoria,Melbourne City,
William Street,Strategic Accounting Australia,AU,mbarnes@barnespartners.com.au,0399352833,3000,Victoria,Melbourne City,http://www.sfga.com.au
Collins Street,M.S CARLEI & D.I MCDONALD T/a ShineWing Australia,AU,bzhang@shinewing.com.au,+61 3 8635 1800,3000,Victoria,Melbourne City,http://shinewing.com.au
Collins Street,PGP Consulting Pty Ltd,AU,peter@pgpconsulting.com.au,03 88426860,3000,Victoria,Melbourne City,http://www.pgpconsulting.com.au
Stewart Street,G Montano & Co,AU,j.montano@gmco.com.au,03 9388 1020,3057,Victoria,Brunswick East,http://www.gmco.com.au
Geddes Lane,Barnes Partners,AU,mbarnes@barnespartners.com.au,03 9935 2833,3000,Victoria,Melbourne City,
Victoria Street,SMSF Audit Company Pty Ltd,AU,accounting1@kearneygroup.com.au,03 94288822,3067,Victoria,Abbotsford,
Francis Street,365 Accounting Pty Ltd,AU,365@365accounting.com.au,03 99394134,3000,Victoria,Melbourne City,http://www.365accounting.com.au
Stewart Street,ST & Co Business Services Pty Ltd,AU,susan.tan@stbs.com.au,0432826928,3057,Victoria,Brunswick East,http://www.stbs.com.au
Hay Place,Hollingsworth & Co Pty Ltd,AU,kevin@hollingsworthandco.com.au,03 96295566,3000,Victoria,Melbourne City,http://www.hollingsworthandco.com.au
McIntyre Lane,Sue Lee Accounting,AU,suelee3@bigpond.com,03 9600 9164,3052,Victoria,Parkville,http://www.sueleeaccounting.com.au/
Victoria Street,Vees Accounting Pty Ltd,AU,billg@veesaccounting.com.au,03 9249 9608,3067,Victoria,Abbotsford,http://www.veesaccounting.com.au
Victoria Street,CBS Accountants,AU,admin@cbsaccountants.com.au,1300 022 722,3067,Victoria,Abbotsford,www.cbsaccountants.com.au
Park Street,Kuvera Consultancy,AU,info@kuvera.com.au,0433439139,3182,Victoria,St Kilda West,http://www.kuvera.com.au
Park Street,Taxman Financial Group,AU,manoj@etaxman.com.au,0433439139,3182,Victoria,St Kilda West,http://www.etaxman.com.au
St Kilda Road,MP Professional Bookkeeping,AU,vicken@mpbookkeepers.com.au,95232277,3182,Victoria,St Kilda,http://www.mpbookeepers.com.au
Inkerman Street,R. Zucker & Co,AU,rz@zuckerco.com.au,03 95105144,3182,Victoria,St Kilda,
Farmer Street,Keith Golding & Associates Pty Ltd,AU,trevorgolding@aanet.com.au,03 95344340,3182,Victoria,St Kilda,
Wellington Street,HBO Accounting,AU,ben@hboac.com.au,03 95211288,3182,Victoria,St Kilda,http://www.hboac.com.au
Wellington Street,Lowe Lippmann Trakman Financial Services PTY LTD,AU,colin@lltfs.com.au,03 9993 8336,3182,Victoria,St Kilda,http://www.lltfs.com.au
Barkly Street,T H White & Co Chartered Accountants,AU,samd@thwhite.com.au,03 9525 3811,3182,Victoria,St Kilda,http://thwhite.com.au/
Union Street,MCF Financial Group,AU,michael@mcffinancialgroup.com.au,03 90135222,3181,Victoria,Windsor,
Chapel Street,Maxwell Powell Pty Ltd,AU,general@maxwellpowell.com.au,03 95336649,3181,Victoria,Windsor,
Victoria Street,Battista Accountants Pty Ltd,AU,info@battista.com.au,(03) 96994999,3181,Victoria,Windsor,http://www.battista.com.au/
York Street,Finman Accountants & Advisors,AU,z.liu@finman.com.au,0430046119,3181,Victoria,Prahran,http://www.finman.com.au
York Street,ML Tax Solution,AU,info@mltaxsolution.com.au,(03) 95338980,3181,Victoria,Prahran,http://www.mltaxsolution.com.au
Commercial Road,Commercial Road Accounting,AU,commrdacc@bigpond.com,03 9826 0999,3141,Victoria,South Yarra,http://
Brunning Street,Rubin Partners Pty Ltd,AU,markshaw@rubinpartners.com.au,03 85349500,3183,Victoria,Balaclava,http://www.rubinpartners.com.au
Malvern Road,Biantes & Biantes,AU,peter@biantes.com.au,03 98260855,3141,Victoria,Prahran,
Macfarlan Street,Stannards Accountants and Advisors Pty Ltd,AU,advisors@stannards.com.au,03 9867 4433,3141,Victoria,South Yarra,http://www.stannards.com.au
Garden Street,D A Bradshaw,AU,david@dabradshaw.com.au,03 98241252,3141,Victoria,South Yarra,
Darling Street,CBP Finance Pty Ltd,AU,matthew@cbpfinance.com.au,0418473667,3141,Victoria,South Yarra,http://www.cfp.finance
Darling Street,Robert W Wilson & Co,AU,simonwilson@avocastreet.com.au,03 98673977,3141,Victoria,South Yarra,
Erindale Avenue,Zest Business Services Pty Ltd T/a Zest Business Services,AU,info@zebs.com.au,0390159770,3185,Victoria,Ripponlea,http://www.zebs.com.au
Toorak Road,Roseby Rosner & Young Pty Ltd,AU,rry@rosroy.com.au,03 9823 3366,3141,Victoria,South Yarra,http://www.rosroy.com.au/
Toorak Road,Sutton Partners Pty Ltd,AU,rs@suttonpartners.com.au,03 98242212,3141,Victoria,South Yarra,http://www.suttonpartners.com.au/
Claremont Street,PR Partners Accounting,AU,paul@prpa.com.au,03 9826 0099,3141,Victoria,South Yarra,http://www.prpa.com.au
Beaconsfield Parade,Melfin Pty Ltd ATF Moran Investment Trust T/a Melfin Business Consulting,AU,melfin.leon@bigpond.com,0438599014,3206,Victoria,Albert Park,http://www.melfin.com.au
Claremont Street,Axis Consulting Group Pty Ltd,AU,sward@axisconsulting.com.au,03 98047723,3141,Victoria,South Yarra,http://
Claremont Street,Cohen Fasciani Chartered Accountants,AU,joesephine@cohenfasciani.com.au,03 98262633,3141,Victoria,South Yarra,http://cohenfasciani.com.au/
Claremont Street,TWF Partners,AU,,03 98276666,3141,Victoria,South Yarra,http://www.twfacc.com/
Claremont Street,Ingrams Accounting Group,AU,info@ingrams.net.au,0398266000,3141,Victoria,South Yarra,http://www.ingamsaccounting.com.au
Little Greig Street,O'Brien Accountants & Advisers,AU,melfin.leon@bigpond.com,0438599014,3206,Victoria,Albert Park,http://www.obbc.com.au
Horne Street,B Ruschinek & Associates,AU,brusch@topcpa.com.au,03 95238666,3185,Victoria,Elsternwick,
Horne Street,The Gild Group,AU,paul@thegildgroup.com.au,0421 110 629,3185,Victoria,Elsternwick,http://thegildgroup.com/
Horne Street,Zanacorp Accountants Pty Ltd,AU,jzanca@zanacorp.com.au,03 95239300,3185,Victoria,Elsternwick,http://www.zanacorp.com.au/
Ross Street,W.I.T.H Accounting Solutions,AU,,03 90051107,3185,Victoria,Elsternwick,
Orrong Road,Erwin Ross,AU,erosscpa@optusnet.com.au,03 95236239,3185,Victoria,Elsternwick,
Rowan Street,MG Partners,AU,info@mgaccountants.com.au,03 9523 6500,3185,Victoria,Elsternwick,http://www.mgaccountants.com.au
Rowan Street,Y Oren Accountant & Business Advisor,AU,yoren@iinet.net.au,03 9005 3604,3185,Victoria,Elsternwick,
Kooyong Road,Tugi Family Trust,AU,,0411 108 857,3185,Victoria,Caulfield North,
Glen Huntly Road,Sam Laser & Co Pty Ltd,AU,sam@samlaserco.com.au,03 95329433,3185,Victoria,Elsternwick,http://www.samlaserco.com/
Glen Huntly Road,C A Natale & Co,AU,,,3162,Victoria,Elsternwick,http://
Filbert Street,Sophia Stavropoulos Pty Ltd,AU,sophia@msacpa.com.au,61 3 9572 1111,3162,Victoria,Caulfield South,
Glen Huntly Road,Tanya Bourke,AU,tanya.bourke@bigpond.com,03 95282711,3162,Victoria,Elsternwick,
Pyne Street,Paul Belza,AU,pbelza@acctweb.com.au,03 9523 0222,3162,Victoria,Caulfield,
Hawthorn Road,Advantage One (Vic) Pty Ltd,AU,dales@advantageone.com.au,03 95328077,3162,Victoria,Caulfield North,http://www.advantageone.com.au
Glen Huntly Road,Sam Laser & Co Pty Ltd,AU,sam@samlaserco.com.au,03 95329433,3185,Victoria,Elsternwick,http://www.samlaserco.com/
Glen Huntly Road,Mort Schwartzbord & Associates,AU,,03 95721111,3162,Victoria,Caulfield,http://
Hawthorn Road,Grinwald Beed & Associates,AU,dennis@gbeed.com.au,03 9528 3177,3161,Victoria,Caulfield North,
Kooyong Road,Tugi Family Trust,AU,,0411 108 857,3185,Victoria,Caulfield North,
North Road,Compass Advisors Pty Ltd,AU,mthimm@compassadv.com.au,0425 750 763,3187,Victoria,Caulfield South,http://www.compassadv.com.au
Heatherbrae Avenue,Anna May Consulting,AU,admin@annamay.com.au,(03) 90185742,3162,Victoria,Caulfield,http://www.annamay.com.au
Rowan Street,MG Partners,AU,info@mgaccountants.com.au,03 9523 6500,3185,Victoria,Elsternwick,http://www.mgaccountants.com.au
Rowan Street,Y Oren Accountant & Business Advisor,AU,yoren@iinet.net.au,03 9005 3604,3185,Victoria,Elsternwick,
Orrong Road,Erwin Ross,AU,erosscpa@optusnet.com.au,03 95236239,3185,Victoria,Elsternwick,
Hawthorn Road,Jack Feldman & Co,AU,admin@jfco.org,03 95101000,3161,Victoria,Caulfield North,http://www.scgaccountants.com.au
Cromwell Street,Clements Management Group Pty Ltd T/as CP-More Than Just Numbers,AU,contact@cpnumbers.com.au,03 95096200,3161,Victoria,Caulfield North,http://www.cpnumbers.com.au
Culma Street,Kelly & Stephanie Pty Ltd,AU,KELLY_AU_CN@HOTMAIL.COM,0422595311,3163,Victoria,Glen Huntly,
Heath Drive,Accounting Solutions (Melbourne),AU,chen@accountingsolutions.melbourne,0422246856,3163,Victoria,Glen Huntly,http://www.accountingsolutions.melbourne
Asling Street,JDFA Accountants,AU,jdfa@jdfa.com.au,(03) 9596 2891,3186,Victoria,Brighton,http://www.jdfa@jdfa.com.au
Martin Street,Phalanx Accounting Services Pty Ltd,AU,info@phalanxaccounting.com.au,03 95308277,3186,Victoria,Brighton,http://www.phalanxaccounting.com.au
Balaclava Road,Alpha Accounting,AU,paris@alphaaccounting.com.au,03 9530 3311,3161,Victoria,Caulfield North,http://
Balaclava Road,Mark Freedman,AU,mfreedman@netspace.net.au,03 95231421,3161,Victoria,Caulfield North,
Horne Street,The Gild Group,AU,paul@thegildgroup.com.au,0421 110 629,3185,Victoria,Elsternwick,http://thegildgroup.com/
Horne Street,Zanacorp Accountants Pty Ltd,AU,jzanca@zanacorp.com.au,03 95239300,3185,Victoria,Elsternwick,http://www.zanacorp.com.au/
Balaclava Road,Henry N Bernard Pty Ltd,AU,hbernard@hbernard.com.au,04 38023505,3161,Victoria,Caulfield North,
Balaclava Road,Janssen Accounting Pty Ltd,AU,admin@janssenaccounting.com.au,03 95094144,3162,Victoria,Caulfield North,http://www.janssenaccounting.com.au
Balaclava Road,Guests Pty Ltd ATF H & H GUEST & ASSOCIATES UNIT TRUST t/a Guests Accounting,AU,info@guests.com.au,03 95097033,3161,Victoria,Caulfield North,http://www.guests.com.au
Ross Street,W.I.T.H Accounting Solutions,AU,,03 90051107,3185,Victoria,Elsternwick,
Horne Street,B Ruschinek & Associates,AU,brusch@topcpa.com.au,03 95238666,3185,Victoria,Elsternwick,
North Road,AMS Accounting Services (VIC) Pty Ltd,AU,anne@amsaccounting.com.au,+61418382736,3204,Victoria,Ormond,
Sebastopol Street,Mabel Chong t/as 1plus Consulting,AU,info@1plusconsulting.com,0431919222,3161,Victoria,Caulfield North,http://www.1plusconsulting.com
Oakwood Avenue,DNA Business Advisors Pty Ltd,AU,info@dnaba.com.au,03 8376 6898,3186,Victoria,Brighton,http://dnabusinessadvisors.com.au
Nepean Highway,H G & Co Pty Ltd,AU,info@hgco.com.au,03 95285544,3186,Victoria,Brighton,
Walsh Street,Marotta & Associates Pty Ltd,AU,advice@marottaassociates.com.au,03 95783200,3204,Victoria,Ormond,
Wheatley Road,Super Tax Services Pty Ltd,AU,tina@supertaxservices.com.au,(042) 288-2529,3204,Victoria,McKinnon,http://www.supertaxservices.com.au
Anthony Street,George Neumann & Associates,AU,george@neumanncpa.com.au,03 95784966,3204,Victoria,Ormond,
Derby Road,Hillyer Riches,AU,hilric@hillyerriches.com.au,03 95715333,3145,Victoria,Caulfield East,http://www.hillyerriches.com.au
Rogers Avenue,Dale R Sinnott,AU,dalersinnott@gmail.com,0418996848,3187,Victoria,Brighton East,
Dunoon Court,Ronald Sherwin & Co Pty Ltd,AU,sherwinfcpa@optusnet.com.au,03 95576264,3187,Victoria,Brighton East,http://
Clarkson Avenue,Gusnes & Associates,AU,info@gusnerassociates.com.au,03 9758 5888,3186,Victoria,Brighton,http://www.gusnerassociates.com.au
Clarkson Avenue,KPR Financial & Marketing Services Pty Ltd,AU,ryan@kprfinancial.com.au,0411101261,3186,Victoria,Brighton,http://www.kprfinancial.com.au
Clarkson Avenue,Manion Partners Pty Ltd,AU,andrew@manionpartners.com.au,0407681361,3186,Victoria,Brighton,http://www.manionpartners.com.au
Queens Avenue,Proctor Major & Co Pty Ltd,AU,,03 95718822,3145,Victoria,Caulfield East,http://proctormajor.com.au/
Bay Street,Edwards Pearl Pty. Ltd,AU,contact@edwardspearl.com.au,03 95306100,3186,Victoria,Brighton,http://
Foote Street,Experience Counts,AU,mr@experiencecounts.com.au,03 9596 9101,3186,Victoria,Brighton,http://www.experiencecounts.com.au
Erindale Avenue,Zest Business Services Pty Ltd T/a Zest Business Services,AU,info@zebs.com.au,0390159770,3185,Victoria,Ripponlea,http://www.zebs.com.au
Outer Crescent,Baybridge Consultants,AU,let's_talk@baybridgeconsultants.com.au,03 95064492,3186,Victoria,Brighton,
Cochrane Street,Peter Crabb & Associates,AU,pcrabb99@gmail.com,03 9595 3818,3186,Victoria,Brighton,http://www.taxreturnsbrighton.com.au/
Whitmuir Road,Dirk Balthazaar Pty Ltd,AU,dbalthoz@bigpond.net.au,03 9557 6650,3204,Victoria,McKinnon,
Berwick Street,Fine Accounting Solutions,AU,renata.fine@bigpond.com,0402 025 185,3186,Victoria,Brighton,
Truganini Road,A+ Accounting & Taxation Services,AU,contact@aplusacctax.com.au,0422 423 399,3163,Victoria,Carnegie,http://www.aplusacctax.com.au
Orrong Crescent,David Mond & Associates,AU,david@davidmond.com.au,03 95259466,3161,Victoria,Caulfield North,
Munro Avenue,DNB Tax Consulting PTY LTD,AU,jime@dnbtax.com.au,03 9571 1755,3163,Victoria,Carnegie,http://www.dnbtax.com.au
Vickery Street,DJM Advisory Services Pty Ltd,AU,,1300 65 95 89,3204,Victoria,McKinnon,
Rosstown Road,Capital Management Partners,AU,alastair@limecapital.com.au,0412510636,3163,Victoria,Carnegie,
Wheatley Road,PWK Accounting Group,AU,phillip@pwk.net.au,03 95572998,3204,Victoria,McKinnon,http://www.pwkco.com.au
Wheatley Road,Veale Partners,AU,peter@vealepartners.com.au,03 95082000,3204,Victoria,McKinnon,http://www.vealepartners.com.au
Campbell Street,Stephens Plattfuss & Co,AU,neale@spcpl.com.au,03 9563 9744,3204,Victoria,Bentleigh,http://www.spcpl.com.au/
Wattletree Road,Elias Rosenberg Pty Ltd,AU,tom@eliasrosenberg.com.au,03 95762101,3145,Victoria,Malvern,http://www.eliasrosenberg.com.au/
Ash Grove,Clear Advisory Pty Ltd,AU,phil@clearadvisory.com.au,0417 517 269,3145,Victoria,Malvern East,
Seaview Avenue,Panebianco Accountants,AU,paul@panebianco.com.au,03 9557 8333,3204,Victoria,Bentleigh,
Seaview Avenue,Paul Panebianco,AU,paul@panebianco.com.au,03 9557 8333,3204,Victoria,Bentleigh,
Selkirk Avenue,CDG Advisors,AU,domenic@cdgadvisors.com.au,03 9557 5761,3204,Victoria,McKinnon,http://www.cdgadvisors.com.au
,Emerald Accountants,AU,yeng@emeraldaccountants.com.au,0408837929,3163,Victoria,Hughesdale,http://www.emeraldaccountants.com.au
Dendy Street,MRT Pty Ltd,AU,,03 95920702,3186,Victoria,Brighton,
Brewer Road,Bronwyn Whitelaw,AU,BronwynWhitelaw@gmail.com,03 95574093,3204,Victoria,Bentleigh,
Brewer Road,First Class Accounts - Brighton,AU,mike.novis@firstclassaccounts.com,0406 004 212,3204,Victoria,Bentleigh,http://www.firstclassaccounts.com/brighton
Brewer Road,PAR Partners Pty Ltd,AU,raymond@parpartners.com.au,03 95639133,3204,Victoria,Bentleigh,http://www.parpartners.com.au
Brewer Road,Stellar Bookkeeping,AU,,,3204,Victoria,Bentleigh,
Brewer Road,The SMSF Accountant Pty Ltd,AU,diana@thesmsfaccountant.com.au,0411 046 844,3204,Victoria,Bentleigh,http://www.thesmsfaccountant.com.au
Brewer Road,The SMSF Auditor Pty Ltd,AU,diana@thesmsfaccountant.com.au,0411 046 844,3204,Victoria,Bentleigh,http://www.thesmsfaccountant.com.au
Winston Way,Hannah Lin & Associates,AU,lqyhannah@gmail.com,0401930700,3163,Victoria,Murrumbeena,
Darling Road,Stevens Zucco & Co,AU,samuel@stevenssucco.com.au,0421 129 994,3145,Victoria,Malvern East,
,TWB Chartered Accountants,AU,,03 9568 0188,3163,Victoria,Murrumbeena,http://www.twb.com.au/
Hurstmon Street,TAG Financial Services Pty Ltd,AU,team@tagfinancial.com.au,03 98860800,3145,Victoria,Malvern East,http://www.tagfinancial.com.au
Wallace Avenue,SMSF Guard,AU,prenner@optusnet.com.au,0412370791,3163,Victoria,Murrumbeena,
Waverley Road,Lee Galanis Pty Ltd,AU,lee@lga.net.au,03 95723244,3145,Victoria,Malvern East,www.lga.net.au
Arnold Road,Black & Krantz,AU,andrewkrantz@me.com,03 9682 3000,3187,Victoria,Brighton East,http://www.blackandkrantz.com.au
,TaxBright Accountants Pty Ltd,AU,admin@taxbright.com.au,03 9555 5810,3204,Victoria,Bentleigh,http://www.taxbright.com.au/
Monash Freeway,Tappin' Tax,AU,maria@tappintax.com.au,0407317841,3145,Victoria,Malvern East,http://www.tappintax.com.au
Letchworth Avenue,Rong Liu Accounting Services T/as RL Accounting,AU,info@rlaccounting.com.au,03 99883145,3187,Victoria,Brighton East,http://www.rlaccounting.com.au
Hutchinson Street,Jeanette Bentley,AU,jeanette.m.bentley@gmail.com,03 95639646,3204,Victoria,Bentleigh,
North Road,Sentinel Advisory,AU,patrick@sentineladvisory.com.au,0425833673,3163,Victoria,Murrumbeena,
Spark Street,Smart Bookkeeping Partners Pty Ltd,AU,christineowng@hotmail.com,03 95633583,3163,Victoria,Murrumbeena,http://www.bpartners.com.au
Paschal Street,Figure Sense,AU,effie@figuresense.com.au,,3204,Victoria,Bentleigh,http://www.figuresense.com.au
South Road,P J Fitzpatrick & Associates Pty Ltd,AU,peter@pjfitzpatrick.com.au,03 95530966,3204,Victoria,Bentleigh,
Rosina Street,MPA Accounting and Audit Services,AU,rachel.mpaauditor@gmail.com,0433023259,3204,Victoria,Bentleigh,
Warrigal Road,Concepts & Results Pty Ltd,AU,ascandizzo@cr.com.au,03 95695676,3145,Victoria,Malvern East,http://www.cr.com.au
Aird Street,Cadence Accountants & Advisors,AU,,0398176091,3124,Victoria,Camberwell,http://www.cadence.com.au
Aird Street,Jeffrey F Zivin,AU,zivin@netspace.net.au,0414 592345,3124,Victoria,Camberwell,
Aird Street,JPR Business Group Pty Ltd,AU,darrenr@jprgroup.com.au,03 9853 7300,3124,Victoria,Camberwell,http://www.jprgroup.com.au/
Aird Street,Marino & Ross,AU,admin@marinoross.com.au,03 9882 8082,3124,Victoria,Camberwell,
Aird Street,Parkson Accountants,AU,info@parkson.net.au,03 98133189,3124,Victoria,Camberwell,http://info@parkson.net.au
Aird Street,Platform Advisors Pty Ltd,AU,admin@platformadvisors.com.au/,03 9813 1955,3124,Victoria,Camberwell,http://platformadvisors.com.au/
Aird Street,Professional Womens Investment Service PTY LTD,AU,theresam@professionalwomensinvestments.com,03 9889 9115,3124,Victoria,Camberwell,http://www.professionalwomensinvestments.com
Burke Road,Tiernan Parsons Pty Ltd,AU,info@tiernanparsons.com.au,03 9813 2933,3124,Victoria,Camberwell,http://www.tpfs.com.au/
St Helens Road,Stavropoulos Pty Ltd,AU,sophiastavropoulos@stavropoulosptyltd.com,03 9041 5371,3123,Victoria,Hawthorn East,http://www.stavropoulosptyltd.com
Toorak Road,360 Partners,AU,info@360partners.com.au,03 90054900,3124,Victoria,Camberwell,http://www.360partners.com.au
Burke Road,BMB Partners Pty Ltd,AU,greg@bmbpartners.com.au,03 8862 6380,3124,Victoria,Camberwell,
Burke Road,Coghlans Accountants & Advisors Pty Ltd,AU,angela@coghlans.net.au,0398356000,3124,Victoria,Camberwell,http://www.coghlans.net.au
Camberwell Road,T. McNeilage & Associates,AU,travis@tmcneilage.com.au,03 98823477,3124,Victoria,Hawthorn East,
Burke Road,Sugden Accounting Services,AU,,03 9882 5155,3146,Victoria,Glen Iris,
Burke Road,DDL Partners Pty Ltd,AU,davidd@ddlpartners.com.au,0415088878,3124,Victoria,Camberwell,http://www.ddlpartners.com.au
Burke Road,KSR Partners Pty Ltd,AU,teamksr@ksrpartners.com.au,03 98301555,3124,Victoria,Camberwell,http://www.ksrpartners.com.au
Burke Road,Trubiani & Co Pty Ltd,AU,adrian@trubianico.com.au,03 9835 6900,3124,Victoria,Camberwell,http://www.trubianico.com.au
Georgina Parade,Brauns & Co,AU,bert.brauns@brauns.com.au,03 9889 5556,3124,Victoria,Camberwell,
Hallcroft Place,Lim & Tao,AU,,03 9813 0088,3124,Victoria,Hawthorn East,http://
Albert Street,Alyansa,AU,vincent@alyansa.com.au,03 98824846,3123,Victoria,Hawthorn East,http://www.alyansa.com.au
Albert Street,Chiu Consulting Pty Ltd,AU,sam@chiuconsulting.com.au,0388626383,3123,Victoria,Hawthorn East,http://www.chiuconsulting.com.au
Albert Street,Graeme N Jenkinson Pty Ltd,AU,graeme@gnj.com.au,03 8862 6460,3123,Victoria,Hawthorn East,
Albert Street,Innovation Management Consultants Pty Ltd,AU,garyt@imconsulting.com.au,0400390741,3123,Victoria,Hawthorn East,http://www.imconsulting.com.au
Albert Street,MBC Accounting Solutions,AU,info@mbcaccounting.com.au,03 99430479,3123,Victoria,Hawthorn East,http://www.mbcaccounting.com.au
Albert Street,Stemil Consulting,AU,stephanie@stemil.com.au,03 8652 5102,3123,Victoria,Hawthorn East,http://stemil.com.au/
Cato Street,Lal Pardasani & Associates Pty Ltd,AU,lal@lpaccountants.com.au,03 98229288,3123,Victoria,Hawthorn East,
Burwood Road,Equus Partners,AU,info@equuspartners.com.au,0390050167,3123,Victoria,Hawthorn,http://www.equuspartners.com.au
Cato Street,Lark Business Advisory Pty Ltd T/a Lark Business Advisory,AU,ericc@larkadvisory.com.au,0398245275,3123,Victoria,Hawthorn East,http://www.larkadvisory.com.au
,RH Super Fund Accountants Pty Ltd,AU,janhmz@hotmail.com,0413803668,3124,Victoria,Ashburton,http://www.rhsfaccountants.com.au
Britten Street,Trevor W Emmett & Associates,AU,trevor@hazelwoodhall.com.au,03 98853639,3146,Victoria,Glen Iris,http://trevoremmett.com.au/
Milton Parade,PSCAA Pty Ltd,AU,pauls@pscaaccounting.com.au,03 88408711,3144,Victoria,Malvern,
Bardolph Street,Peter C Neville,AU,pcn@pcneville.com.au,03 98890522,3146,Victoria,Glen Iris,http://
Milton Parade,Willmott Robb Pty Ltd,AU,mark@willmottrobb.com.au,03 9824 7444,3146,Victoria,Malvern,http://www.willmottrobb.com.au
Stanley Terrace,BPR Audt Pty Ltd,AU,bernie@bpraudit.com.au,03 98368824,3126,Victoria,Surrey Hills,http://www.bpraudit.com.au
Glenvale Road,Hunt Goldsmith Colliver Pty Ltd,AU,peter@hgccpas.com.au,03-9882-9236,3146,Victoria,Glen Iris,
Walsh Street,Kyriakou & Associates Pty Ltd,AU,info@kyriakou.com.au,03 98170999,3103,Victoria,Deepdene,http://www.kyriakou.com.au
Through Road,Gilham Financial Management,AU,patrick@gfmwealth.com.au,03 9809 1221,3124,Victoria,Surrey Hills,http://www.gilham.com.au
Mont Albert Road,Domino Development Pty Ltd Tas Domino Accounting,AU,danielle@dominoaccounting.com.au,03 98301872,3126,Victoria,Mont Albert,
Power Street,JRS Accountants & Advisors Pty Ltd,AU,john@jrsaccountants.com,03 94299388,3103,Victoria,Balwyn,
Whitehorse Road,Business Concepts Group,AU,cr@buscgroup.com.au,03 9816 4200,3103,Victoria,Balwyn,http://www.buscgroup.com.au
Whitehorse Road,Karaco Accountants,AU,karaco@karaco.com.au,03 98365711,3103,Victoria,Balwyn,http://www.karaco.com.au
Leopold Street,Accurate Professional Compliant,AU,evelyn@ezee.com.au,0407 508 504,3146,Victoria,Glen Iris,www.apcbookkeeping.com.au
Whitehorse Road,Canterbury Wealth Management,AU,geoff@canterburywealth.com.au,03 9888 6424,3103,Victoria,Balwyn,
Whitehorse Road,KMS Financial Solutions Pty Ltd,AU,accountants@kmsfinancial.com.au,03 98804999,3103,Victoria,Balwyn,http://www.kmsfinancial.com.au/
Park Street,Kuyama Ito & Co Pty Ltd,AU,yoshi@kuyamaito.com.au,03 95002097,3144,Victoria,Malvern,
Park Street,Liston Newton Advisory,AU,kieran.liston@listonlanders.com.au,03 9509 0366,3144,Victoria,Malvern,http://listonnewton.com.au
Toorak Road,Reagan & Co,AU,reaganco@optusnet.com.au,03 9889 9718,3124,Victoria,Camberwell,
Toorak Road,AS Partners,AU,leod@aspartners.com.au,03 8199 3000,3124,Victoria,Camberwell,http://www.aspartners.com.au
Hamilton Street,Andresen Secker Associates Pty Ltd,AU,anthony@andresensecker.com,+61 3 9006 8000,3103,Victoria,Balwyn,http://www.andresensecker.com/
Hamilton Street,Kidmans Partners Pty Ltd,AU,tracey@kidmanspartners.com.au,61398362900,3103,Victoria,Balwyn,http://www.kidmanspartners.com.au
Hamilton Street,McBain McCartin & Co Business Services Pty Ltd,AU,chris.shaw@mcbainmccartin.com.au,61398170700,3103,Victoria,Balwyn,http://www.mcbainmccartin.com.au
Hamilton Street,ProAcct Advisors & Accountants Pty Ltd,AU,office@proacct.com.au,03 98809600,3103,Victoria,Balwyn,http://www.proacct.com.au/
Francis Crescent,Hangtax,AU,ros_hang@yahoo.com,03 98869889,3146,Victoria,Glen Iris,http://
Willis Street,Mody & Co Pty Ltd,AU,monish@hydonmody.com.au,03 95092233,3144,Victoria,Malvern,
Delfi Court,Meng Lo & Co,AU,meng@mengloandco.com.au,03 90056907,3103,Victoria,Balwyn,
Belmore Road,Cox Lewandowski Group,AU,stephen@coxlewgroup.com.au,03 98576261,3103,Victoria,Balwyn,
Soudan Street,OHM Australia,AU,brent.kirchner@ohm.com.au,03 9500 0911,3144,Victoria,Malvern,
Como Street,Nexus Accountants (Aust) Pty Ltd,AU,dt@nexusaccountants.com.au,03 95008666,3144,Victoria,Armadale,
Carrigal Street,Prompt Accounting Solutions,AU,carly@promptaccounting.com,(042) 133-0716,3103,Victoria,Balwyn,http://www.promptaccounting.com
Nepean Highway,Stevenson Partners,AU,info@stevensoncpa.com.au,03 95320248,3188,Victoria,Hampton East,
South Road,P J Fitzpatrick & Associates Pty Ltd,AU,peter@pjfitzpatrick.com.au,03 95530966,3204,Victoria,Bentleigh,
Dane Road,M D'Zilva & Co Pty Ltd,AU,matt@mdzco.com.au,03 95985692,3188,Victoria,Hampton East,
,TaxBright Accountants Pty Ltd,AU,admin@taxbright.com.au,03 9555 5810,3204,Victoria,Bentleigh,http://www.taxbright.com.au/
Rosina Street,MPA Accounting and Audit Services,AU,rachel.mpaauditor@gmail.com,0433023259,3204,Victoria,Bentleigh,
Letchworth Avenue,Rong Liu Accounting Services T/as RL Accounting,AU,info@rlaccounting.com.au,03 99883145,3187,Victoria,Brighton East,http://www.rlaccounting.com.au
Arnold Road,Black & Krantz,AU,andrewkrantz@me.com,03 9682 3000,3187,Victoria,Brighton East,http://www.blackandkrantz.com.au
Brewer Road,Bronwyn Whitelaw,AU,BronwynWhitelaw@gmail.com,03 95574093,3204,Victoria,Bentleigh,
Brewer Road,First Class Accounts - Brighton,AU,mike.novis@firstclassaccounts.com,0406 004 212,3204,Victoria,Bentleigh,http://www.firstclassaccounts.com/brighton
Brewer Road,PAR Partners Pty Ltd,AU,raymond@parpartners.com.au,03 95639133,3204,Victoria,Bentleigh,http://www.parpartners.com.au
Brewer Road,Stellar Bookkeeping,AU,,,3204,Victoria,Bentleigh,
Brewer Road,The SMSF Auditor Pty Ltd,AU,diana@thesmsfaccountant.com.au,0411 046 844,3204,Victoria,Bentleigh,http://www.thesmsfaccountant.com.au
Hillston Road,Ronyas Accounting Pty Ltd,AU,accounting@ronyas.com.au,+61 3 9553 2852,3189,Victoria,Moorabbin,
Paschal Street,Figure Sense,AU,effie@figuresense.com.au,,3204,Victoria,Bentleigh,http://www.figuresense.com.au
Hamer Street,Maio Financial Solutions Pty Ltd,AU,,03 95550337,3189,Victoria,Moorabbin,
Hutchinson Street,Jeanette Bentley,AU,jeanette.m.bentley@gmail.com,03 95639646,3204,Victoria,Bentleigh,
Campbell Street,Stephens Plattfuss & Co,AU,neale@spcpl.com.au,03 9563 9744,3204,Victoria,Bentleigh,http://www.spcpl.com.au/
Wheatley Road,PWK Accounting Group,AU,phillip@pwk.net.au,03 95572998,3204,Victoria,McKinnon,http://www.pwkco.com.au
Wheatley Road,Veale Partners,AU,peter@vealepartners.com.au,03 95082000,3204,Victoria,McKinnon,http://www.vealepartners.com.au
Bluff Court,Bayside Taxation Services,AU,,0433 649 649,3191,Victoria,Sandringham,
Highett Road,GEORGE DEMETRIOU t/a G D F Partners,AU,george@gdfpartners.com.au,03 95531511,3190,Victoria,Highett,http://www.gdfpartners.com.au
Seaview Avenue,Panebianco Accountants,AU,paul@panebianco.com.au,03 9557 8333,3204,Victoria,Bentleigh,
Vickery Street,DJM Advisory Services Pty Ltd,AU,,1300 65 95 89,3204,Victoria,McKinnon,
Whitmuir Road,Dirk Balthazaar Pty Ltd,AU,dbalthoz@bigpond.net.au,03 9557 6650,3204,Victoria,McKinnon,
Bulli Street,AWE Business Consulting Pty Ltd,AU,allanw@aweconsulting.com.au,03 95565465,3189,Victoria,Moorabbin,http://www.aweconsulting.com.au
Bulli Street,Balance Corporation Pty Ltd,AU,mmcclaren@balcorp.com.au,03 95326111,3189,Victoria,Moorabbin,http://www.balcorp.com.au
Bulli Street,CMPL Accounting,AU,claire@moyles.biz,0412435474,3189,Victoria,Moorabbin,
Hobson Street,Marita Anderson t/a Anderson SMSF Services,AU,auditor@andersonsmsfservices.com.au,0422 185 783,3189,Victoria,Sandringham,http://andersonsmsfservices.com.au
Selkirk Avenue,CDG Advisors,AU,domenic@cdgadvisors.com.au,03 9557 5761,3204,Victoria,McKinnon,http://www.cdgadvisors.com.au
Teton Court,Fortune Star Services,AU,roywang@y7mail.com,0385639061,3190,Victoria,Moorabbin,
Dunoon Court,Ronald Sherwin & Co Pty Ltd,AU,sherwinfcpa@optusnet.com.au,03 95576264,3187,Victoria,Brighton East,http://
Ludstone Street,CBS Complete Business Servicers,AU,anthony@rbkadvisory.com.au,03 9598 0100,3188,Victoria,Hampton,http://www.iaccounts.com.au
Cochranes Road,Curve Accountants & Advisors,AU,sean.dwyer@curveaccountants.com.au,03 9588 9000,3189,Victoria,Moorabbin,http://www.curveaccountants.com.au
Wheatley Road,Super Tax Services Pty Ltd,AU,tina@supertaxservices.com.au,(042) 288-2529,3204,Victoria,McKinnon,http://www.supertaxservices.com.au
Rogers Avenue,Dale R Sinnott,AU,dalersinnott@gmail.com,0418996848,3187,Victoria,Brighton East,
Anthony Street,George Neumann & Associates,AU,george@neumanncpa.com.au,03 95784966,3204,Victoria,Ormond,
Bay Road,Bloq Advisors & Accountants Pty Ltd,AU,sean@bloqadvisors.com.au,0412709115,3191,Victoria,Sandringham,http://www.bloqadvisors.com.au
Bay Road,Mark G Zanon,AU,mgzanon@bigpond.com,0433649649,3191,Victoria,Sandringham,
Station Street,Isaac Gnieslaw Pty Ltd,AU,isaac@igcpa.com.au,03 95346969,3191,Victoria,Sandringham,http://www.igcpa.com.au
Bay Road,Foremans Business Services,AU,MGollant@formans.com.au,03 95216662,3191,Victoria,Sandringham,http://www.formans.com.au
North Road,AMS Accounting Services (VIC) Pty Ltd,AU,anne@amsaccounting.com.au,+61418382736,3204,Victoria,Ormond,
Melrose Street,Coutts Partners,AU,admin@couttspartners.com.au,03 95970522,3191,Victoria,Sandringham,http://www.couttspartners.com.au
Gordon Street,Jackabbey Road Pty Ltd t/a Generation Private,AU,craig@generationprivate.com.au,0414252290,3188,Victoria,Hampton,http://www.generationprivate.com.au
Walsh Street,Marotta & Associates Pty Ltd,AU,advice@marottaassociates.com.au,03 95783200,3204,Victoria,Ormond,
North Road,Compass Advisors Pty Ltd,AU,mthimm@compassadv.com.au,0425 750 763,3187,Victoria,Caulfield South,http://www.compassadv.com.au
Corporate Drive,James Rynn & Associates,AU,jrynn@linenhouse.com.au,03 95583200,3189,Victoria,Heatherton,http://
Champion Road,Gellibrand Accountants,AU,greg@gellibrandaccountants.com.au,03 9397 4061,3016,Victoria,Williamstown North,
Goss Terrace,Morrow Wheatley & Associates Pty Ltd,AU,admin@mwapl.com,03 93971355,3016,Victoria,Williamstown,http://www.mwapl.com
Stevedore Street,MPT Group Accountants & Advisors Pty Ltd,AU,admin@mptgroup.com.au,03 93976888,3016,Victoria,Williamstown,http://www.mtpgroup.com.au
Ferguson Street,BP Cooney & Associates,AU,bernie.cooney@riwilliamstown.com.au,03 93999088,3016,Victoria,Williamstown,
Nelson Place,JAG Accountants Pty Ltd,AU,julian@jagaccountants.com.au,0408033696,3016,Victoria,Williamstown,http://www.jagaccountants.com.au
Brisbane Road,Matis Accounting Pty Ltd,AU,andrew@matisaccounting.com.au,07 38122600,4304,QLD,Booval,
Hay Place,Hollingsworth & Co Pty Ltd,AU,kevin@hollingsworthandco.com.au,03 96295566,3000,Victoria,Melbourne City,http://www.hollingsworthandco.com.au
Clarendon Street,PPF Partners,AU,a.ferla@ppf.com.au,(03) 9690-1500,3006,Victoria,South Wharf,http://www.ppf.com.au/
Francis Street,365 Accounting Pty Ltd,AU,365@365accounting.com.au,03 99394134,3000,Victoria,Melbourne City,http://www.365accounting.com.au
Geddes Lane,Barnes Partners,AU,mbarnes@barnespartners.com.au,03 9935 2833,3000,Victoria,Melbourne City,
Kings Way On Ramp,WILCANNIA SERVICES PTY LTD,AU,anthonyl@almwp.com.au,0417507300,3006,Victoria,Southbank,http://www.almwp.com.au
Collins Street,M.S CARLEI & D.I MCDONALD T/a ShineWing Australia,AU,bzhang@shinewing.com.au,+61 3 8635 1800,3000,Victoria,Melbourne City,http://shinewing.com.au
Collins Street,PGP Consulting Pty Ltd,AU,peter@pgpconsulting.com.au,03 88426860,3000,Victoria,Melbourne City,http://www.pgpconsulting.com.au
Queens Bridge Street,PR Financial Solutions Pty Ltd,AU,ray.baath@numberspro.com.au,0423 274 777,3006,Victoria,Southbank,http://www.accountingandtax.com.au/
William Street,Andrew Davey & Co,AU,andrew@andrewdavey.com.au,03 96497333,3000,Victoria,Melbourne City,
William Street,Strategic Accounting Australia,AU,mbarnes@barnespartners.com.au,0399352833,3000,Victoria,Melbourne City,http://www.sfga.com.au
Queens Bridge Street,Stanwycks Pty Ltd,AU,doug@stanwycks.com.au,03 96269999,3006,Victoria,Southbank,http://www.stanwycks.com.au/
Little Collins Street,Auschina Accountant Services & Advisors,AU,lijuncpa@hotmail.com,03 86865761,3000,Victoria,Melbourne City,
Little Collins Street,Kevin Zhao The Company,AU,kevinzhao@hotmail.com,0402 877965,3000,Victoria,Melbourne City,
Little Collins Street,Warwick Accounting Pty Ltd Chartered Accountants,AU,martin@waracc.com.au,03 96212122,3000,Victoria,Melbourne City,http://www.waracc.com.au
Flinders Lane,Kovac Advisory Pty Ltd,AU,pk@kovacadvisory.com.au,03 96297211,3000,Victoria,Melbourne City,http://kovacadvisory.com.au/
Meaden Street,Affinity Accountants Pty Ltd,AU,scottc@affinity.com.au,03 96860400,3006,Victoria,South Melbourne,http://www.affinityaccountants.com.au/
Southbank Boulevard,Morrows Pty Ltd,AU,morrows@morrows.com.au,03 96905700,3006,Victoria,Southbank,http://www.morrows.com.au
Waterview Walk,Australia and New Zealand Banking Group,AU,markpalmer61@gmail.com,0404426181,3008,Victoria,Docklands,
Hancock Street,Greenfield Partners Pty Ltd,AU,advisors@gpartners.com.au,03 96941600,3006,Victoria,Southbank,http://www.gpartners.com.au
,JJY Taxation Financial Group,AU,jjy@jjytax.com.au,(03) 95443833,3000,Victoria,Melbourne City,http://www.jjytax.com.au
Queen Street,Accountancy Online Pty Ltd,AU,office@accountancyonline.com.au,9028 4446,3000,Victoria,Melbourne City,http://www.accountancyonline.com.au
Queen Street,Nexia Australia,AU,info@nexiamelbourne.com.au,03 86138888,3000,Victoria,Melbourne City,http://www.nexia.com.au
Collins Street,Strategem Private Clients,AU,info@strategempc.com.au,03 86218100,3000,Victoria,Melbourne City,http://www.strategempc.com.au
Ballantyne Street,Allely Evening Taxation Services,AU,michael@eveningtaxagent.com.au,0418818071,3006,Victoria,South Melbourne,http://www.melbournetaxagent.com.au
Ballantyne Street,DFK Nugents Pty Ltd,AU,gary@dfknugents.com.au,03 9693 5000,3006,Victoria,South Melbourne,http://www.dfknugents.com.au
Ballantyne Street,MDD Advisory Pty Ltd,AU,admin@mddadvisory.com.au,03 99997339,3006,Victoria,South Melbourne,
Ballantyne Street,Morrows Private Wealth,AU,kbrumley@morrows.com.au,03 9690 5700,3006,Victoria,South Melbourne,http://www.morrows.com.au
Ballantyne Street,Stephen James Howard tr/a The Howard Group,AU,steve@thehowardgroup.com.au,0412 223 317,3006,Victoria,South Melbourne,http://www.thehowardgroup.com.au
Ballantyne Street,Whim Australia,AU,jackie@whimconsultatory.com.au,613 85394716,3006,Victoria,South Melbourne,http://www.whimconsultatory.com/
Flinders Lane,J + M Accountants & Business Advisors Pty Ltd,AU,janine.brumhead@jmadvisors.com.au,03 96220600,3000,Victoria,Melbourne City,
William Street,Crowe Horwath Melbourne,AU,,03 9258 6700,3000,Victoria,Melbourne City,https://www.crowehorwath.com.au/
Queen Street,With Accounting Pty Ltd,AU,calvin@withaccounting.com,0433689222,3000,Victoria,Melbourne City,http://www.withaccounting.com
Chessell Street,SEIVA,AU,brent.szalay@seiva.com.au,03 9866 6222,3006,Victoria,South Melbourne,http://www.seiva.com.au
Bourke Street,Belleville Smith & Co Pty Ltd,AU,tim@bellevillesmith.com.au,03 96707044,3000,Victoria,Melbourne City,http://www.bellevillesmith.com.au
Bourke Street,Essentia Accounting & Financial Group,AU,phillip@essentiaaccounting.com.au,03 96002844,3000,Victoria,Melbourne City,http://www.essentiaaccounting.com.au/
Bourke Street,Jack Gaddie & Associates,AU,accountants@gaddieassociates.com.au,03 96424141,3000,Victoria,Melbourne City,http://www.gaddieassociates.com.au
Collins Way,Cor Cordis Pty Ltd ATF the Ridar Unit Trust t/as Cor Cordis Chartered Accountants,AU,skaso@corcordis.com.au,61 3 8320 5600,3000,Victoria,Melbourne City,http://www.corcordis.com.au/
Bourke Street,Wise Choice Group Pty Ltd T/a Wise Choice Accountants and Advisors,AU,vincent.wisechoice@gmail.com,0399731863,3000,Victoria,Melbourne City,
,Knightstone Partners,AU,,03 9600 1100,3000,Victoria,Melbourne City,http://knightstone.com.au/
Lonsdale Street,MWB Accountants Pty Ltd Chartered Accountants Tas MWB Accountants,AU,info@mwbaccountants.com.au,03 92522020,3000,Victoria,Melbourne City,
Little Bourke Street,KST Partners,AU,info@kstpartners.com,03 9600 0081,3000,Victoria,Docklands,http://www.kstpartners.com
Little Bourke Street,True Elite Business Services Pty Ltd,AU,info@trueelite.com.au,03 9606 0225,3000,Victoria,Docklands,http://www.trueelite.com.au
Bourke Street,Lifewealth Partners Pty Ltd,AU,paulm@lifewealth.com.au,03 96703434,3000,Victoria,Melbourne City,
Queen Street,Cambel Cass (Melbourne),AU,acass@camcassmel.com.au,03 9620356,3000,Victoria,Melbourne City,
Lonsdale Street,Boss Private Clients Pty Ltd,AU,business@bossprivateclients.com.au,03 86026100,3000,Victoria,Melbourne City,http://www.bossprivateclients.com.au
Queen Street,IRT Advisory,AU,contact@irtadvisory.com,03 9614 4850,3000,Victoria,Melbourne City,http://www.irtadvisory.com
Flinders Street,ITG Partners Pty Ltd,AU,itgpartners@myitg.com,1300 652484,3000,Victoria,Melbourne City,
City Road,Prime Accounting & Business Advisory Pty Ltd (formerly MPR Group Pty Ltd),AU,matthewm@mprgroup.com.au,03 98695900,3006,Victoria,Southbank,http://www.mpr-group.com
Elizabeth Street,ANG & Associates Pty Ltd,AU,alex@anga.com.au,0399957261,3000,Victoria,Melbourne City,http://www.anga.com.au
Elizabeth Street,Gautham Vattikuti t/a Your Accounting,AU,info@youraccounting.net.au,0466961234,3000,Victoria,Melbourne City,
York Street,Dillon Partners Pty Ltd,AU,lou@dillonpartners.com.au,03 96961788,3205,Victoria,South Melbourne,
Eagle Alley,Eddy Partners Pty Ltd,AU,,03 96025177,3000,Victoria,Melbourne City,
Balcombe Place,,AU,Jackphoenix69@hotmail.com,,3000,Victoria,Melbourne City,
Balcombe Place,,AU,grode@virtuestrategic.com.au,0452 530 246,3000,Victoria,Melbourne City,
Balcombe Place,Accountx,AU,Sunil.Dixit@accountx.com.au,0438150998,3000,Victoria,Melbourne City,
Balcombe Place,AG Partners,AU,results@agpartners.com.au,03 90988699,3000,Victoria,Melbourne City,
Balcombe Place,Badge RT,AU,MICHAEL@BADGERT.COM.AU,+61 438 400 067,3000,Victoria,Melbourne City,http://www.badgert.com.au
Balcombe Place,Beyond Accountancy Pty Ltd,AU,info@beyondaccountancy.com.au,1300 823 011,3000,Victoria,Melbourne City,http://www.beyondaccountancy.com.au
Balcombe Place,Blue Rock (Vic),AU,grant.ralston@theblurrock.com.au,03 86821111,3000,Victoria,Melbourne City,http://www.thebluerock.com.au
Balcombe Place,Collins House Accountants,AU,dalafaci@collinshouse.com,03 9629 6922,3000,Victoria,Melbourne City,http://www.collinshouse.com
Balcombe Place,Collins House Private Wealth,AU,dalafaci@collinshouse.com,03 9629 6922,3000,Victoria,Melbourne City,https://collinshouse.com
Balcombe Place,Connect Advisors,AU,jason@connectadvisors.com.au,,3000,Victoria,Melbourne City,http://www.connectadvisors.com.au
Balcombe Place,Conquest Services,AU,conquest@conquestservices.com.au,(03) 96708000,3000,Victoria,Melbourne City,
Balcombe Place,Courtney Jones & Associates,AU,enquiries@courtneyjones.com.au,03 9602 2133,3000,Victoria,Melbourne City,http://www.courtneyjones.com.au/
Balcombe Place,Crowe Horwath Australasia Ltd,AU,,03 92586700,3000,Victoria,Melbourne City,http://www.crowehorwath.com.au/
Balcombe Place,Gallo & Associates Pty Ltd,AU,phillip@thefive.com.au,0433388237,3000,Victoria,Melbourne City,http://www.galloandassociates.com.au
Balcombe Place,JH Accountants & Advisors Pty Ltd,AU,janehu@jhaccountants.com.au,03 96713588,3000,Victoria,Melbourne City,
Balcombe Place,K.L. Finance and Business Service,AU,likesandy@hotmail.com,0430766883,3000,Victoria,Melbourne City,
Balcombe Place,King & Whittle Pty Ltd,AU,admin@kingandwhittle.com.au,03 9602 4466,3000,Victoria,Melbourne City,http://www.kingandwhittle.com.au/
Balcombe Place,Kongs Accounting & Taxation Pty Ltd,AU,info@kongsaccounting.com,0438 898 682,3000,Victoria,Melbourne City,
Balcombe Place,Moore Stephens (Vic) Pty Ltd,AU,,0393976888,3000,Victoria,Melbourne City,http://www.moorestephens.com.au/victoria
Balcombe Place,MYC Associates,AU,meng.hou@myca.net.au,0459467755,3000,Victoria,Melbourne City,http://www.myca.net.au
Balcombe Place,PKF Melbourne Pty Ltd T/a PKF Melbourne,AU,,03 9679 2222,3000,Victoria,Melbourne City,http://www.pkf.com.au/
Balcombe Place,RJ Plus,AU,info@rjplus.com,1300086690,3000,Victoria,Melbourne City,http://www.rjplus.com
Balcombe Place,S & K Accounting Solutions,AU,director@skaccountingsolutions.com.au,03 9670 1683,3000,Victoria,Melbourne City,http://www.skaccountingsolutions.com.au
Balcombe Place,S J Tax and Accounting,AU,tax@snjservice.com,0415075947,3000,Victoria,Melbourne City,http://www.melbtax.com.au
Balcombe Place,SAP Tax Accountants,AU,amit@saptax.com.au,0432120120,3000,Victoria,Melbourne City,http://www.saptax.com.au
Balcombe Place,Strategic Edge Financial Services Pty Ltd,AU,info@premieraccountants.com.au,03 86011137,3000,Victoria,Melbourne City,http://www.premieraccountants.com.au
Balcombe Place,Surbal Accounting and Tax Services,AU,nirmal@surbalgroup.com.au,(03) 96707711,3000,Victoria,Melbourne City,www.surbalgroup.com.au
Balcombe Place,Tax Way,AU,simon@taxway.com.au,03 9005 6266,3000,Victoria,Melbourne City,http://www.taxway.com.au
Balcombe Place,Universal Accountants Pty Ltd,AU,info@universalaccountants.com.au,03 9642 2266,3000,Victoria,Melbourne City,http://universalaccountants.com.au
William Street,EJM Financial Group Pty Ltd,AU,m.iacobaccio@ejm.com.au,03 9320 7677,3008,Victoria,Melbourne City,http://www.ejm.com.au
Elizabeth Street,HLB Mann Judd (VIC) Pty Ltd,AU,info@hlbvic.com.au,(03) 96063888,3001,Victoria,Melbourne City,http://www.hlbvic.com.au
Elizabeth Street,Shadforth Financial Group,AU,craig.raits@sfg.com.au,03 9649 2400,3001,Victoria,Melbourne City,http://www.sfg.com.au
Elizabeth Street,Wren Advisers,AU,info@wrenadvisers.com.au,03 9663 6602,3001,Victoria,Melbourne City,http://www.wrenadvisers.com.au
Miles Street,4orward Consulting Pty Ltd,AU,accounting@4orward.com,03 96903455,3006,Victoria,Southbank,http://www.4orward.com
Timothy Lane,Daniel Man & Associates,AU,dman@acslink.aone.net.au,03 96700011,3000,Victoria,Melbourne City,http://
Little Lonsdale Street,Donegan's Accountants,AU,philb@donegans.com.au,03 9670 5232,3000,Victoria,Melbourne City,http://www.donegans.com.au/
,IPAC Securities Limited,AU,greg.weiland@ampadvice.com.au,03 8627 1706,3008,Victoria,Docklands,
,Pitcher Partners Advisors Pty Ltd,AU,,86129415,3008,Victoria,Docklands,http://www.pitcher.com.au/
Elizabeth Street,Sudath Perera,AU,jgdunstan@aol.com,0394176144,3001,Victoria,Melbourne City,
Moray Street,BMK Partners Pty Ltd,AU,team@bmkpartners.com.au,03 96997162,3205,Victoria,South Melbourne,http://www.bmkpartners.com.au
Flinders Street,Harrow Financial Pty Ltd,AU,anthony@harrowfinancial.com.au,03 9639 6100,3000,Victoria,Melbourne City,
Cecil Street,Lock SJS,AU,sujith@locksjs.com.au,03 96991199,3205,Victoria,South Melbourne,
,BR Wellington,AU,admin@brwellington.com.au,03 9606 9400,3001,Victoria,Melbourne City,www.brwellington.com.au
,Grant Thornton (Melbourne),AU,info.vic@au.gt.com,+61 3 8320 2222,3001,Victoria,Melbourne City,http://www.grantthornton.com.au/
,HSL Consulting,AU,paul@hslconsulting.com.au,0407586446,3001,Victoria,Melbourne City,http://www.hslconsulting.com.au
,KordaMentha,AU,bwebster@kordamentha.com,03 8623 3409,3001,Victoria,Melbourne City,http://www.kordamentha.com/
Moray Street,Barrett Baxter Bye Pty Ltd,AU,,61396937777,3205,Victoria,South Melbourne,http://bbbpartners.com.au
Moray Street,Billings Ellis Advisory Services Pty Ltd,AU,grahamm@billingellis.com.au,03 96998244,3205,Victoria,South Melbourne,http://www.billingsellis.com.au
Moray Street,Black & Krantz,AU,oRaffaele@blackandkrantz.com.au,03 9682 3000,3205,Victoria,South Melbourne,http://www.wealthadvisers.com.au/
Moray Street,Lancia And Co,AU,frank@lanciaco.com.au,03 8368 2373,3205,Victoria,South Melbourne,http://www.lanciaco.com.au/
Law Street,Emerald Hill Consulting Pty Ltd,AU,eve.blackall@emeraldhillconsulting.com.au,(048) 819-6888,3205,Victoria,South Melbourne,http://www.emeraldhillconsulting.com.au
Docklands Drive,JTC Accountants & Business Advisors,AU,info@jtca.com.au,03 90089186,3008,Victoria,Docklands,http://www.jtca.com.au
Bank Street,Billings Ellis Pty Ltd,AU,geoffm@billingsellis.com.au,03 96998244,3205,Victoria,South Melbourne,http://www.billingsellis.com.au
St Kilda Road,HLT Accountants Pty Ltd,AU,info@hltpartners.com.au,03 96860808,3004,Victoria,Melbourne City,www.hltpartners.com.au
Cobden Street,Clarendon Partners,AU,info@taxandfinancialsolutions.com.au,03 96999394,3205,Victoria,South Melbourne,http://www.taxandfinancialsolutions.com.au/
Cobden Street,Clarendon Partners,AU,nuno@clarendonpartners.com.au,03 9699 9394,3205,Victoria,South Melbourne,http://www.clarendonpartners.com.au
Cobden Street,Clarendon Partners Australia Pty Ltd,AU,nuno@clarendonpartners.com.au,03 96999394,3205,Victoria,South Melbourne,http://www.clarendonpartners.com.au
Little Bourke Street,Tony Ng & Co,AU,info@skdpartner.com.au,03 9650 7672,3000,Victoria,East Melbourne,http://www.skdpartner.com.au/
Bourke Street,Wren Advisers Pty Ltd Tas Wren Advisers,AU,,03 96636602,3000,Victoria,Melbourne City,
Lonsdale Street,ATS Accountants & Tax Consultants Pty Ltd,AU,ats@iprimus.com.au,03 96621286,3000,Victoria,Melbourne City,
Palmerston Crescent,Phillip Anthony Partners,AU,rcolangelo@PhillipAnthony.com.au,0398201204,3205,Victoria,South Melbourne,
Swanston Street,H & R Block,AU,fbrass@hrblock.com.au,03 9388 1611,3000,Victoria,Carlton,http://www.handrblock.com.au
Collins Street,NWH Accounting Professionals,AU,petertalevski@nwhcs.com.au,03 96546433,3000,Victoria,Melbourne City,http://www.nwhcs.com.au
Palmerston Crescent,Full Circle Accounting Pty Ltd,AU,travis.tsf@bigpond.com.au,1300 930 554,3205,Victoria,South Melbourne,
Thomson Street,Chi Berkowitz Partners,AU,bb@chiberkowitz.com.au,03 96901668,3205,Victoria,South Melbourne,http://www.chiberkowitz.com.au
Victoria Street,Brubacher Pty Ltd,AU,louie@ecpa.com.au,03 93295333,3051,Victoria,North Melbourne,
Stead Street,Chapman and Co Accounting,AU,sam@chapmanco.com.au,03 9696 0880,3205,Victoria,Melbourne City,http://www.chapmanco.com.au
Victoria Street,Michael Gleeson & Associates,AU,mga@michaelgleeson.com.au,03 93268108,3051,Victoria,North Melbourne,
Albert Road,MBA Advisers,AU,paul@mbaadvisers.com.au,03 90095245,3205,Victoria,Melbourne City,http://www.mbaadvisers.com.au
Stead Street,DA Financial Group,AU,admin@dafinancialgroup.com.au,03 96260088,3205,Victoria,Melbourne City,
Stead Street,Rose Partners Accountants & Advisers,AU,msojka@rosepartners.com.au,03 96907299,3205,Victoria,Melbourne City,http://www.rosepartners.com.au
Peel Street,GSA Accountants,AU,jefflunntax@gmail.com,03 9326 9622,3051,Victoria,North Melbourne,
Lansdowne Place,Gold Leaf Financial Services Pty Ltd,AU,info@goldleaffinancial.com.au,0437554653,3053,Victoria,Carlton,http://www.goldleaffinancial.com.au
Errol Street,McCann Financial Group Pty Ltd ATF McCann Financial Group Unit Trust T/a McCann Financial Group,AU,phil@mccanntax.com.au,0393266599,3051,Victoria,North Melbourne,
Errol Street,McCann Taxation Services,AU,phil@mccanntax.com.au,03 93266599,3051,Victoria,North Melbourne,
Drummond Street,First Priority Accounting & Taxation Pty Ltd,AU,david@firstpriority.com.au,03 86604788,3053,Victoria,Carlton,http://www.firstpriority.com.au/
Albert Road,McLennan Partners Pty Ltd,AU,ian@mclennanpartners.com.au,03 96995277,3004,Victoria,Melbourne City,http://www.mclennanpartners.com.au
St Kilda Road,3P Accounting & Tax,AU,enquiries@3pcorp.com.au,03 9988 2801,3004,Victoria,Melbourne City,http://www.3pcorp.com.au
St Kilda Road,Cummings Flavel McCormack,AU,enquiries@cfmc.com.au,61 3 9252 0800,3004,Victoria,Melbourne City,http://www.cfmc.com.au/
Swanston Street,AD Partners,AU,admin@adpartners.com.au,03 93493499,3053,Victoria,Carlton,http://www.adpartners.com.au/
Brunton Avenue,Arizene Pty Ltd,AU,ravi@arizene.com.au,0396000065,3001,Victoria,East Melbourne,
Brunton Avenue,Servtac,AU,sarah@servtac.com.au,03 9600 1178,3001,Victoria,East Melbourne,http://www.servtac.com.au
Little Greig Street,O'Brien Accountants & Advisers,AU,melfin.leon@bigpond.com,0438599014,3206,Victoria,Albert Park,http://www.obbc.com.au
Queens Road,K Partners Pty Ltd,AU,tony@kpartners.com.au,03 98638855,3004,Victoria,Melbourne City,http://www.kpartners.com.au
Queens Road,KMG Accountants,AU,robert@kmgaccountants.com.au,0398638890,3004,Victoria,Melbourne City,http://
Argyle Place South,Premier Professional Partners,AU,admin@ppartner.com.au,03 9347 8033,3053,Victoria,Carlton,http://www.ppartner.com.au/
Argyle Place South,V P Cannizzaro & Co,AU,vitoc@vpcc.com.au,03 93470100,3053,Victoria,Carlton,http://www.vpcc.com.au
Queensberry Street,Suewin Business Associates,AU,suewin.accountant@gmail.com,03 98990816,3051,Victoria,North Melbourne,
Magnus Lane,SPM Business Consultants Pty Ltd,AU,pdiggerson@spmbc.com.au,03 9328 5022,3051,Victoria,North Melbourne,http://www.spmbc.com.au
St Kilda Road,Best Advisors Pty Ltd,AU,jason@kingstonknight.com.au,0430125656,3004,Victoria,Melbourne City,http://www.kingstonknight.com.au
Abbotsford Street,Ascot Partners Pty Ltd,AU,mc@ascotpartners.com.au,03 9373 2100,3051,Victoria,North Melbourne,http://www.ascotpartners.com.au/index.html
Alexandra Avenue,3P Financial,AU,peter.tsiglopoulos@icloud.com,0399882801,3004,Victoria,Melbourne City,http://www.peterziggy.com.au
Alexandra Avenue,AIM S Austrlia Pty Ltd,AU,info@aimsaustralia.com.au,1300112467,3004,Victoria,Melbourne City,http://www.aimsaustralia.com.au
Alexandra Avenue,Freedom Finance Accounting,AU,tax@ffau.com.au,1800 662 891,3004,Victoria,Melbourne City,http://www.ffau.com.au
Alexandra Avenue,Hewison Private Wealth,AU,info@hewison.com.au,0385484800,3004,Victoria,Melbourne City,http://www.hewison.com.au/
Alexandra Avenue,Hewison Private Wealth,AU,chris@hewison.com.au,03 8548 4800,3004,Victoria,Melbourne City,http://www.hewison.com.au
Alexandra Avenue,LM One Accountants & Advisors,AU,admin@lm1.com.au,1300 561 561,3004,Victoria,Melbourne City,
Alexandra Avenue,Lowenstein Sharp Pty Ltd,AU,melb@lsfa.com.au,03 95101511,3004,Victoria,Melbourne City,http://www.lowensteinsharp.com.au
Alexandra Avenue,Partners Superannuation Services Pty Ltd,AU,tyang.tiffany@gmail.com.au,61398734645,3004,Victoria,Melbourne City,http://www.partnerswealthgroup.com.au
Alexandra Avenue,Rispin and Mott Pty Ltd,AU,kirsty@rispinmott.com.au,0396743680,3004,Victoria,Melbourne City,http://www.rispinmott.com.au
Abbotsford Street,West & Williams,AU,accountants@westwilliams.com.au,03 93266566,3051,Victoria,North Melbourne,www.westwilliams.com.au
Queens Lane,Accountancy Group Services Pty Ltd,AU,cpa@accountancygroup.biz,03 98672744,3004,Victoria,Melbourne City,http://www.accountancygroup.biz
Cardigan Street,Southern Accounting & Consulting Services Pty Ltd,AU,reception@saacs.com.au,03 9650 3888,3053,Victoria,Carlton,http://www.saacs.com.au
Toorak Road West,Quin & Bourke,AU,quinmail@quinandbourke.com.au,03 98676044,3004,Victoria,Melbourne City,http://www.quinandburke.com.au
O'Connell Lane,PKD PARTNERS PTY LTD,AU,fpiccolo@pkdpartners.com.au,03 9662 4334,3053,Victoria,Carlton,http://www.pkdpartners.com.au/
Queens Lane,Forever Yang Accounting & Business Advisory,AU,nyang@foreveryang.com.au,03 95217804,3004,Victoria,Melbourne City,http://www.foreveryang.com.au
St Kilda Road,Spire Business Services Pty Ltd,AU,daniel@spire-business.com.au,03 90067204,3004,Victoria,Melbourne City,http://www.spire-businescom.au
Queens Lane,S.L.A Partners Pty Ltd Tas Hall Chadwick Melbourne,AU,ppryn@hallchadwickmelb.com.au,03 98206400,3004,Victoria,Melbourne City,http://www.hallchadwickmelb.com.au
Macaulay Road,Akram El-Fahkri,AU,aef@supportnet.com.au,03 9387 8789,3051,Victoria,North Melbourne,
Macaulay Road,Bluepond Advisory Pty Ltd,AU,daniels_90@hotmail.com,0398504762,3051,Victoria,North Melbourne,http://www.blueadvisory.com.au
Macaulay Road,M.H KONSTANTY & FLOJAC PTY LTD AS TRUSTEE FOR THE AZZOPARDI FAMILY TRUST & C.A YOUNG t/a YK Partners,AU,clintony@ykpartners.com.au,03 93264688,3051,Victoria,North Melbourne,http://www.ykpartners.com.au
Macaulay Road,SPM Financial Planning,AU,pdiggerson@spmbc.com.au,03 9328 5022,3051,Victoria,North Melbourne,http://www.spmbc.com.au
Beaconsfield Parade,Melfin Pty Ltd ATF Moran Investment Trust T/a Melfin Business Consulting,AU,melfin.leon@bigpond.com,0438599014,3206,Victoria,Albert Park,http://www.melfin.com.au
Drummond Street,FPC Business Group Tas Frank Piccolo & Co,AU,office@fpco.com.au,03 96713177,3053,Victoria,Carlton,
Drummond Street,G S Andrews Advisory,AU,admin@gsandrews.com.au,03 9662 2666,3053,Victoria,Carlton,http://www.gsandrews.com.au/
Drummond Street,Gold Leaf Financial Services,AU,info@goldleaffinancial.com.au,0437 554 653,3053,Victoria,Carlton,http://www.goldleaffinancial.com.au
Drummond Street,In2Tax Accountants & Business Advisors ATF AS Gondal Family Trust T/a In2Tax Accountants & Business Advisors,AU,info@in2tax.com.au,0390187400,3053,Victoria,Carlton,http://www.in2tax.com.au/
Cochrane Place,HID Group,AU,mail@hidgroup.com.au,03 93417333,3053,Victoria,Carlton,http://www.hidgroup.com.au/
Drummond Street,Miller Goldie and Associates (VIC) Pty Ltd ATF C & J Devereux Family Trust,AU,chris@millergoldie.com.au,03 9347 0844,3053,Victoria,Carlton,
Canning Street,Desmond J Cusack,AU,djcusack@exemail.com.au,03 90786 176,3051,Victoria,North Melbourne,http://
St Kilda Road,Ian Kinder & Associates Pty Ltd,AU,ikinder@mcdb.com.au,03 9018 4751,3004,Victoria,Melbourne City,http://www.aisspl.com.au
Queens Lane,Smart Solution (VIC) Pty Ltd,AU,bennyhu.au@gmail.com,(03) 8590 5001,3004,Victoria,Melbourne City,
St Kilda Road,BGL Partners Chartered Accountants,AU,reception@bglpartners.com.au,03 9525 2511,3004,Victoria,Melbourne City,
St Kilda Road,B K Taylor & Co,AU,paul@bktaylor.com.au,03 95294422,3004,Victoria,Melbourne City,
